{"type":"FeatureCollection", "features": [
{"type":"Feature","geometry":{"type":"Polygon","coordinates":[[[112.17,37.25],[112.09,37.25],[109.65,36.48],[108.79,35.71],[108.22,35.64],[108.17,35.52],[108.45,35.26],[107.94,34.55],[109.69,34.49],[110.36,34.23],[110.82,34.23],[110.82,34.42],[110.69,34.49],[110.72,34.74],[110.59,34.81],[110.67,35],[111,35.26],[111.16,35.64],[111.06,35.77],[111.23,36.35],[111.41,36.42],[112.17,37.25]]]},"properties":{"NAME":"Qin","C":2,"name":"Qin","start_year":-750,"end_year":-451,"capital":"","type":"polity","region":"","event":"","source":"Cliopatria / Seshat Global History Databank (CC BY 4.0)","wikipedia":"Qin (state)","wikidata":"Q1471995","_a":13,"_c":[110.06,35.74],"_nz":"秦","_sz":""}},
{"type":"Feature","geometry":{"type":"Polygon","coordinates":[[[117.67,34.42],[117.57,34.55],[116.65,34.55],[116.7,34.68],[116.51,34.94],[116.2,34.94],[116.1,35.07],[116.29,35.32],[115.99,35.71],[115.23,35.39],[114.5,34.94],[114.47,34.87],[114.34,34.74],[114.65,34.55],[115.49,34.55],[115.59,34.42],[116.11,34.36],[116.62,34.1],[117.23,34.1],[117.62,34.29],[117.67,34.42]]]},"properties":{"NAME":"Song","C":5,"name":"Song","start_year":-750,"end_year":-481,"capital":"","type":"polity","region":"","event":"","source":"Cliopatria / Seshat Global History Databank (CC BY 4.0)","wikipedia":"Song (state)","wikidata":"Q7462","_a":5,"_c":[116.01,34.91],"_nz":"宋","_sz":""}},
{"type":"Feature","geometry":{"type":"Polygon","coordinates":[[[116.29,35.32],[116.1,35.07],[116.2,34.94],[116.51,34.94],[116.7,34.68],[117.18,35.07],[116.93,35.19],[116.96,35.45],[116.67,35.32],[116.29,35.32]]]},"properties":{"NAME":"Teng","C":2,"name":"Teng","start_year":-750,"end_year":-481,"capital":"","type":"polity","region":"","event":"","source":"Cliopatria / Seshat Global History Databank (CC BY 4.0)","wikipedia":"Teng (state)","wikidata":"Q1356151","_a":1,"_c":[116.64,35.07],"_nz":"滕","_sz":""}},
{"type":"Feature","geometry":{"type":"Polygon","coordinates":[[[113.93,34.49],[114.16,34.29],[115.59,34.42],[115.49,34.55],[114.65,34.55],[114.34,34.74],[114.47,34.87],[113.75,34.81],[113.93,34.49]]]},"properties":{"NAME":"Chen","C":10,"name":"Chen","start_year":-750,"end_year":-481,"capital":"","type":"polity","region":"","event":"","source":"Cliopatria / Seshat Global History Databank (CC BY 4.0)","wikipedia":"Chen (state)","wikidata":"Q1069690","_a":1,"_c":[114.67,34.58],"_nz":"陈","_sz":""}},
{"type":"Feature","geometry":{"type":"Polygon","coordinates":[[[115.01,35.77],[114.86,35.77],[114.41,35.45],[114.38,35.19],[114.5,34.94],[115.23,35.39],[114.96,35.64],[115.01,35.77]]]},"properties":{"NAME":"Cao","C":5,"name":"Cao","start_year":-750,"end_year":-481,"capital":"","type":"polity","region":"","event":"","source":"Cliopatria / Seshat Global History Databank (CC BY 4.0)","wikipedia":"Cao (state)","wikidata":"Q204077","_a":1,"_c":[114.81,35.36],"_nz":"曹","_sz":""}},
{"type":"Feature","geometry":{"type":"Polygon","coordinates":[[[119.23,34.81],[119.62,35.52],[119.99,35.64],[120.32,36.03],[120.66,36.1],[120.73,36.42],[120.53,36.48],[119.9,36.29],[117.35,36.16],[116.05,35.84],[115.76,35.9],[115.8,36.16],[115.6,36.22],[115.01,35.77],[114.96,35.64],[115.23,35.39],[115.99,35.71],[116.29,35.32],[116.67,35.32],[116.96,35.45],[117.59,35.64],[118.25,35.58],[118.3,35.52],[118.06,35.13],[117.77,35],[117.64,34.87],[117.97,34.74],[118.12,34.74],[118.28,34.94],[118.44,34.94],[118.43,34.74],[119.23,34.81]]]},"properties":{"NAME":"Lu","C":1,"name":"Lu","start_year":-750,"end_year":-481,"capital":"","type":"polity","region":"","event":"","source":"Cliopatria / Seshat Global History Databank (CC BY 4.0)","wikipedia":"Lu (state)","wikidata":"Q555994","_a":10,"_c":[117.85,35.61],"_nz":"鲁","_sz":""}},
{"type":"Feature","geometry":{"type":"Polygon","coordinates":[[[114.23,35.39],[113.53,35.39],[113.34,34.94],[113.75,34.81],[114.47,34.87],[114.5,34.94],[114.38,35.19],[114.41,35.45],[114.23,35.39]]]},"properties":{"NAME":"Zheng","C":4,"name":"Zheng","start_year":-750,"end_year":-451,"capital":"","type":"polity","region":"","event":"","source":"Cliopatria / Seshat Global History Databank (CC BY 4.0)","wikipedia":"Zheng (state)","wikidata":"Q197598","_a":1,"_c":[113.92,35.13],"_nz":"郑","_sz":""}},
{"type":"Feature","geometry":{"type":"Polygon","coordinates":[[[113.93,34.49],[113.75,34.81],[113.34,34.94],[113.03,34.74],[113.03,34.55],[113.39,34.49],[113.59,34.23],[113.93,34.49]]]},"properties":{"NAME":"Cai","C":11,"name":"Cai","start_year":-750,"end_year":-481,"capital":"","type":"polity","region":"","event":"","source":"Cliopatria / Seshat Global History Databank (CC BY 4.0)","wikipedia":"Cai (state)","wikidata":"Q1025803","_a":1,"_c":[113.49,34.58],"_nz":"蔡","_sz":""}},
{"type":"Feature","geometry":{"type":"Polygon","coordinates":[[[116.96,35.45],[116.93,35.19],[117.18,35.07],[117.77,35],[118.06,35.13],[118.3,35.52],[118.25,35.58],[117.59,35.64],[116.96,35.45]]]},"properties":{"NAME":"Zhu","C":11,"name":"Zhu","start_year":-750,"end_year":-451,"capital":"","type":"polity","region":"","event":"","source":"Cliopatria / Seshat Global History Databank (CC BY 4.0)","wikipedia":"Zhu (state)","wikidata":"Q227007","_a":1,"_c":[117.6,35.32],"_nz":"邾","_sz":""}},
{"type":"Feature","geometry":{"type":"Polygon","coordinates":[[[117.62,38.67],[117.68,38.93],[117.89,39.19],[118.06,39.06],[118.45,39.06],[118.99,39.19],[119.28,39.45],[119.38,39.77],[120.5,40.23],[120.65,40.48],[121.23,40.94],[119.34,40.42],[117.57,40.36],[116.45,39.9],[116.1,39.84],[115.86,39.38],[116.1,39.38],[116.09,39.06],[116.26,38.93],[116.15,38.55],[117.2,38.61],[117.62,38.67]]]},"properties":{"NAME":"Yan","C":2,"name":"Yan","start_year":-750,"end_year":-405,"capital":"","type":"polity","region":"","event":"","source":"Cliopatria / Seshat Global History Databank (CC BY 4.0)","wikipedia":"Yan (state)","wikidata":"Q1472004","_a":13,"_c":[118.55,39.74],"_nz":"燕","_sz":""}},
{"type":"Feature","geometry":{"type":"Polygon","coordinates":[[[112.15,34.49],[112.62,34.49],[113.03,34.74],[113.34,34.94],[113.53,35.39],[112.32,35.45],[112.18,34.94],[112.15,34.49]]]},"properties":{"NAME":"Later Zhou","C":0,"name":"Later Zhou","start_year":-750,"end_year":-451,"capital":"","type":"polity","region":"","event":"","source":"Cliopatria / Seshat Global History Databank (CC BY 4.0)","wikipedia":"Later Zhou","wikidata":"Q1154556","_a":1,"_c":[112.82,34.97],"_nz":"后周","_sz":""}},
{"type":"Feature","geometry":{"type":"Polygon","coordinates":[[[116.7,34.68],[116.65,34.55],[117.57,34.55],[117.67,34.42],[117.97,34.74],[117.64,34.87],[117.77,35],[117.18,35.07],[116.7,34.68]]]},"properties":{"NAME":"Xu","C":1,"name":"Xu","start_year":-750,"end_year":-451,"capital":"","type":"polity","region":"","event":"","source":"Cliopatria / Seshat Global History Databank (CC BY 4.0)","wikipedia":"Xu (state)","wikidata":"Q2650109","_a":1,"_c":[117.31,34.75],"_nz":"徐","_sz":""}},
{"type":"Feature","geometry":{"type":"Polygon","coordinates":[[[115.59,34.42],[114.16,34.29],[113.93,34.49],[113.59,34.23],[113.39,34.49],[113.03,34.55],[113.03,34.74],[112.62,34.49],[112.15,34.49],[110.9,34.23],[110.87,34.16],[110.49,33.97],[110.49,33.78],[110.21,33.65],[110.21,33.46],[109.78,33.33],[109.71,33.14],[109.82,33.01],[109.31,31.59],[109.48,31.4],[109.48,30.95],[109.92,30.44],[110.41,30.31],[110.23,29.99],[110.66,29.92],[111.3,29.54],[111.81,29.47],[112,29.34],[112.9,29.34],[113.27,29.54],[113.58,30.05],[113.95,30.24],[114.11,30.5],[116.12,30.37],[116.84,30.69],[117.02,31.21],[117.11,31.66],[118.32,32.43],[118.91,32.94],[118.57,33.07],[118.45,33.33],[118.12,33.46],[118.04,33.65],[117.76,33.71],[117.74,33.84],[117.23,34.1],[116.62,34.1],[116.11,34.36],[115.59,34.42]]]},"properties":{"NAME":"Chu","C":0,"name":"Chu","start_year":-700,"end_year":-481,"capital":"","type":"polity","region":"","event":"","source":"Cliopatria / Seshat Global History Databank (CC BY 4.0)","wikipedia":"Chu (state)","wikidata":"Q504759","_a":52,"_c":[114.11,32.04],"_nz":"楚","_sz":""}},
{"type":"Feature","geometry":{"type":"Polygon","coordinates":[[[46.15,15.52],[46.51,15.33],[47.53,15.2],[47.52,15.07],[49.41,14.69],[50.75,15.01],[50.85,15.33],[51.07,15.46],[51.24,15.78],[51.86,16.23],[51.95,16.49],[51.89,16.61],[51.08,16.68],[50.48,16.55],[50.12,16.61],[49.59,16.49],[48.12,16.42],[46.7,16.1],[46.55,16.16],[46.47,15.97],[46.38,15.71],[46.15,15.52]]]},"properties":{"NAME":"Hadhramaut","C":11,"name":"Hadhramaut","start_year":-700,"end_year":-351,"capital":"","type":"polity","region":"","event":"","source":"Cliopatria / Seshat Global History Databank (CC BY 4.0)","wikipedia":"Hadhramaut","wikidata":"Q1517159","_a":12,"_c":[49.05,15.68],"_nz":"哈德拉毛","_sz":""}},
{"type":"Feature","geometry":{"type":"Polygon","coordinates":[[[-94.05,18.29],[-94.57,18.29],[-94.7,18.16],[-94.92,18.16],[-95.34,18.48],[-95.49,18.48],[-95.47,18.8],[-95.84,18.8],[-95.95,18.61],[-95.93,18.48],[-95.46,18.29],[-95.11,17.96],[-94.23,17.58],[-93.66,17.71],[-93.68,17.84],[-92.79,18.22],[-92.69,18.54],[-93.49,18.48],[-94.05,18.29]]]},"properties":{"NAME":"Olmec Civilization","C":11,"name":"Olmec Civilization","start_year":-650,"end_year":-367,"capital":"","type":"polity","region":"","event":"","source":"Cliopatria / Seshat Global History Databank (CC BY 4.0)","wikipedia":"Olmecs","wikidata":"Q135364","_a":4,"_c":[-94.32,18.19],"_nz":"奥尔梅克文明","_sz":""}},
{"type":"Feature","geometry":{"type":"Polygon","coordinates":[[[30.54,23.36],[30.74,22.85],[30.72,22.27],[30.64,21.95],[30.69,21.31],[30.76,21.31],[30.74,20.79],[30.82,20.79],[30.8,20.34],[30.88,20.34],[31.15,17.64],[31.22,17.64],[31.34,16.81],[31.48,16.61],[31.39,16.36],[31.54,16.23],[31.53,15.97],[31.73,15.59],[32.09,15.39],[32.53,15.33],[32.53,15.2],[33.86,15.46],[34.1,15.84],[34.68,15.78],[34.56,16.23],[34.71,16.49],[35.67,16.49],[36.05,16.81],[36,17.32],[35.5,17.64],[35.3,18.09],[34.94,18.29],[34.88,18.61],[34.6,18.93],[34.47,19.38],[34.26,19.64],[33.82,21.63],[33.88,23.17],[33.82,23.49],[33.68,23.69],[33.39,23.81],[32.04,23.69],[31.67,23.75],[30.54,23.36]]]},"properties":{"NAME":"Kingdom of Kush","C":3,"name":"Kingdom of Kush","start_year":-630,"end_year":337,"capital":"","type":"polity","region":"","event":"","source":"Cliopatria / Seshat Global History Databank (CC BY 4.0)","wikipedia":"Kingdom of Kush","wikidata":"Q241790","_a":48,"_c":[33.29,19.51],"_nz":"库施王国","_sz":""}},
{"type":"Feature","geometry":{"type":"Polygon","coordinates":[[[75.41,23.36],[75.3,23.11],[75.45,23.11],[75.57,22.85],[75.87,22.85],[75.88,22.98],[76.2,23.11],[76.23,23.36],[75.95,23.49],[75.96,23.62],[75.67,23.62],[75.41,23.36]]]},"properties":{"NAME":"Janapada of Avanti","C":4,"name":"Janapada of Avanti","start_year":-600,"end_year":-451,"capital":"","type":"polity","region":"","event":"","source":"Cliopatria / Seshat Global History Databank (CC BY 4.0)","wikipedia":"Avanti (region)","wikidata":"Q4827705","_a":1,"_c":[75.77,23.24],"_nz":"阿槃提国","_sz":""}},
{"type":"Feature","geometry":{"type":"Polygon","coordinates":[[[83.68,26.64],[83.81,26.52],[83.92,26.26],[84.2,26.19],[84.38,26.32],[84.41,26.52],[84.56,26.52],[84.61,26.77],[84.33,26.9],[84.36,27.03],[84.07,27.09],[84.03,26.9],[83.68,26.64]]]},"properties":{"NAME":"Janapada of Malla","C":8,"name":"Janapada of Malla","start_year":-600,"end_year":-481,"capital":"","type":"polity","region":"","event":"","source":"Cliopatria / Seshat Global History Databank (CC BY 4.0)","wikipedia":"Malla (tribe)","wikidata":"Q1376303","_a":1,"_c":[84.14,26.64],"_nz":"末罗国","_sz":""}},
{"type":"Feature","geometry":{"type":"Polygon","coordinates":[[[81.61,25.94],[81.21,25.81],[81,25.42],[81.15,25.42],[81.26,25.16],[81.56,25.16],[81.82,25.36],[81.65,25.74],[81.61,25.94]]]},"properties":{"NAME":"Janapada of Cedī","C":6,"name":"Janapada of Cedī","start_year":-600,"end_year":-481,"capital":"","type":"polity","region":"","event":"","source":"Cliopatria / Seshat Global History Databank (CC BY 4.0)","wikipedia":"Cedī (tribe)","wikidata":"Q124207979","_a":1,"_c":[81.41,25.55],"_nz":"支提国","_sz":""}},
{"type":"Feature","geometry":{"type":"Polygon","coordinates":[[[76.86,28.77],[76.81,28.51],[77.06,28.25],[77.36,28.25],[77.56,28.51],[77.71,28.51],[77.76,28.77],[77.61,28.77],[77.51,29.02],[77.3,29.09],[76.93,28.77],[76.86,28.77]]]},"properties":{"NAME":"Janapada of Kuru","C":6,"name":"Janapada of Kuru","start_year":-600,"end_year":-451,"capital":"","type":"polity","region":"","event":"","source":"Cliopatria / Seshat Global History Databank (CC BY 4.0)","wikipedia":"Kuru Kingdom","wikidata":"Q1068408","_a":1,"_c":[77.29,28.67],"_nz":"俱卢国","_sz":""}},
{"type":"Feature","geometry":{"type":"Polygon","coordinates":[[[81.47,27.29],[81.35,27.03],[81.5,27.03],[81.61,26.77],[81.91,26.77],[81.93,26.9],[82.25,27.03],[82.3,27.29],[82.02,27.42],[82.05,27.54],[81.75,27.54],[81.47,27.29]]]},"properties":{"NAME":"Janapada of Kosala","C":8,"name":"Janapada of Kosala","start_year":-600,"end_year":-481,"capital":"","type":"polity","region":"","event":"","source":"Cliopatria / Seshat Global History Databank (CC BY 4.0)","wikipedia":"Kosala","wikidata":"Q756854","_a":1,"_c":[81.82,27.16],"_nz":"拘萨罗国","_sz":""}},
{"type":"Feature","geometry":{"type":"Polygon","coordinates":[[[75.72,27.48],[75.94,27.03],[76.24,27.03],[76.26,27.16],[76.59,27.29],[76.63,27.54],[76.35,27.67],[76.39,27.87],[76.16,27.87],[75.88,27.54],[75.72,27.48]]]},"properties":{"NAME":"Janapada of Matsya","C":4,"name":"Janapada of Matsya","start_year":-600,"end_year":-451,"capital":"","type":"polity","region":"","event":"","source":"Cliopatria / Seshat Global History Databank (CC BY 4.0)","wikipedia":"Matsya (tribe)","wikidata":"Q2665398","_a":1,"_c":[76.16,27.45],"_nz":"摩差国","_sz":""}},
{"type":"Feature","geometry":{"type":"Polygon","coordinates":[[[77.27,27.35],[77.24,27.16],[77.5,26.9],[77.8,26.9],[78.14,27.16],[78.19,27.42],[77.91,27.54],[77.93,27.67],[77.63,27.67],[77.61,27.54],[77.28,27.42],[77.27,27.35]]]},"properties":{"NAME":"Janapada of Surasena","C":3,"name":"Janapada of Surasena","start_year":-600,"end_year":-451,"capital":"","type":"polity","region":"","event":"","source":"Cliopatria / Seshat Global History Databank (CC BY 4.0)","wikipedia":"Surasena","wikidata":"Q1330149","_a":1,"_c":[77.72,27.26],"_nz":"苏罗娑国","_sz":""}},
{"type":"Feature","geometry":{"type":"Polygon","coordinates":[[[78.72,28.25],[78.59,27.99],[78.75,27.99],[78.85,27.74],[79.15,27.74],[79.17,27.87],[79.5,27.99],[79.55,28.25],[79.27,28.38],[79.3,28.51],[78.99,28.51],[78.72,28.25]]]},"properties":{"NAME":"Janapada of Pañcāla","C":2,"name":"Janapada of Pañcāla","start_year":-600,"end_year":-451,"capital":"","type":"polity","region":"","event":"","source":"Cliopatria / Seshat Global History Databank (CC BY 4.0)","wikipedia":"Pañcāla","wikidata":"Q558603","_a":1,"_c":[79.07,28.13],"_nz":"般阇罗国","_sz":""}},
{"type":"Feature","geometry":{"type":"Polygon","coordinates":[[[81.82,25.36],[82.14,25.49],[82.31,25.62],[82.35,25.87],[82.07,26],[82.09,26.13],[81.79,26.13],[81.61,25.94],[81.65,25.74],[81.82,25.36]]]},"properties":{"NAME":"Janapada of Vatsa","C":2,"name":"Janapada of Vatsa","start_year":-600,"end_year":-481,"capital":"","type":"polity","region":"","event":"","source":"Cliopatria / Seshat Global History Databank (CC BY 4.0)","wikipedia":"Vatsa","wikidata":"Q1331184","_a":1,"_c":[81.98,25.74],"_nz":"跋蹉国","_sz":""}},
{"type":"Feature","geometry":{"type":"Polygon","coordinates":[[[82.46,25.62],[82.34,25.36],[82.49,25.36],[82.6,25.1],[82.9,25.1],[82.92,25.23],[83.24,25.36],[83.28,25.62],[83,25.74],[83.02,25.87],[82.72,25.87],[82.46,25.62]]]},"properties":{"NAME":"Janapada of Kāśī","C":3,"name":"Janapada of Kāśī","start_year":-600,"end_year":-481,"capital":"","type":"polity","region":"","event":"","source":"Cliopatria / Seshat Global History Databank (CC BY 4.0)","wikipedia":"Kāśī (kingdom)","wikidata":"Q12660335","_a":1,"_c":[82.81,25.49],"_nz":"迦尸国","_sz":""}},
{"type":"Feature","geometry":{"type":"Polygon","coordinates":[[[46.47,15.97],[46.18,15.97],[46.02,15.84],[45.58,15.84],[45.37,15.97],[44.81,16.55],[44.81,16.61],[44.09,16.81],[43.95,16.94],[43.96,17.13],[43.82,17.26],[43.9,17.39],[43.55,17.77],[43.25,17.64],[43.03,17.71],[43.02,17.51],[42.63,17.19],[42.49,17.19],[42.48,17],[42.82,16.61],[42.78,15.84],[42.71,15.84],[42.75,15.14],[45.02,15.14],[45.4,15.33],[45.85,15.39],[45.86,15.52],[46.15,15.52],[46.38,15.71],[46.47,15.97]]]},"properties":{"NAME":"Sabaeans","C":6,"name":"Sabaeans","start_year":-550,"end_year":-451,"capital":"","type":"polity","region":"","event":"","source":"Cliopatria / Seshat Global History Databank (CC BY 4.0)","wikipedia":"Sabaeans","wikidata":"Q940785","_a":10,"_c":[44.47,16.45],"_nz":"萨巴人","_sz":""}},
{"type":"Feature","geometry":{"type":"Polygon","coordinates":[[[116.12,30.37],[116.27,29.92],[116.74,29.73],[117.19,29.73],[117.53,29.6],[118.36,29.6],[119.23,29.92],[119.78,29.99],[120.24,29.79],[121.31,29.6],[121.42,29.47],[121.82,29.54],[122.03,29.92],[121.62,30.05],[121.48,30.31],[121.1,30.31],[120.81,30.12],[120.68,30.18],[121.05,30.56],[121.2,30.56],[121.52,30.82],[121.9,30.82],[122,31.08],[121.63,31.53],[120.92,31.85],[121.58,31.79],[121.84,31.66],[121.99,31.85],[121.78,32.11],[121.5,32.17],[121.4,32.49],[120.92,32.62],[120.93,33.2],[120.55,33.59],[120.49,34.16],[120.34,34.36],[119.98,34.42],[119.73,34.55],[119.71,34.68],[119.23,34.81],[118.43,34.74],[118.44,34.94],[118.28,34.94],[118.12,34.74],[117.97,34.74],[117.67,34.42],[117.62,34.29],[117.23,34.1],[117.74,33.84],[117.76,33.71],[118.04,33.65],[118.12,33.46],[118.45,33.33],[118.57,33.07],[118.91,32.94],[118.32,32.43],[117.11,31.66],[117.02,31.21],[116.84,30.69],[116.12,30.37]]]},"properties":{"NAME":"Wu","C":6,"name":"Wu","start_year":-550,"end_year":-481,"capital":"","type":"polity","region":"","event":"","source":"Cliopatria / Seshat Global History Databank (CC BY 4.0)","wikipedia":"Wu (state)","wikidata":"Q274488","_a":32,"_c":[119.07,32.21],"_nz":"吴","_sz":""}},
{"type":"Feature","geometry":{"type":"Polygon","coordinates":[[[22.79,37.58],[23.1,37.51],[23.17,37.32],[23.41,37.38],[23.34,37.64],[23.11,37.64],[23.04,37.9],[23.2,37.9],[23.29,38.09],[22.98,38.09],[22.97,37.96],[22.66,37.96],[22.26,37.9],[22.12,38.09],[21.95,37.96],[21.33,38.03],[21.24,37.84],[21.7,37.51],[21.68,37.19],[21.74,36.87],[21.91,37.06],[22.22,37.06],[22.36,36.67],[22.51,36.67],[22.6,36.87],[22.83,36.87],[23.06,36.67],[22.85,37.25],[22.71,37.45],[22.55,37.45],[22.57,37.77],[22.8,37.77],[22.79,37.58]]]},"properties":{"NAME":"Peloponnesian League","C":6,"name":"Peloponnesian League","start_year":-550,"end_year":-481,"capital":"","type":"polity","region":"","event":"","source":"Cliopatria / Seshat Global History Databank (CC BY 4.0)","wikipedia":"Peloponnesian League","wikidata":"Q208742","_a":3,"_c":[22.33,37.38],"_nz":"伯罗奔尼撒同盟","_sz":""}},
{"type":"Feature","geometry":{"type":"Polygon","coordinates":[[[115.6,36.22],[115.64,36.48],[115.36,36.74],[114.31,35.77],[114.23,35.39],[114.41,35.45],[114.86,35.77],[115.01,35.77],[115.6,36.22]]]},"properties":{"NAME":"Wey","C":3,"name":"Wey","start_year":-550,"end_year":-481,"capital":"","type":"polity","region":"","event":"","source":"Cliopatria / Seshat Global History Databank (CC BY 4.0)","wikipedia":"Wey (state)","wikidata":"Q1147897","_a":2,"_c":[114.94,36.07],"_nz":"卫","_sz":""}},
{"type":"Feature","geometry":{"type":"Polygon","coordinates":[[[37.74,45.72],[42.98,47.01],[45.08,48.26],[45.61,48.73],[45.77,49.46],[45.77,50.22],[45.21,51.19],[43.75,51.79],[41.42,52.28],[39.13,52.37],[35.71,52.26],[33.08,52],[31.38,51.64],[30.08,51.07],[29.31,50.3],[29.1,49.89],[29.23,49.24],[29.74,48.61],[31.76,47.35],[32.39,47.22],[34.85,46.11],[35.23,46.44],[35.28,46.28],[35.83,46.62],[36.79,46.71],[37.54,47.07],[39.2,47.27],[39.27,47.04],[38.44,46.81],[38.5,46.66],[37.77,46.64],[37.91,46.41],[38.49,46.09],[38.01,46.05],[37.74,45.72]]]},"properties":{"NAME":"Scythia","C":9,"name":"Scythia","start_year":-550,"end_year":-451,"capital":"","type":"polity","region":"","event":"","source":"Cliopatria / Seshat Global History Databank (CC BY 4.0)","wikipedia":"Scythians","wikidata":"Q131802","_a":111,"_c":[37.44,49.05],"_nz":"斯基泰","_sz":""}},
{"type":"Feature","geometry":{"type":"Polygon","coordinates":[[[120.73,36.42],[120.96,36.42],[120.98,36.61],[121.21,36.61],[121.91,36.93],[122.39,36.8],[122.57,37],[122.47,37.13],[122.71,37.45],[122.12,37.51],[121.5,37.51],[121.48,37.64],[121.17,37.64],[121.11,37.84],[120.75,37.9],[120.19,37.71],[120.2,37.58],[119.83,37.45],[119.7,37.19],[119.16,37.19],[118.98,37.32],[119.24,37.84],[119.46,37.96],[119.13,38.09],[118.77,38.16],[118.58,38.09],[118.07,38.16],[118.05,38.29],[117.6,38.48],[117.62,38.67],[117.2,38.61],[116.63,37.45],[116.63,37.13],[116.85,36.93],[116.05,35.84],[117.35,36.16],[119.9,36.29],[120.53,36.48],[120.73,36.42]]]},"properties":{"NAME":"Qi","C":0,"name":"Qi","start_year":-550,"end_year":-481,"capital":"","type":"polity","region":"","event":"","source":"Cliopatria / Seshat Global History Databank (CC BY 4.0)","wikipedia":"Qi (state)","wikidata":"Q1143524","_a":19,"_c":[119.38,37.26],"_nz":"齐","_sz":""}},
{"type":"Feature","geometry":{"type":"Polygon","coordinates":[[[77.83,19.89],[77.95,19.7],[77.93,19.51],[78.37,19.51],[78.69,19.7],[78.8,19.96],[78.44,20.09],[78.46,20.21],[78.16,20.21],[78.15,20.09],[77.83,19.96],[77.83,19.89]]]},"properties":{"NAME":"Janapada of Aśmaka","C":5,"name":"Janapada of Aśmaka","start_year":-550,"end_year":-367,"capital":"","type":"polity","region":"","event":"","source":"Cliopatria / Seshat Global History Databank (CC BY 4.0)","wikipedia":"Asmaka","wikidata":"Q1194906","_a":1,"_c":[78.3,19.86],"_nz":"阿湿波迦国","_sz":""}},
{"type":"Feature","geometry":{"type":"Polygon","coordinates":[[[114.23,35.39],[114.31,35.77],[115.36,36.74],[115.64,36.48],[115.6,36.22],[115.8,36.16],[115.76,35.9],[116.05,35.84],[116.85,36.93],[116.63,37.13],[116.63,37.45],[117.2,38.61],[116.15,38.55],[116.26,38.93],[116.09,39.06],[116.1,39.38],[115.86,39.38],[116.1,39.84],[115.45,39.64],[114.36,38.74],[114.09,38.67],[114.11,38.55],[113.27,37.77],[112.2,37.32],[112.17,37.25],[111.41,36.42],[111.23,36.35],[111.06,35.77],[111.16,35.64],[111,35.26],[110.67,35],[110.59,34.81],[110.72,34.74],[110.69,34.49],[110.82,34.42],[110.82,34.23],[110.9,34.23],[112.15,34.49],[112.18,34.94],[112.32,35.45],[113.53,35.39],[114.23,35.39]]]},"properties":{"NAME":"Jin","C":7,"name":"Jin","start_year":-550,"end_year":-451,"capital":"","type":"polity","region":"","event":"","source":"Cliopatria / Seshat Global History Databank (CC BY 4.0)","wikipedia":"Jin (Chinese state)","wikidata":"Q6201794","_a":37,"_c":[113.9,37.07],"_nz":"晋","_sz":""}},
{"type":"Feature","geometry":{"type":"MultiPolygon","coordinates":[[[[9.49,43.02],[9.25,43.02],[9.17,42.76],[8.77,42.69],[8.53,42.5],[8.54,42.11],[8.78,41.72],[8.78,41.52],[9.1,41.33],[9.26,41.39],[9.58,41.98],[9.57,42.76],[9.49,43.02]]],[[[10.46,42.89],[10.13,42.89],[10.21,42.69],[10.46,42.69],[10.46,42.89]]],[[[12.45,42.11],[12.31,43.54],[11.91,43.73],[11.99,44.06],[12.31,44.19],[12.15,44.45],[12.16,44.84],[12.4,44.78],[12.4,45.04],[12.16,45.17],[12.16,45.37],[10.53,45.56],[10.53,45.69],[9.47,45.69],[9.39,45.63],[9.48,45.37],[10.62,44.71],[10.54,44.39],[10.29,44.32],[10.13,44.12],[10.54,43.08],[11.02,42.82],[11.26,42.43],[11.65,42.37],[11.73,42.17],[11.97,42.11],[12.45,42.11]]]]},"properties":{"NAME":"Etruscans","C":4,"name":"Etruscans","start_year":-530,"end_year":-481,"capital":"","type":"polity","region":"","event":"","source":"Cliopatria / Seshat Global History Databank (CC BY 4.0)","wikipedia":"Etruscan civilization","wikidata":"Q17161","_a":17,"_c":[10.49,43.51],"_nz":"伊特鲁里亚人","_sz":""}},
{"type":"Feature","geometry":{"type":"MultiPolygon","coordinates":[[[[24.15,35.39],[24.16,35.52],[23.62,35.52],[23.68,35.26],[24.45,35.19],[24.76,35.19],[24.82,35],[26.14,35.07],[26.23,35.19],[25.68,35.13],[25.69,35.32],[24.3,35.32],[24.15,35.39]]],[[[22.89,36.42],[22.87,36.16],[23.11,36.16],[23.12,36.35],[22.89,36.42]]],[[[-6.05,37.13],[-6.68,37.13],[-6.35,36.93],[-6.33,36.67],[-6.02,36.74],[-5.96,36.87],[-6.05,37.13]]],[[[22.71,37.45],[22.79,37.58],[22.8,37.77],[22.57,37.77],[22.55,37.45],[22.71,37.45]]],[[[20.62,37.9],[20.61,37.71],[20.92,37.64],[20.93,37.9],[20.62,37.9]]],[[[24.69,38.03],[24.68,37.84],[24.83,37.71],[25.07,37.77],[24.69,38.03]]],[[[14.06,38.03],[13.9,37.96],[14.05,37.77],[14.37,37.77],[14.53,37.96],[14.06,38.03]]],[[[20.49,38.42],[20.33,38.35],[20.32,38.16],[20.79,38.09],[20.8,38.29],[20.49,38.42]]],[[[24.36,39],[24.36,38.87],[24.66,38.74],[24.67,38.93],[24.36,39]]],[[[17.51,40.68],[16.88,40.74],[16.31,40.23],[16.38,40.03],[16.14,40.03],[15.99,40.23],[15.52,40.23],[15.06,40.87],[14.03,41],[14.1,40.87],[14.42,40.87],[14.42,40.68],[14.89,40.68],[15.04,40.23],[15.2,40.23],[15.43,40.03],[15.9,39.77],[16.27,38.74],[15.95,38.67],[15.86,38.29],[15.47,38.29],[15.15,38.16],[15.15,38.03],[14.83,37.77],[14.75,37.51],[14.98,37.06],[14.74,37.06],[12.96,37.84],[12.49,37.84],[12.49,37.71],[13.19,37.58],[13.58,37.25],[14.28,37.13],[14.66,36.74],[15.05,36.74],[15.21,37.19],[15.06,37.25],[15.07,37.64],[15.39,38.16],[15.62,38.16],[15.7,37.96],[15.93,37.96],[16.49,38.42],[16.5,38.8],[17.14,39.06],[17.07,39.38],[16.92,39.51],[16.45,39.64],[16.46,39.97],[16.7,40.1],[16.62,40.29],[16.86,40.29],[17.03,40.55],[17.35,40.55],[17.42,40.36],[17.81,40.36],[18.11,39.9],[18.35,39.9],[18.44,40.16],[17.98,40.61],[17.5,40.55],[17.51,40.68]]],[[[23.56,38.74],[23.63,38.48],[23.31,38.48],[23.17,38.67],[22.94,38.74],[22.94,38.87],[23.49,38.8],[23.34,39],[23.11,39],[22.82,39.38],[23.14,39.45],[22.54,39.97],[22.59,39.51],[22.18,39.26],[22.17,39.06],[21.93,39],[21.86,39.26],[21.64,39.38],[21.08,39.26],[20.99,39.06],[20.75,38.93],[20.74,38.8],[20.97,38.74],[21.19,38.42],[21.74,38.35],[21.73,38.16],[21.33,38.03],[21.95,37.96],[22.12,38.09],[22.26,37.9],[22.66,37.96],[22.52,38.29],[22.84,38.35],[22.75,38.22],[23.98,37.84],[24,38.22],[24.16,38.22],[24.18,38.55],[24.03,38.67],[23.56,38.74]]],[[[0.1,38.8],[-0.31,39.13],[-0.35,39.71],[-0.2,39.97],[-0.51,39.9],[-0.57,39.51],[-0.54,38.93],[-0.13,38.55],[0.1,38.8]]],[[[24.49,40.81],[24.55,40.55],[24.79,40.61],[24.81,40.81],[24.49,40.81]]],[[[23.19,40.36],[23.27,40.29],[23.66,40.29],[23.84,40.55],[23.68,40.61],[23.7,40.81],[24.01,40.74],[24.35,41],[25.14,41],[24.84,41.2],[24.52,41.2],[24.27,41.07],[24.04,41.13],[23.39,40.87],[23.19,40.36]]],[[[19.9,41.07],[19.75,41.13],[19.69,41.46],[19.44,41.33],[19.5,40.87],[19.25,40.61],[19.49,40.61],[19.47,40.29],[19.79,40.36],[19.73,40.74],[19.9,40.87],[19.9,41.07]]],[[[5.06,43.47],[5.39,43.41],[5.8,43.15],[6.28,43.15],[6.6,43.28],[6.59,43.41],[5.87,43.41],[4.73,43.86],[3.45,43.67],[2.74,43.21],[2.67,43.02],[2.78,42.43],[2.7,42.37],[3.04,41.85],[3.18,42.37],[3.01,42.56],[2.98,43.15],[3.85,43.6],[4.17,43.6],[4.18,43.47],[5.06,43.47]]],[[[24.99,37.71],[25.05,37.51],[25.29,37.51],[25.22,37.71],[24.99,37.71]]],[[[26.08,37.71],[25.99,37.51],[26.3,37.58],[26.08,37.71]]],[[[25.07,40.03],[24.97,39.84],[25.45,39.84],[25.46,40.03],[25.07,40.03]]],[[[25.72,40.29],[25.7,40.1],[26.02,40.16],[26.04,40.29],[25.72,40.29]]],[[[26.26,40.1],[26.67,40.36],[26.6,40.48],[26.27,40.29],[26.26,40.1]]],[[[36.53,41.26],[36.51,41.13],[37.36,40.94],[37.87,40.68],[38.82,40.68],[39,40.81],[39.4,40.81],[39.62,40.68],[40.41,40.68],[40.6,40.87],[40.46,41],[40.38,41],[39.74,40.94],[39.21,41.13],[38.95,41],[38.3,40.87],[38.16,41],[37.83,40.94],[37.77,41.07],[37.21,41.07],[36.77,41.33],[36.53,41.26]]],[[[29.37,41.2],[28.96,41.13],[28.98,41.26],[28.35,41.39],[28.19,41.33],[28.17,41.13],[28.63,41],[29.12,41.07],[29.37,41.2]]],[[[35.01,41.78],[35.09,41.78],[35.12,42.04],[34.79,41.98],[35.02,41.85],[35.01,41.78]]],[[[27.46,42.11],[27.46,42.04],[27.54,42.04],[27.92,41.91],[27.8,42.24],[27.49,42.43],[27.51,42.63],[27.85,42.76],[27.8,43.15],[27.9,43.28],[28.23,43.34],[28.48,43.47],[28.62,43.99],[28.58,44.39],[28.84,44.58],[28.8,44.97],[28.64,44.97],[28.37,44.71],[28.3,44.06],[28.12,43.86],[28,43.47],[27.66,43.28],[27.19,42.63],[27.17,42.43],[27.46,42.11]],[[27.54,42.04],[27.46,42.04],[27.46,42.11],[27.54,42.04]]],[[[40.22,43.41],[40.42,43.15],[40.82,43.15],[41.12,43.02],[41.17,42.89],[41.41,42.89],[41.44,43.02],[41.21,43.08],[41.15,43.21],[40.38,43.41],[40.41,43.6],[39.63,43.73],[39.98,43.41],[40.22,43.41]]],[[[36.42,45.43],[35.75,45.3],[34.86,45.3],[34.42,45.1],[33.93,45.04],[33.64,45.3],[33.23,45.3],[33.61,45.1],[33.45,44.52],[33.93,44.45],[34.38,44.78],[35.3,44.97],[35.41,45.17],[35.73,45.17],[35.88,45.04],[36.37,45.1],[36.42,45.43]]],[[[31.53,46.68],[31.57,46.94],[31.08,47.01],[31.07,46.87],[30.46,46.61],[29.64,45.96],[29.61,45.69],[29.86,45.69],[30.04,45.89],[30.3,45.96],[30.88,46.68],[31.53,46.68]]]]},"properties":{"NAME":"Greek City-States","C":4,"name":"Greek City-States","start_year":-500,"end_year":-481,"capital":"","type":"polity","region":"","event":"","source":"Cliopatria / Seshat Global History Databank (CC BY 4.0)","wikipedia":"Polis","wikidata":"Q148837","_a":589,"_c":[17.38,41.13],"_nz":"希腊城邦","_sz":""}},
{"type":"Feature","geometry":{"type":"Polygon","coordinates":[[[116.12,30.37],[116.27,29.92],[116.74,29.73],[117.19,29.73],[117.53,29.6],[118.36,29.6],[119.23,29.92],[119.78,29.99],[120.24,29.79],[121.31,29.6],[121.42,29.47],[121.82,29.54],[122.03,29.92],[121.62,30.05],[121.48,30.31],[121.1,30.31],[120.81,30.12],[120.68,30.18],[121.05,30.56],[121.2,30.56],[121.52,30.82],[121.9,30.82],[122,31.08],[121.63,31.53],[120.92,31.85],[120.77,32.04],[120.1,31.91],[119.85,32.24],[118.86,32.24],[118.12,31.72],[117.63,31.21],[117.02,31.21],[116.84,30.69],[116.12,30.37]]]},"properties":{"NAME":"Yue","C":1,"name":"Yue","start_year":-500,"end_year":-451,"capital":"","type":"polity","region":"","event":"","source":"Cliopatria / Seshat Global History Databank (CC BY 4.0)","wikipedia":"Yue (state)","wikidata":"Q1936158","_a":16,"_c":[119.07,30.86],"_nz":"越","_sz":""}},
{"type":"Feature","geometry":{"type":"Polygon","coordinates":[[[11.97,42.11],[12.37,42.11],[12.37,42.17],[11.97,42.17],[11.97,42.11]]]},"properties":{"NAME":"Roman Republic","C":3,"name":"Roman Republic","start_year":-500,"end_year":-481,"capital":"","type":"polity","region":"","event":"","source":"Cliopatria / Seshat Global History Databank (CC BY 4.0)","wikipedia":"Roman Republic","wikidata":"Q175881","_a":0,"_c":[12.17,42.14],"_nz":"罗马共和国","_sz":""}},
{"type":"Feature","geometry":{"type":"MultiPolygon","coordinates":[[[[-6.97,33.71],[-6.99,33.97],[-7.43,33.78],[-7.43,33.71],[-7.88,33.52],[-7.47,33.26],[-7.33,33.46],[-6.81,33.59],[-6.97,33.71]]],[[[11.08,35.39],[11.08,35.58],[10.46,35.9],[10.54,36.35],[10.46,36.42],[11.01,36.8],[11.01,37],[10.46,36.74],[10.23,36.8],[10.31,37.06],[10.23,37.25],[9.99,37.19],[9.76,37.32],[9.37,37.25],[9.06,37.06],[8.9,37.13],[8.52,36.87],[7.74,36.87],[7.5,37.06],[7.27,37],[7.35,36.74],[7.74,36.48],[7.9,36.22],[7.91,35.97],[8.07,34.94],[8.23,34.81],[8.46,34.87],[8.85,34.74],[8.93,34.36],[8.93,34.04],[9.08,34.04],[9.32,33.59],[9.55,33.52],[9.62,33.33],[9.85,33.39],[10.47,33.26],[11.08,32.88],[11.62,32.94],[12.08,32.75],[12,32.62],[13.76,32.62],[14.44,32.36],[14.52,32.17],[14.9,32.24],[15.05,32.11],[15.19,31.46],[15.57,31.14],[17.16,30.89],[18.22,30.5],[18.59,30.12],[18.81,30.12],[18.9,30.37],[18.59,30.37],[18.22,30.76],[17.85,30.95],[16.86,31.21],[16.18,31.21],[15.65,31.4],[15.58,31.59],[15.42,31.66],[15.28,32.3],[15.06,32.43],[14.75,32.43],[14.67,32.56],[14.44,32.49],[14.07,32.75],[13.76,32.75],[13.76,32.88],[13.45,32.81],[13.3,32.94],[12.84,32.88],[12.84,32.75],[12.53,32.75],[12.23,32.81],[11.46,33.2],[11.16,33.2],[11.08,33.59],[10.7,33.52],[10.54,33.71],[10.24,33.71],[10.01,33.91],[10.08,34.23],[10,34.29],[10.54,34.55],[10.85,34.81],[10.85,34.94],[11.08,35],[11.08,35.39]]],[[[14.57,35.77],[14.57,35.97],[14.34,36.03],[14.34,35.84],[14.57,35.77]]],[[[-3.85,36.8],[-4.56,36.87],[-5.31,36.55],[-5.45,36.35],[-5.92,36.35],[-5.58,36.03],[-5.52,36.16],[-5.29,36.22],[-5.23,36.48],[-4.69,36.55],[-4.47,36.74],[-3.85,36.8]]],[[[13.04,37.96],[13.67,37.96],[13.51,38.09],[13.12,38.16],[13.04,37.96]]],[[[1.66,39],[1.65,39.13],[1.26,39.13],[1.18,39.06],[1.27,38.8],[1.43,38.8],[1.66,39]]],[[[8.73,39.32],[8.72,40.1],[8.4,40.29],[8.32,39.97],[8.48,39.77],[8.33,39.51],[8.34,39],[8.97,38.87],[9.04,39.13],[9.36,39.19],[9.36,39.32],[9.12,39.45],[8.73,39.32]]]]},"properties":{"NAME":"Carthage","C":7,"name":"Carthage","start_year":-500,"end_year":-481,"capital":"","type":"polity","region":"","event":"","source":"Cliopatria / Seshat Global History Databank (CC BY 4.0)","wikipedia":"Ancient Carthage","wikidata":"Q2429397","_a":272,"_c":[5.51,35.21],"_nz":"迦太基","_sz":""}},
{"type":"Feature","geometry":{"type":"Polygon","coordinates":[[[85.35,26.71],[85.4,26.58],[85.65,26.32],[85.95,26.32],[85.98,26.45],[86.31,26.64],[86.35,26.84],[86.1,27.09],[85.8,27.09],[85.6,26.84],[85.35,26.71]]]},"properties":{"NAME":"Janapada of Vajji","C":9,"name":"Janapada of Vajji","start_year":-500,"end_year":-481,"capital":"","type":"polity","region":"","event":"","source":"Cliopatria / Seshat Global History Databank (CC BY 4.0)","wikipedia":"Vajjika League","wikidata":"Q605199","_a":1,"_c":[85.87,26.71],"_nz":"跋耆国","_sz":""}},
{"type":"Feature","geometry":{"type":"Polygon","coordinates":[[[-97.18,17.13],[-96.9,16.74],[-96.54,16.81],[-96.56,16.94],[-96.26,16.94],[-96.31,17.19],[-96.86,17.45],[-96.96,17.58],[-97.41,17.64],[-97.23,17.45],[-97.35,17.26],[-97.18,17.13]]]},"properties":{"NAME":"Zapotec Civilization","C":5,"name":"Zapotec Civilization","start_year":-500,"end_year":-292,"capital":"","type":"polity","region":"","event":"","source":"Cliopatria / Seshat Global History Databank (CC BY 4.0)","wikipedia":"Zapotec civilization","wikidata":"Q844750","_a":1,"_c":[-96.83,17.23],"_nz":"萨波特克文明","_sz":""}},
{"type":"Feature","geometry":{"type":"Polygon","coordinates":[[[11.97,42.11],[12.13,41.91],[12.45,41.78],[12.45,42.11],[11.97,42.11]]]},"properties":{"NAME":"Roman Kingdom","C":4,"name":"Roman Kingdom","start_year":-500,"end_year":-481,"capital":"","type":"polity","region":"","event":"","source":"Cliopatria / Seshat Global History Databank (CC BY 4.0)","wikipedia":"Roman Kingdom","wikidata":"Q201038","_a":0,"_c":[12.21,41.95],"_nz":"罗马王国","_sz":""}},
{"type":"Feature","geometry":{"type":"Polygon","coordinates":[[[87.11,25.23],[86.56,25.55],[85.42,25.87],[84.9,25.87],[84.7,25.62],[84.55,25.62],[84.51,25.36],[84.64,25.23],[84.79,25.23],[84.83,25.04],[85.97,24.65],[86.25,24.59],[86.38,24.46],[86.9,24.39],[87.09,24.2],[87.39,24.2],[87.73,24.46],[87.77,24.71],[87.53,25.1],[87.11,25.23]]]},"properties":{"NAME":"Magadha - Haryanka dynasty","C":7,"name":"Magadha - Haryanka dynasty","start_year":-500,"end_year":-481,"capital":"","type":"polity","region":"","event":"","source":"Cliopatria / Seshat Global History Databank (CC BY 4.0)","wikipedia":"Haryanka dynasty","wikidata":"Q12459974","_a":5,"_c":[86.14,25.04],"_nz":"摩揭陀-诃黎昂伽王朝","_sz":""}},
{"type":"Feature","geometry":{"type":"Polygon","coordinates":[[[24.04,41.13],[23.74,41.39],[21.84,41.52],[21.83,41.39],[21.51,41.39],[21.28,41.52],[21.11,41.26],[20.86,41.2],[20.77,41],[20.91,40.55],[21.3,40.48],[21.37,40.29],[21.92,40.29],[21.92,40.16],[22.21,39.84],[22.69,39.97],[22.54,40.1],[22.65,40.61],[23.19,40.36],[23.39,40.87],[24.04,41.13]]]},"properties":{"NAME":"Macedonian Empire","C":11,"name":"Macedonian Empire","start_year":-500,"end_year":-481,"capital":"","type":"polity","region":"","event":"","source":"Cliopatria / Seshat Global History Databank (CC BY 4.0)","wikipedia":"Macedonia (ancient kingdom)","wikidata":"Q83958","_a":5,"_c":[22.41,40.68],"_nz":"马其顿帝国","_sz":""}},
{"type":"Feature","geometry":{"type":"MultiPolygon","coordinates":[[[[33.68,23.69],[35.11,23.88],[35.55,23.81],[35.79,24.07],[35.15,24.65],[34.61,25.81],[34.46,25.87],[34.2,26.52],[34.05,26.58],[34.07,26.97],[33.93,27.03],[33.8,27.42],[33.59,27.61],[33.61,27.99],[33.11,28.38],[32.84,28.89],[32.69,28.96],[32.44,29.79],[32.59,29.73],[32.86,29.22],[33.15,29.02],[33.19,28.51],[33.4,28.32],[33.55,28.32],[33.9,27.87],[34.35,27.74],[34.36,27.93],[34.52,28.06],[34.55,28.51],[34.71,28.7],[34.84,29.41],[35.43,29.22],[35.81,29.22],[35.77,29.79],[35.85,29.79],[36.07,30.63],[36.4,30.95],[36.39,31.66],[36.75,32.3],[36.72,32.75],[36.9,33.07],[37.07,33.26],[37.99,33.97],[39.12,34.49],[40.26,34.29],[40.31,34.1],[40.7,34.16],[40.91,33.97],[41.21,33.91],[41.43,33.78],[41.49,33.65],[42,33.46],[42.06,33.33],[42.58,33.14],[42.71,32.94],[43.15,32.81],[44.46,31.59],[44.58,31.34],[44.95,31.27],[45.77,30.44],[46.59,30.31],[46.62,29.86],[46.85,29.92],[46.98,29.73],[47.29,29.79],[47.65,29.6],[48.09,29.54],[48.4,29.6],[48.37,29.92],[48.99,30.05],[48.94,30.31],[49.59,29.99],[50.06,30.18],[50.24,29.73],[50.65,29.41],[50.62,29.15],[50.92,29.09],[50.81,28.83],[51.03,28.77],[51.07,28.44],[51.33,28.12],[51.32,27.99],[51.6,27.8],[52.05,27.8],[52.48,27.61],[52.74,27.22],[53.46,26.97],[53.66,26.71],[54.26,26.71],[54.46,26.52],[54.83,26.45],[55.24,26.77],[55.29,26.52],[55.6,26.64],[56.06,26.71],[56.31,26.9],[56.19,27.16],[56.71,27.16],[57.05,26.84],[57.11,26.07],[57.38,25.74],[57.68,25.74],[57.74,25.62],[57.96,25.55],[58.78,25.55],[59.06,25.36],[60.63,25.36],[60.62,25.23],[60.92,25.23],[61.13,25.1],[61.66,25.16],[61.72,25.04],[62.02,25.04],[62.18,25.16],[62.47,25.1],[62.56,25.23],[63.54,25.23],[63.63,25.36],[64.23,25.36],[64.28,25.23],[64.8,25.16],[64.82,25.29],[66.02,25.36],[66.35,25.55],[66.68,25.23],[66.63,24.84],[67.21,24.71],[67.29,24.07],[67.44,24.07],[67.49,23.88],[67.63,23.81],[67.93,23.81],[67.88,24.01],[68.42,24.78],[68.68,25.68],[68.63,25.87],[68.11,26.39],[68.09,26.77],[68.28,27.09],[68.43,27.09],[68.74,27.61],[69.12,27.67],[69.14,27.8],[69.54,27.93],[70.7,29.41],[70.81,29.6],[70.88,30.37],[70.62,30.95],[70.85,31.72],[70.83,31.98],[70.98,32.3],[71.14,32.36],[71.22,32.69],[71.55,32.81],[71.62,33.14],[71.53,33.39],[71.7,33.46],[71.85,33.78],[72,33.78],[72.05,33.97],[72.37,34.04],[72.76,34.36],[72.9,34.61],[72.91,35.26],[72.69,35.64],[72.82,35.84],[72.61,35.9],[72.66,36.1],[72.4,36.61],[72.55,36.87],[72.53,37.06],[72.33,37.19],[72.28,38.16],[72.08,38.55],[72.06,39],[71.88,38.93],[71.53,39.32],[70.64,39.51],[70.48,39.77],[70.32,39.77],[70.02,40.1],[69.65,40.16],[69.43,40.48],[69.13,40.55],[69.13,40.81],[68.88,41],[68.86,41.2],[68.36,41.13],[68.32,41],[67.45,40.74],[66.74,40.74],[66.7,40.61],[66.34,40.48],[65.89,40.55],[65.43,40.87],[65.46,41],[65.26,41.13],[65.3,41.26],[64.01,42.56],[62.49,43.08],[62.54,43.28],[62.04,43.21],[60.93,43.54],[59.12,43.41],[58.71,43.67],[58.44,43.54],[58.4,43.41],[58.68,42.95],[58.3,42.17],[57.07,41.07],[56.4,40.29],[55.09,39.38],[53.97,38.93],[53.83,37.84],[53.91,37.45],[54.09,37.19],[54.03,36.87],[53.09,36.8],[52.19,36.55],[51.64,36.55],[50.82,36.74],[50.32,37],[50,37.38],[49.09,37.51],[48.88,37.71],[48.84,38.35],[48.76,38.35],[48.8,39],[48.92,39.19],[49.15,39.19],[49.38,39.97],[48.38,39.71],[47.75,39.71],[47.49,39.58],[47.11,39.64],[46.16,39.64],[45.83,39.97],[45.52,40.03],[45.4,40.23],[45.01,40.29],[44.89,40.48],[44.93,40.68],[44.45,40.68],[44.41,40.87],[44.25,40.87],[44.04,41.07],[44.03,41.46],[43.82,41.59],[43.95,41.85],[43.72,41.91],[43.66,42.04],[43.23,41.85],[42.76,41.91],[42.42,41.78],[42.12,41.91],[41.72,41.91],[41.78,41.78],[41.6,41.65],[41.57,41.46],[41.16,41.39],[41.05,41.2],[40.46,41],[40.6,40.87],[40.41,40.68],[39.62,40.68],[39.4,40.81],[39,40.81],[38.82,40.68],[37.87,40.68],[37.36,40.94],[36.51,41.13],[36.53,41.26],[36.14,41.33],[36.1,41.59],[35.95,41.72],[35.31,41.65],[34.94,41.91],[33.28,41.98],[32.86,41.85],[32.03,41.52],[31.7,41.46],[31.59,41.2],[31.35,41.2],[31.18,41.07],[30.62,41.07],[30.48,41.2],[29.37,41.2],[29.25,40.81],[28.91,40.61],[29.05,40.36],[27.94,40.36],[27.7,40.29],[27.47,40.42],[26.67,40.36],[26.26,40.1],[26.13,39.51],[26.85,39.58],[26.74,39.26],[26.89,39.19],[26.96,39],[26.85,38.61],[27.08,38.55],[27.06,38.35],[26.59,38.35],[26.54,38.61],[26.38,38.67],[26.43,38.22],[26.82,38.22],[26.89,38.09],[27.28,38.03],[27.16,37.58],[27.54,37.38],[27.6,37.13],[28.07,37.13],[28.14,37.06],[28.03,36.67],[28.19,36.67],[28.36,36.87],[29.12,36.74],[29.24,36.22],[29.94,36.22],[30.03,36.35],[30.49,36.35],[30.62,36.93],[31.39,36.87],[32.07,36.61],[32.5,36.22],[32.56,36.03],[33.98,36.29],[34.25,36.67],[34.58,36.87],[34.89,36.87],[35.33,36.61],[35.49,36.61],[35.83,36.93],[36.14,36.93],[36.29,36.8],[36.26,36.61],[35.84,36.29],[35.99,36.22],[35.84,35.58],[35.99,35.52],[35.93,34.87],[36.07,34.74],[36.05,34.55],[35.79,34.29],[35.64,34.36],[35.68,33.97],[35.45,33.91],[35.5,33.65],[35.35,33.65],[35.4,33.39],[35.22,33.07],[35.06,33.01],[35.02,32.62],[34.77,32.36],[34.81,31.98],[34.57,31.85],[34.64,31.72],[34.55,31.53],[34.31,31.4],[34.3,31.27],[33.98,31.14],[32.83,31.01],[32.77,31.14],[32.53,31.08],[32,31.08],[31.88,31.46],[31.27,31.46],[30.97,31.53],[30.81,31.46],[30.35,31.46],[30.34,31.27],[29.88,31.27],[29.87,31.08],[29.63,30.95],[29.49,31.01],[29.4,30.82],[28.87,30.82],[28.5,31.01],[27.51,31.14],[27.3,31.34],[26.85,31.46],[25.25,31.46],[25.1,31.59],[25.11,31.79],[24.89,31.98],[24.13,31.98],[23.68,32.17],[23.3,32.17],[23.15,32.24],[23.09,32.62],[21.88,32.94],[21.41,32.75],[21.11,32.81],[20.87,32.62],[20.33,32.49],[20.25,32.24],[20.09,32.11],[20,31.59],[20.21,31.27],[20.13,31.14],[20.2,30.89],[19.97,30.69],[19.96,30.56],[19.66,30.37],[19.27,30.24],[18.89,30.31],[18.73,29.99],[19.57,30.12],[19.65,30.24],[19.96,30.31],[20.58,30.89],[20.96,30.89],[21.03,30.76],[22.16,30.5],[23.08,30.5],[24.34,29.92],[24.93,29.54],[25.3,29.22],[25.29,29.09],[25.87,28.57],[26.08,28.19],[26.66,27.67],[26.73,27.54],[27.24,27.03],[27.3,26.77],[27.45,26.71],[27.58,26.32],[27.73,26.26],[28.15,25.49],[28.14,25.29],[28.29,25.16],[28.42,24.71],[29.67,24.2],[30.1,23.75],[30.4,23.56],[30.54,23.36],[31.67,23.75],[32.04,23.69],[33.39,23.81],[33.68,23.69]]],[[[34.53,35.58],[34.31,35.71],[33.74,35.39],[32.89,35.39],[32.88,35.26],[32.55,35.13],[32.25,35.13],[32.23,34.94],[32.37,34.74],[33.04,34.55],[33.13,34.68],[33.52,34.74],[33.7,34.94],[34.09,35],[33.96,35.26],[34.53,35.58]]],[[[28.14,36.03],[28.25,36.48],[28.02,36.48],[27.69,36.29],[27.74,35.9],[28.14,36.03]]],[[[26.87,36.67],[27.19,36.8],[27.04,36.93],[26.87,36.67]]],[[[26.11,38.16],[26.22,38.55],[25.91,38.67],[25.88,38.16],[26.11,38.16]]],[[[26.64,39],[26.51,39.32],[26.04,39.38],[25.79,39.19],[26.1,39.13],[26.25,38.93],[26.64,39]]]]},"properties":{"NAME":"Achaemenid Empire","C":5,"name":"Achaemenid Empire","start_year":-500,"end_year":-481,"capital":"","type":"polity","region":"","event":"","source":"Cliopatria / Seshat Global History Databank (CC BY 4.0)","wikipedia":"Achaemenid Empire","wikidata":"Q389688","_a":1100,"_c":[45.82,33.52],"_nz":"阿契美尼德帝国","_sz":""}}
]}