{"type":"FeatureCollection","features":[{"type":"Feature","properties":{"NAME":"Kingdom of Kush","C":3,"name":"Kingdom of Kush","start_year":-630,"end_year":337,"capital":"","type":"polity","region":"","event":"","source":"Cliopatria / Seshat Global History Databank (CC BY 4.0)","wikipedia":"Kingdom of Kush","wikidata":"Q241790","_a":48,"_c":[33.29,19.51],"_nz":"库施王国","_sz":""},"geometry":{"type":"Polygon","coordinates":[[[33.84,22.08],[33.76,22.08],[33.84,22.01],[33.75,21.63],[33.82,21.63],[34.26,19.64],[34.47,19.38],[34.6,18.93],[34.88,18.61],[34.94,18.29],[35.3,18.09],[35.5,17.64],[36,17.32],[36.05,16.81],[35.67,16.49],[34.71,16.49],[34.56,16.23],[34.68,15.78],[34.1,15.84],[33.86,15.46],[32.53,15.2],[32.53,15.33],[32.09,15.39],[31.73,15.59],[31.53,15.97],[31.54,16.23],[31.39,16.36],[31.48,16.61],[31.34,16.81],[31.22,17.64],[31.15,17.64],[30.88,20.34],[30.8,20.34],[30.82,20.79],[30.74,20.79],[30.76,21.31],[30.69,21.31],[30.64,21.95],[30.56,21.95],[30.72,22.27],[30.74,22.85],[30.53,23.3],[30.54,23.36],[31.67,23.75],[32.04,23.69],[33.39,23.81],[33.68,23.69],[33.68,23.62],[33.82,23.49],[33.81,23.17],[33.88,23.17],[33.84,22.14],[33.84,22.08]]]}},{"type":"Feature","properties":{"NAME":"Byeonhan","C":0,"name":"Byeonhan","start_year":-91,"end_year":533,"capital":"无固定都城（弁韩诸部）","type":"polity","region":"korea","event":"","source":"Cliopatria / Seshat Global History Databank (CC BY 4.0)","wikipedia":"Byeonhan confederacy","wikidata":"Q1378584","_a":2,"_c":[128.4,35.25],"_nz":"弁韩","_sz":""},"geometry":{"type":"Polygon","coordinates":[[[128.92,35.07],[128.88,35],[129.15,35.07],[129.32,35.26],[129.35,35.32],[129.07,35.39],[129.01,35.58],[128.62,35.58],[128.61,35.71],[128.22,35.71],[128.21,35.84],[127.93,35.9],[127.56,35.45],[127.63,35.45],[127.45,35.07],[127.57,35],[127.45,34.74],[127.55,34.61],[127.62,34.61],[127.76,34.74],[128.07,34.74],[128.08,34.94],[128.31,34.94],[128.33,34.81],[128.68,34.74],[128.81,35],[128.5,35],[128.64,35.13],[128.87,35.13],[128.84,35.07],[128.92,35.07]]]}},{"type":"Feature","properties":{"NAME":"Jinhan","C":6,"name":"Jinhan","start_year":-91,"end_year":372,"capital":"无固定都城（辰韩诸部）","type":"polity","region":"korea","event":"","source":"Cliopatria / Seshat Global History Databank (CC BY 4.0)","wikipedia":"Jinhan confederacy","wikidata":"Q701273","_a":4,"_c":[128.76,36.32],"_nz":"辰韩","_sz":""},"geometry":{"type":"Polygon","coordinates":[[[129.55,35.58],[129.67,35.97],[129.58,36.1],[129.42,36.1],[129.49,36.55],[129.42,36.55],[129.52,36.74],[129.44,36.74],[129.54,36.93],[129.41,37.13],[129.43,37.32],[129.35,37.32],[129.21,37.19],[128.7,37.25],[127.99,36.8],[127.9,36.61],[128.02,36.55],[127.97,36.29],[128.09,36.22],[127.85,35.9],[127.93,35.9],[128.21,35.84],[128.22,35.71],[128.61,35.71],[128.62,35.58],[129.01,35.58],[129.07,35.39],[129.35,35.32],[129.38,35.39],[129.41,35.45],[129.44,35.52],[129.52,35.52],[129.55,35.58]]]}},{"type":"Feature","properties":{"NAME":"Mahan","C":5,"name":"Mahan","start_year":-91,"end_year":337,"capital":"","type":"polity","region":"","event":"","source":"Cliopatria / Seshat Global History Databank (CC BY 4.0)","wikipedia":"Mahan","wikidata":"Q421372","_a":8,"_c":[127.07,36.32],"_nz":"马韩","_sz":""},"geometry":{"type":"Polygon","coordinates":[[[127.52,34.55],[127.22,34.42],[127.13,34.55],[127.3,34.74],[127.22,34.74],[127.02,34.49],[126.63,34.29],[126.42,34.36],[126.48,34.49],[126.35,34.36],[126.12,34.36],[126.48,34.81],[126.2,34.87],[126.38,35.26],[126.3,35.26],[126.52,35.71],[126.77,35.9],[126.61,35.9],[126.68,36.03],[126.52,36.03],[126.43,36.16],[126.45,36.67],[126.26,36.61],[126.05,36.8],[126.68,37.13],[126.6,37.13],[126.7,37.32],[126.54,37.45],[126.6,37.58],[126.29,37.58],[126.31,37.77],[126.35,37.84],[126.94,38.35],[127.61,38.29],[127.48,37.9],[127.63,37.9],[127.62,37.58],[127.83,37.38],[127.82,37.06],[127.99,36.8],[127.9,36.61],[128.02,36.55],[127.97,36.29],[128.09,36.22],[127.85,35.9],[127.93,35.9],[127.56,35.45],[127.63,35.45],[127.45,35.07],[127.57,35],[127.45,34.74],[127.55,34.61],[127.52,34.55]]]}},{"type":"Feature","properties":{"NAME":"Cimmerian Bosporus","C":0,"name":"Cimmerian Bosporus","start_year":78,"end_year":370,"capital":"","type":"polity","region":"","event":"","source":"Cliopatria / Seshat Global History Databank (CC BY 4.0)","wikipedia":"Bosporan Kingdom","wikidata":"Q321371","_a":21,"_c":[36.33,46.03],"_nz":"辛梅里安博斯普鲁斯王国","_sz":""},"geometry":{"type":"MultiPolygon","coordinates":[[[[34.02,45.69],[34.62,45.89],[34.6,45.76],[34.74,45.63],[34.99,45.63],[35.02,45.3],[36.42,45.43],[36.37,45.1],[35.88,45.04],[35.73,45.17],[35.41,45.17],[35.3,44.97],[34.38,44.78],[33.93,44.45],[33.52,44.45],[33.47,44.65],[33.55,44.65],[33.61,45.1],[32.92,45.43],[33.94,45.69],[34.02,45.69]]],[[[39.09,46.28],[38.86,45.89],[38.7,45.89],[38.39,45.5],[38.12,44.84],[37.93,44.71],[37.53,44.71],[37.26,45.04],[36.78,45.1],[36.75,45.43],[36.91,45.43],[36.97,45.3],[37.7,45.3],[37.75,45.56],[37.59,45.63],[37.76,45.63],[37.89,45.96],[38.33,46.15],[38.37,46.35],[37.9,46.48],[37.84,46.61],[38.49,46.61],[38.62,46.87],[38.79,46.87],[38.89,47.01],[39.22,47.01],[39.2,47.33],[38.35,47.2],[38.49,47.53],[39.24,47.6],[39.72,47.47],[39.74,47.14],[39.55,47.01],[39.6,46.81],[39.43,46.81],[39.29,46.48],[39.1,46.35],[39.09,46.28]]]]}},{"type":"Feature","properties":{"NAME":"Anurādhapura","C":2,"name":"Anurādhapura","start_year":78,"end_year":438,"capital":"","type":"polity","region":"","event":"","source":"Cliopatria / Seshat Global History Databank (CC BY 4.0)","wikipedia":"Anurādhapura","wikidata":"Q5724","_a":9,"_c":[80.77,7.87],"_nz":"阿努拉德普勒","_sz":""},"geometry":{"type":"Polygon","coordinates":[[[81.26,8.64],[80.99,8.96],[81,9.09],[80.85,9.16],[80.86,9.29],[80.72,9.35],[80.73,9.48],[80.44,9.54],[80.52,9.67],[80.45,9.74],[79.88,9.86],[79.86,9.67],[80.08,9.61],[79.99,9.41],[80.05,9.16],[79.81,8.77],[79.76,8.06],[79.62,8.06],[79.61,7.87],[79.74,7.68],[79.76,6.65],[79.95,6.14],[80.23,5.88],[80.67,5.88],[81.34,6.14],[81.88,6.71],[81.92,7.42],[81.77,7.49],[81.65,7.94],[81.45,8.13],[81.4,8.51],[81.26,8.58],[81.26,8.64]]]}},{"type":"Feature","properties":{"NAME":"Pyu City-States","C":4,"name":"Pyu City-States","start_year":84,"end_year":849,"capital":"","type":"polity","region":"","event":"","source":"Cliopatria / Seshat Global History Databank (CC BY 4.0)","wikipedia":"Pyu city-states","wikidata":"Q1627675","_a":14,"_c":[95.68,21.18],"_nz":"骠国城邦","_sz":""},"geometry":{"type":"MultiPolygon","coordinates":[[[[96.83,22.14],[96.95,21.95],[96.82,21.56],[96.89,21.56],[96.82,21.11],[96.75,21.11],[96.79,20.86],[96.62,20.73],[96.71,20.34],[96.48,20.28],[96.58,19.96],[96.4,19.76],[96.42,19.38],[96.19,18.86],[95.84,18.48],[95.69,18.48],[95.68,18.35],[95.09,18.35],[94.85,18.8],[94.89,19.06],[94.73,19.44],[94.84,19.7],[94.61,20.21],[94.65,20.47],[94.41,20.86],[94.55,21.82],[94.72,21.95],[94.66,22.08],[95.29,23.69],[96.17,24.01],[96.59,23.88],[96.87,23.3],[96.78,22.79],[96.86,22.79],[96.84,22.21],[96.83,22.14]]],[[[96.72,23.75],[96.73,23.81],[96.8,23.81],[96.79,23.75],[96.72,23.75]]],[[[96.65,23.81],[96.67,23.88],[96.74,23.88],[96.73,23.81],[96.65,23.81]]]]}},{"type":"Feature","properties":{"NAME":"Huns","C":6,"name":"Huns","start_year":106,"end_year":370,"capital":"","type":"polity","region":"","event":"","source":"Cliopatria / Seshat Global History Databank (CC BY 4.0)","wikipedia":"Huns","wikidata":"Q45813","_a":25,"_c":[50.59,46.29],"_nz":"匈人","_sz":""},"geometry":{"type":"MultiPolygon","coordinates":[[[[46.62,44.78],[46.7,44.78],[46.78,44.78],[46.77,44.71],[46.69,44.71],[46.61,44.71],[46.62,44.78]]],[[[53.08,45.96],[53.1,46.02],[53.18,46.02],[53.17,45.96],[53.08,45.96]]],[[[47.35,45.89],[47.2,45.96],[47.17,46.15],[47.7,46.35],[48.38,46.81],[48.71,46.81],[49.41,47.33],[49.58,47.33],[49.97,47.6],[51.26,47.8],[53.1,47.86],[53.68,47.6],[54.52,46.74],[54.47,46.55],[54.55,46.55],[54.48,46.28],[54.56,46.28],[54.29,45.56],[53.88,45.56],[53.67,45.37],[53.42,45.37],[53.06,45.56],[53.07,45.89],[53.25,45.96],[53.35,46.35],[53.27,46.35],[53.27,46.68],[53.19,46.68],[53.24,46.87],[53.11,47.01],[51.86,46.94],[51.81,47.07],[51.58,47.14],[50.84,47.14],[50.3,46.94],[49.99,46.68],[49.3,46.55],[49.06,46.22],[48.64,46.15],[48.59,45.96],[48.35,45.96],[48.06,45.76],[47.31,45.69],[47.32,45.76],[47.35,45.89]]]]}},{"type":"Feature","properties":{"NAME":"Teotihuacan","C":3,"name":"Teotihuacan","start_year":106,"end_year":655,"capital":"","type":"polity","region":"","event":"","source":"Cliopatria / Seshat Global History Databank (CC BY 4.0)","wikipedia":"Teotihuacan","wikidata":"Q172613","_a":1,"_c":[-98.5,19.28],"_nz":"特奥蒂瓦坎","_sz":""},"geometry":{"type":"Polygon","coordinates":[[[-98.87,19.19],[-98.51,18.86],[-98.29,18.86],[-98.2,19.19],[-98.05,19.19],[-98.02,19.38],[-98.42,19.57],[-98.44,19.7],[-98.74,19.7],[-98.72,19.57],[-98.88,19.64],[-98.84,19.44],[-98.99,19.44],[-98.86,19.12],[-98.87,19.19]]]}},{"type":"Feature","properties":{"NAME":"Wusun","C":6,"name":"Wusun","start_year":165,"end_year":386,"capital":"赤谷城","type":"polity","region":"central_asia","event":"","source":"Cliopatria / Seshat Global History Databank (CC BY 4.0)","wikipedia":"Wusun","wikidata":"Q854062","_a":7,"_c":[77.88,42.24],"_nz":"乌孙","_sz":""},"geometry":{"type":"Polygon","coordinates":[[[78.63,42.89],[77.72,43.02],[75.77,42.95],[75.88,42.82],[75.7,42.56],[75.81,42.43],[76.16,42.5],[76.14,42.24],[76.28,42.17],[76.13,41.98],[76.16,41.85],[76.8,41.85],[76.62,41.78],[76.62,41.59],[76.86,41.59],[76.82,41.46],[77.29,41.46],[77.37,41.46],[77.87,41.52],[80.03,42.37],[80.05,42.43],[79.52,42.5],[79.49,42.63],[79.33,42.63],[79.3,42.76],[79.03,42.89],[78.71,42.89],[78.63,42.89]]]}},{"type":"Feature","properties":{"NAME":"Chámpa","C":6,"name":"Chámpa","start_year":207,"end_year":545,"capital":"","type":"polity","region":"","event":"","source":"Cliopatria / Seshat Global History Databank (CC BY 4.0)","wikipedia":"Champa","wikidata":"Q216786","_a":17,"_c":[108.02,14.37],"_nz":"占婆","_sz":""},"geometry":{"type":"Polygon","coordinates":[[[108.24,13.34],[108.16,13.34],[108.28,13.66],[108.05,14.17],[108.11,14.62],[107.99,14.81],[108.02,15.01],[107.88,15.07],[107.9,15.2],[107.67,15.14],[107.63,15.39],[107.22,15.65],[107.25,15.84],[107.5,16.04],[107.02,16.23],[106.97,16.42],[106.75,16.42],[106.52,16.87],[106.53,16.94],[106.95,17.26],[107.03,17.26],[107.29,17.06],[107.33,16.87],[107.48,16.87],[107.67,16.68],[107.72,16.49],[107.86,16.49],[107.84,16.36],[108.14,16.36],[108.33,16.16],[108.37,15.91],[108.7,15.65],[108.68,15.52],[109.02,15.33],[108.97,15.01],[109.16,14.75],[109.18,14.36],[109.35,14.04],[109.33,13.27],[109.51,12.95],[109.47,12.56],[109.32,12.56],[109.23,12.37],[109.21,11.6],[109.05,11.47],[108.62,11.54],[108.5,11.73],[108.14,11.79],[108.08,11.92],[108.1,12.12],[108.25,12.18],[108.35,13.08],[108.24,13.34]]]}},{"type":"Feature","properties":{"NAME":"Zapotec Civilization","C":5,"name":"Zapotec Civilization","start_year":207,"end_year":509,"capital":"","type":"polity","region":"","event":"","source":"Cliopatria / Seshat Global History Databank (CC BY 4.0)","wikipedia":"Zapotec civilization","wikidata":"Q844750","_a":9,"_c":[-96.31,16.81],"_nz":"萨波特克文明","_sz":""},"geometry":{"type":"MultiPolygon","coordinates":[[[[-95.59,17.32],[-95.07,17.32],[-94.6,17.13],[-94.38,16.68],[-94.63,16.42],[-94.54,16.29],[-94.85,16.36],[-94.95,16.1],[-96.21,15.65],[-96.73,15.65],[-97.05,15.84],[-97.72,15.91],[-98.05,16.1],[-98.04,16.55],[-97.77,16.68],[-97.9,17],[-98.03,16.94],[-98.02,17.32],[-98.23,17.64],[-98.25,17.77],[-98.06,17.96],[-97.54,17.96],[-96.91,17.71],[-96.61,17.71],[-96.28,17.51],[-95.99,17.51],[-95.66,17.32],[-95.59,17.32]]],[[[-94.77,17.26],[-94.84,17.26],[-94.85,17.32],[-94.78,17.32],[-94.77,17.26]]]]}},{"type":"Feature","properties":{"NAME":"Burgundians","C":8,"name":"Burgundians","start_year":224,"end_year":346,"capital":"","type":"polity","region":"","event":"","source":"Cliopatria / Seshat Global History Databank (CC BY 4.0)","wikipedia":"Burgundians","wikidata":"Q13590051","_a":36,"_c":[17.52,52.74],"_nz":"勃艮第人","_sz":""},"geometry":{"type":"MultiPolygon","coordinates":[[[[19.17,52.72],[19.33,52.59],[19.51,52.65],[20.18,52.45],[20.69,52.52],[20.85,52.38],[20.99,51.98],[20.72,51.78],[20.79,51.58],[20.54,51.58],[20.52,51.38],[20.17,51.18],[20.24,51.05],[20.07,51.05],[20.06,50.85],[19.79,50.58],[18.08,50.18],[18.09,50.31],[17.84,50.45],[17.86,50.71],[17.44,50.85],[17.37,50.98],[17.19,50.91],[17.12,51.05],[16.53,51.11],[16.54,51.38],[15.95,51.45],[15.79,51.58],[15.8,51.85],[14.95,51.92],[14.78,52.05],[14.61,51.98],[14.62,52.25],[14.45,52.38],[14.55,52.65],[14.04,52.86],[14.05,53.06],[14.31,53.19],[14.32,53.39],[14.48,53.26],[15.25,53.19],[17.17,53.73],[17.34,53.6],[17.76,53.53],[17.67,53.39],[18.35,53.19],[18.5,52.86],[19.09,52.72],[19.17,52.72]]],[[[15.08,55.23],[15.07,55.02],[14.64,55.09],[14.64,55.29],[14.99,55.23],[15.08,55.23]]]]}},{"type":"Feature","properties":{"NAME":"Funan","C":0,"name":"Funan","start_year":238,"end_year":545,"capital":"","type":"polity","region":"","event":"","source":"Cliopatria / Seshat Global History Databank (CC BY 4.0)","wikipedia":"Funan","wikidata":"Q867782","_a":41,"_c":[105.37,11.27],"_nz":"扶南","_sz":""},"geometry":{"type":"Polygon","coordinates":[[[108.35,13.08],[108.24,13.34],[106.3,13.08],[106.24,13.21],[105.88,13.21],[105.54,13.47],[103.21,13.59],[101.87,14.04],[101.68,13.08],[101.81,12.95],[101.78,12.63],[102.11,12.31],[102.26,12.31],[102.22,11.99],[102.44,11.99],[102.6,12.12],[102.87,11.86],[102.84,11.6],[103.05,11.47],[103.06,10.83],[103.36,10.83],[103.6,11.09],[103.64,10.77],[103.49,10.7],[103.53,10.48],[104.01,9.87],[104.16,10.56],[104.53,10.09],[105.03,9.99],[104.79,9.74],[104.71,8.77],[104.86,8.77],[104.7,8.64],[104.77,8.51],[105.14,8.58],[105.62,9.16],[106.14,9.29],[106.23,9.48],[106.6,9.54],[106.55,9.8],[106.7,9.8],[106.64,9.99],[106.8,10.06],[106.81,10.19],[106.67,10.25],[106.82,10.32],[106.76,10.44],[106.98,10.51],[107,10.7],[107.07,10.7],[107.05,10.44],[107.34,10.38],[108.03,10.7],[108.12,10.89],[108.57,11.02],[108.58,11.15],[108.73,11.15],[109.05,11.41],[108.62,11.54],[108.5,11.73],[108.14,11.79],[108.1,12.12],[108.25,12.18],[108.35,13.08]]]}},{"type":"Feature","properties":{"NAME":"Kingdom of Axum","C":3,"name":"Kingdom of Axum","start_year":238,"end_year":352,"capital":"","type":"polity","region":"","event":"","source":"Cliopatria / Seshat Global History Databank (CC BY 4.0)","wikipedia":"Kingdom of Aksum","wikidata":"Q139377","_a":30,"_c":[41.06,15.3],"_nz":"阿克苏姆王国","_sz":""},"geometry":{"type":"MultiPolygon","coordinates":[[[[40.82,14.81],[41.39,14.56],[41.66,14.04],[42.38,13.59],[42.44,13.27],[42.22,13.27],[41.92,13.14],[41.91,13.01],[41.47,12.95],[41.32,12.82],[38.97,12.82],[38.4,13.08],[38.26,13.4],[38.11,13.4],[38.2,13.59],[38,14.17],[38.17,14.69],[38.63,15.07],[38.56,15.2],[38.78,15.14],[38.93,15.39],[39.15,15.33],[39.61,15.59],[39.73,15.2],[39.81,15.2],[39.82,15.52],[39.97,15.52],[40.31,14.94],[40.68,15.01],[40.82,14.88],[40.82,14.81]]],[[[38.33,14.94],[38.33,15.01],[38.4,15.01],[38.4,14.94],[38.33,14.94]]],[[[42.77,15.52],[42.69,15.52],[42.82,16.61],[42.48,17],[42.49,17.19],[42.63,17.19],[43.02,17.51],[43.03,17.71],[43.25,17.64],[43.55,17.77],[43.9,17.39],[43.82,17.26],[44.02,16.94],[44.02,16.87],[43.94,16.87],[43.91,16.29],[44.12,16.1],[43.95,15.65],[44,15.14],[42.89,15.07],[42.82,15.07],[42.77,15.52]]]]}},{"type":"Feature","properties":{"NAME":"Tamna","C":11,"name":"Tamna","start_year":263,"end_year":681,"capital":"无固定城邑","type":"polity","region":"korea","event":"","source":"Cliopatria / Seshat Global History Databank (CC BY 4.0)","wikipedia":"Tamna","wikidata":"Q28057","_a":0,"_c":[126.57,33.4],"_nz":"耽罗","_sz":""},"geometry":{"type":"Polygon","coordinates":[[[126.78,33.26],[127,33.59],[126.36,33.52],[126.14,33.2],[126.7,33.26],[126.78,33.26]]]}},{"type":"Feature","properties":{"NAME":"Lakhmid Kingdom","C":9,"name":"Lakhmid Kingdom","start_year":270,"end_year":401,"capital":"","type":"polity","region":"","event":"","source":"Cliopatria / Seshat Global History Databank (CC BY 4.0)","wikipedia":"Lakhmid kingdom","wikidata":"Q943191","_a":46,"_c":[44.09,30.5],"_nz":"莱赫米王国","_sz":""},"geometry":{"type":"MultiPolygon","coordinates":[[[[42.78,28.57],[42.78,28.64],[42.86,28.64],[42.85,28.57],[42.78,28.57]]],[[[41.9,28.89],[41.91,28.96],[41.98,28.96],[41.98,28.89],[41.9,28.89]]],[[[41.76,28.96],[41.76,29.02],[41.84,29.02],[41.83,28.96],[41.76,28.96]]],[[[46.7,27.74],[45.8,27.8],[45.43,27.93],[45.13,27.87],[45.14,27.99],[44.92,28.06],[44.03,28.25],[43.8,28.19],[43.74,28.32],[43.44,28.38],[43.28,28.32],[43.23,28.51],[42.99,28.44],[43.08,28.57],[42.93,28.57],[42.87,28.7],[42.71,28.64],[42.42,28.83],[42.2,28.83],[42.13,28.96],[41.84,29.02],[41.77,29.15],[41.27,29.41],[41.11,29.34],[41.06,29.6],[40.12,30.05],[39.98,30.24],[40.01,30.5],[39.93,30.5],[40.06,31.08],[40.41,31.53],[40.74,31.72],[40.68,31.85],[40.83,31.85],[41.16,32.11],[41.37,32.62],[41.62,32.81],[41.64,32.94],[41.89,33.14],[42.2,33.2],[42.21,33.26],[42.58,33.14],[42.71,32.94],[43.15,32.81],[43.35,32.56],[43.5,32.56],[43.49,32.43],[43.7,32.24],[43.92,32.17],[43.9,32.04],[44.73,31.98],[44.86,31.72],[44.81,31.34],[45.1,31.21],[45.08,31.08],[45.77,30.44],[46.45,30.37],[46.66,30.24],[46.7,29.92],[47.65,29.67],[47.53,29.28],[48.21,28.57],[48.25,28.19],[48.17,28.19],[47.69,27.87],[46.7,27.74]]]]}},{"type":"Feature","properties":{"NAME":"Saxons","C":6,"name":"Saxons","start_year":283,"end_year":454,"capital":"","type":"polity","region":"","event":"","source":"Cliopatria / Seshat Global History Databank (CC BY 4.0)","wikipedia":"Saxons","wikidata":"Q101985","_a":1,"_c":[8.93,53.91],"_nz":"萨克森人","_sz":""},"geometry":{"type":"Polygon","coordinates":[[[8.38,53.33],[8.98,53.26],[9.5,53.66],[9.41,53.73],[9.41,54.07],[9.15,54.34],[8.97,54.34],[8.97,54.55],[8.54,54.41],[8.54,54.27],[8.8,54.21],[8.89,53.87],[8.37,53.87],[8.38,53.39],[8.38,53.33]]]}},{"type":"Feature","properties":{"NAME":"Indo-Sasanian Empire","C":3,"name":"Indo-Sasanian Empire","start_year":283,"end_year":346,"capital":"","type":"polity","region":"","event":"","source":"Cliopatria / Seshat Global History Databank (CC BY 4.0)","wikipedia":"Kushano-Sasanian Kingdom","wikidata":"Q1661685","_a":111,"_c":[68.6,36.37],"_nz":"印度-萨珊帝国","_sz":""},"geometry":{"type":"MultiPolygon","coordinates":[[[[72.58,36.1],[72.5,36.1],[72.52,36.16],[72.6,36.16],[72.58,36.1]]],[[[72,41.33],[72.23,41.07],[72.47,41.07],[73.02,40.81],[73.1,40.81],[73.14,40.68],[73.29,40.68],[73.33,40.55],[73.49,40.55],[73.53,40.42],[73.8,40.29],[73.57,39.58],[73.4,39.51],[73.69,39.45],[73.67,39.38],[73.63,39.26],[73.75,39.13],[73.49,38.55],[72.99,38.16],[72.63,37.71],[72.23,36.55],[72.31,36.55],[72.3,36.22],[72.5,36.1],[72.47,35.97],[72.64,36.03],[72.61,35.9],[72.82,35.84],[72.71,35.71],[73.44,34.94],[73.73,34.87],[73.72,34.81],[73.34,34.55],[73.31,34.1],[73.39,34.1],[73.26,33.91],[72.77,33.78],[72.72,33.91],[72.42,33.91],[72.46,34.1],[72.14,34.04],[71.5,33.26],[70.95,32.88],[70.91,32.69],[70.74,32.62],[70.61,32.36],[69.87,32.11],[69.67,31.91],[69.29,31.91],[69.09,31.66],[68.78,31.66],[68.66,31.79],[68.12,31.79],[67.93,31.59],[66.88,31.27],[66.53,31.01],[66.45,31.01],[66.48,31.59],[66.1,31.59],[65.69,31.85],[65.02,31.91],[64.38,32.17],[63.41,32.3],[63.87,33.84],[64.32,34.16],[64.57,34.61],[65.09,34.87],[64.85,35.19],[64.83,35.77],[64.75,35.77],[65.16,38.74],[65.08,38.74],[65.14,39],[65.07,39],[65.28,39.51],[65.2,39.51],[65.29,39.84],[65.56,39.97],[65.88,40.81],[65.96,40.81],[66.65,41.26],[66.89,41.26],[67.55,41.59],[68.03,41.59],[68.22,41.46],[68.98,41.33],[69.58,41.72],[70.02,41.59],[71.63,41.65],[71.92,41.33],[72,41.33]]]]}},{"type":"Feature","properties":{"NAME":"Eastern Kushans","C":7,"name":"Eastern Kushans","start_year":283,"end_year":337,"capital":"","type":"polity","region":"","event":"","source":"Cliopatria / Seshat Global History Databank (CC BY 4.0)","wikipedia":"Kushan Empire","wikidata":"Q25979","_a":77,"_c":[71.1,31.05],"_nz":"东贵霜","_sz":""},"geometry":{"type":"MultiPolygon","coordinates":[[[[75.01,33.52],[75.27,33.01],[75.42,33.01],[75.47,32.88],[75.88,32.69],[76.13,32.75],[76.1,32.62],[75.93,32.56],[75.9,32.43],[75.5,32.36],[75.21,32.11],[74.82,32.04],[74.62,31.85],[74.21,31.72],[73.22,31.01],[72.41,30.05],[71.71,29.54],[71.7,29.47],[71.02,29.09],[70.65,28.7],[69.93,28.44],[69.83,28.32],[68.69,28.25],[68.51,28.06],[67.56,27.8],[67.17,27.22],[67.06,27.48],[67.12,27.87],[67.05,27.87],[67.04,28.32],[66.97,28.32],[67.01,28.57],[66.93,28.57],[67.14,29.34],[66.99,29.41],[66.89,29.67],[66.07,29.73],[66.32,29.86],[66.42,30.44],[66.34,30.44],[66.53,31.01],[66.88,31.27],[67.93,31.59],[68.12,31.79],[68.66,31.79],[68.78,31.66],[69.09,31.66],[69.29,31.91],[69.67,31.91],[69.87,32.11],[70.61,32.36],[70.74,32.62],[70.91,32.69],[70.95,32.88],[71.5,33.26],[72.14,34.04],[72.46,34.1],[72.42,33.91],[72.72,33.91],[72.77,33.78],[73.26,33.91],[73.39,34.1],[73.31,34.1],[73.34,34.55],[73.72,34.81],[73.7,34.74],[73.99,34.68],[74.3,34.36],[74.45,34.36],[74.63,34.16],[74.6,34.04],[74.8,33.91],[74.77,33.78],[75.03,33.59],[75.01,33.52]]],[[[73.79,34.81],[73.72,34.81],[73.73,34.87],[73.81,34.87],[73.79,34.81]]]]}},{"type":"Feature","properties":{"NAME":"Ripuarian Franks","C":0,"name":"Ripuarian Franks","start_year":283,"end_year":357,"capital":"","type":"polity","region":"","event":"","source":"Cliopatria / Seshat Global History Databank (CC BY 4.0)","wikipedia":"Ripuarian Franks","wikidata":"Q316860","_a":13,"_c":[6.66,51.42],"_nz":"里普利安法兰克人","_sz":""},"geometry":{"type":"Polygon","coordinates":[[[7.2,52.25],[7.21,51.85],[7.39,51.71],[7.39,51.51],[7.65,51.31],[7.65,51.18],[7.99,51.11],[7.91,50.98],[8.17,50.78],[8.33,50.78],[8.42,50.58],[8.76,50.51],[8.43,50.31],[8.27,49.85],[8.18,49.85],[7.68,49.91],[7.75,50.31],[7.58,50.51],[7.41,50.51],[7.41,50.65],[7.24,50.71],[7.24,50.91],[7.06,50.98],[6.89,51.38],[6.71,51.51],[6.63,51.51],[5.93,51.98],[4.65,52.05],[4.65,52.12],[4.56,52.32],[4.81,52.38],[4.89,52.65],[5.39,52.86],[5.39,52.99],[5.56,52.92],[5.65,52.65],[6.08,52.65],[6,52.45],[6.35,52.38],[6.43,52.52],[6.68,52.59],[7.12,52.25],[7.2,52.25]]]}},{"type":"Feature","properties":{"NAME":"Kingdom of Adiabene","C":9,"name":"Kingdom of Adiabene","start_year":287,"end_year":366,"capital":"","type":"polity","region":"","event":"","source":"Cliopatria / Seshat Global History Databank (CC BY 4.0)","wikipedia":"Adiabene","wikidata":"Q149747","_a":2,"_c":[41.97,36.93],"_nz":"阿迪亚贝纳王国","_sz":""},"geometry":{"type":"Polygon","coordinates":[[[41.21,37],[41.25,37.25],[41.17,37.25],[41.26,37.38],[42.76,37.51],[42.71,37.13],[42.63,37.13],[42.66,36.74],[42.63,36.55],[41.67,36.35],[41.21,37]]]}},{"type":"Feature","properties":{"NAME":"Caucasian Albania","C":4,"name":"Caucasian Albania","start_year":287,"end_year":386,"capital":"","type":"polity","region":"","event":"","source":"Cliopatria / Seshat Global History Databank (CC BY 4.0)","wikipedia":"Caucasian Albania","wikidata":"Q177076","_a":10,"_c":[46.31,40.98],"_nz":"高加索阿尔巴尼亚","_sz":""},"geometry":{"type":"Polygon","coordinates":[[[47.51,41.33],[47.35,41.33],[46.82,41.85],[46.43,41.91],[46.23,42.11],[45.68,42.17],[45.7,42.24],[45.54,42.24],[45.31,41.91],[45.07,41.91],[44.77,41.59],[44.35,41.46],[44.24,41.26],[45.11,41.26],[45.3,41],[45.6,40.87],[45.46,40.55],[45.88,40.29],[46.2,40.29],[46.26,40.16],[46.48,40.1],[46.46,39.97],[46.77,39.97],[47.07,39.84],[47.12,39.71],[48.15,39.71],[48.16,39.77],[48.19,40.36],[48.11,40.36],[48.2,40.81],[48.38,40.94],[48.34,41.13],[47.96,41.2],[47.99,41.33],[47.5,41.26],[47.51,41.33]]]}},{"type":"Feature","properties":{"NAME":"Caucasian Iberia","C":6,"name":"Caucasian Iberia","start_year":287,"end_year":396,"capital":"","type":"polity","region":"","event":"","source":"Cliopatria / Seshat Global History Databank (CC BY 4.0)","wikipedia":"Kingdom of Iberia","wikidata":"Q19083","_a":7,"_c":[44.1,42.17],"_nz":"高加索伊比利亚","_sz":""},"geometry":{"type":"Polygon","coordinates":[[[44.82,42.69],[44.69,42.82],[43.78,42.69],[43.74,42.89],[43.2,43.02],[42.92,43.21],[42.5,43.15],[42.49,43.08],[42.57,43.08],[42.61,42.82],[42.75,42.76],[42.72,42.56],[42.93,42.43],[42.62,41.59],[42.86,41.59],[43.34,41.13],[43.98,41.13],[44.24,41.26],[44.35,41.46],[44.77,41.59],[45.07,41.91],[45.31,41.91],[45.54,42.24],[45.7,42.24],[45.71,42.3],[45.68,42.56],[45.44,42.56],[45.16,42.76],[44.84,42.76],[44.82,42.69]]]}},{"type":"Feature","properties":{"NAME":"Norse","C":3,"name":"Norse","start_year":299,"end_year":401,"capital":"","type":"polity","region":"","event":"","source":"Cliopatria / Seshat Global History Databank (CC BY 4.0)","wikipedia":"Norse","wikidata":"Q909583","_a":58,"_c":[14.09,57.97],"_nz":"诺斯人","_sz":""},"geometry":{"type":"MultiPolygon","coordinates":[[[[10.71,55.02],[9.93,55.09],[9.75,55.36],[9.58,55.29],[9.23,55.57],[9.22,55.91],[9.13,55.98],[9.31,55.98],[9.66,56.25],[10.37,56.32],[10.28,55.98],[9.93,55.84],[9.93,55.7],[9.75,55.7],[9.75,55.57],[10.63,55.63],[10.63,55.5],[10.8,55.43],[10.8,55.36],[10.71,55.02]]],[[[18.23,57.83],[18.6,57.97],[19.05,57.97],[19.03,57.83],[18.84,57.7],[18.91,57.42],[18.45,57.21],[18.34,56.94],[18.08,56.94],[18.03,57.49],[18.03,57.56],[18.23,57.83]]],[[[10.83,60],[10.83,60.07],[10.92,60.07],[10.92,60],[10.83,60]]],[[[10.56,60.42],[10.56,60.63],[10.75,60.63],[10.75,60.77],[10.93,60.77],[10.93,60.91],[11.3,60.91],[11.3,60.77],[11.66,60.63],[11.66,60.28],[11.48,60.35],[11.47,60.21],[11.29,60.21],[11.29,60.07],[11.11,60],[10.92,60.07],[10.93,60.21],[10.47,60.35],[10.47,60.42],[10.56,60.42]]]]}},{"type":"Feature","properties":{"NAME":"Mayan City-States","C":2,"name":"Mayan City-States","start_year":299,"end_year":554,"capital":"","type":"polity","region":"","event":"","source":"Cliopatria / Seshat Global History Databank (CC BY 4.0)","wikipedia":"Maya civilization","wikidata":"Q28567","_a":57,"_c":[-90.27,17.61],"_nz":"玛雅城邦","_sz":""},"geometry":{"type":"Polygon","coordinates":[[[-86.72,20.92],[-86.75,21.5],[-86.92,21.63],[-87.22,21.63],[-87.34,21.5],[-88.48,21.63],[-89.18,21.37],[-89.98,21.31],[-90.17,21.11],[-90.32,21.11],[-90.42,20.41],[-90.49,20.41],[-90.43,20.02],[-90.74,19.7],[-90.81,19.25],[-91.35,18.93],[-91.3,18.61],[-91.45,18.61],[-91.5,18.48],[-91.79,18.48],[-91.84,18.74],[-92.5,18.74],[-92.62,18.54],[-93.49,18.48],[-93.84,18.35],[-93.57,18.03],[-93.57,17.58],[-93.37,17.26],[-93.49,17.13],[-93.4,17],[-93.64,16.68],[-93.55,16.55],[-93.62,16.55],[-93.59,16.36],[-93.82,15.91],[-92.75,15.14],[-92.47,14.69],[-91.35,13.91],[-90.47,13.91],[-89.92,13.59],[-89.87,13.79],[-89.57,13.72],[-89.59,13.91],[-89.39,14.11],[-89.1,14.11],[-89.19,14.24],[-88.82,14.24],[-88.91,14.36],[-88.69,14.43],[-88.63,15.07],[-88.38,15.39],[-88.51,15.84],[-88.82,15.97],[-88.64,16.23],[-88.49,16.23],[-88.24,16.49],[-88.21,16.81],[-88.14,16.81],[-88.19,17.64],[-88.03,18.03],[-88.08,18.35],[-88.23,18.35],[-88.25,18.48],[-87.99,18.74],[-87.96,18.54],[-88.04,18.54],[-87.91,18.22],[-87.7,18.29],[-87.73,18.48],[-87.45,19.06],[-87.49,19.31],[-87.37,19.44],[-87.39,19.57],[-87.55,19.64],[-87.29,19.89],[-87.35,20.21],[-86.71,20.86],[-86.72,20.92]]]}},{"type":"Feature","properties":{"NAME":"Vakataka Kingdom","C":7,"name":"Vakataka Kingdom","start_year":306,"end_year":346,"capital":"","type":"polity","region":"","event":"","source":"Cliopatria / Seshat Global History Databank (CC BY 4.0)","wikipedia":"Vakataka dynasty","wikidata":"Q1501306","_a":91,"_c":[79.15,18.9],"_nz":"伐卡塔卡王国","_sz":""},"geometry":{"type":"Polygon","coordinates":[[[75.46,15.08],[75.97,14.69],[77.31,14.86],[78.19,15.56],[78.76,15.73],[78.73,16.67],[78.87,17.36],[79.45,17.96],[80.32,18.57],[80.73,18.59],[80.8,20],[82.26,20.4],[83.73,20.41],[84.14,20.8],[84.44,21.43],[84.58,22.57],[83.94,22.56],[83.46,23.1],[83.03,22.98],[82.22,23.01],[81.24,22.42],[81.15,22.22],[80.76,22.14],[78.06,22.6],[77.21,22.95],[75.89,22.48],[75.37,22.47],[74.31,22.22],[74.38,21.67],[74.18,20.84],[73.91,20.6],[74.11,19.83],[74.25,19.53],[74.46,18.94],[73.72,18.61],[73.94,18.16],[74.28,17.91],[75.06,16.77],[75.01,15.54],[75.37,15.17],[75.46,15.08]]]}},{"type":"Feature","properties":{"NAME":"Yaudheya Republic","C":0,"name":"Yaudheya Republic","start_year":306,"end_year":346,"capital":"","type":"polity","region":"","event":"","source":"Cliopatria / Seshat Global History Databank (CC BY 4.0)","wikipedia":"Yaudheya","wikidata":"Q8050331","_a":35,"_c":[75.57,28.84],"_nz":"约达耶共和国","_sz":""},"geometry":{"type":"Polygon","coordinates":[[[77.38,26.93],[77.8,27.45],[77.51,28.37],[77.77,28.88],[77.8,29.37],[78.27,30.08],[78.83,30.33],[79.01,30.58],[78.06,31.4],[77.19,31.14],[76.89,31.29],[76.57,31.3],[76.59,30.91],[76.34,30.75],[76.17,30.88],[75.36,30.89],[74.85,31.07],[74.39,30.75],[73.95,30.25],[73.61,30.24],[72.16,29.5],[72.15,29.41],[72.12,29.17],[72.29,28.83],[72.58,28.46],[72.94,28.31],[73.26,27.91],[73.49,27.24],[74.19,27.24],[75.8,26.72],[76.77,26.27],[77.28,26.71],[77.38,26.93]]]}},{"type":"Feature","properties":{"NAME":"Himyarite Kingdom","C":7,"name":"Himyarite Kingdom","start_year":306,"end_year":346,"capital":"","type":"polity","region":"","event":"","source":"Cliopatria / Seshat Global History Databank (CC BY 4.0)","wikipedia":"Himyarite Kingdom","wikidata":"Q289577","_a":59,"_c":[47.43,15.62],"_nz":"希米亚里特王国","_sz":""},"geometry":{"type":"MultiPolygon","coordinates":[[[[44.81,16.55],[45.23,16.1],[45.21,15.91],[45.37,15.97],[45.58,15.84],[46.02,15.84],[46.18,15.97],[46.47,15.97],[46.55,16.16],[46.7,16.1],[47.67,16.36],[49.59,16.49],[50.12,16.61],[50.48,16.55],[51.08,16.68],[51.89,16.61],[52.38,16.29],[52.26,15.59],[52.1,15.46],[51.88,15.46],[51.27,15.14],[50.76,15.07],[50.23,14.81],[49.41,14.69],[48.79,14.04],[47.75,13.91],[47.67,13.72],[46.84,13.4],[45.74,13.34],[45.05,12.76],[44.61,12.76],[44.39,12.63],[43.44,12.69],[43.45,12.89],[43.24,13.08],[43.26,13.72],[43.06,13.98],[42.95,14.88],[42.89,15.07],[42.75,15.14],[42.71,15.84],[42.78,15.84],[42.82,16.61],[42.48,17],[42.49,17.19],[42.63,17.19],[43.02,17.51],[43.03,17.71],[43.25,17.64],[43.55,17.77],[43.9,17.39],[43.82,17.26],[43.96,17.13],[43.95,16.94],[44.09,16.81],[44.31,16.87],[44.3,16.74],[44.81,16.61],[44.81,16.55]]],[[[46.63,16.16],[46.63,16.23],[46.71,16.23],[46.7,16.16],[46.63,16.16]]],[[[43.89,18.48],[43.82,18.48],[43.74,18.48],[43.75,18.54],[43.82,18.54],[43.82,18.61],[43.9,18.61],[43.89,18.54],[43.89,18.48]]]]}},{"type":"Feature","properties":{"NAME":"Sasanian Empire","C":8,"name":"Sasanian Empire","start_year":306,"end_year":346,"capital":"","type":"polity","region":"","event":"","source":"Cliopatria / Seshat Global History Databank (CC BY 4.0)","wikipedia":"Sasanian Empire","wikidata":"Q1661685","_a":492,"_c":[53.8,31.89],"_nz":"萨珊帝国","_sz":""},"geometry":{"type":"MultiPolygon","coordinates":[[[[51.13,25.42],[51.14,25.49],[51.21,25.49],[51.21,25.42],[51.13,25.42]]],[[[50.65,25.87],[50.43,25.94],[50.46,26.26],[50.69,26.26],[50.67,26.13],[50.67,26.07],[50.65,25.87]]],[[[57.24,40.16],[57.35,40.29],[58.33,40.42],[58.54,40.29],[58.85,40.29],[58.98,40.16],[59.77,40.16],[59.77,39.84],[60.08,39.84],[60.05,39.71],[60.68,39.71],[60.71,39.51],[60.95,39.51],[62.5,40.03],[62.88,39.97],[64.02,40.1],[64.39,40.29],[65.24,40.48],[65.27,40.61],[65.35,40.61],[65.37,40.68],[65.45,40.68],[65.43,40.61],[65.59,40.61],[65.8,40.81],[65.88,40.81],[65.56,39.97],[65.29,39.84],[65.2,39.51],[65.28,39.51],[65.07,39],[65.14,39],[65.08,38.74],[65.16,38.74],[64.75,35.77],[64.83,35.77],[64.85,35.19],[65.09,34.87],[64.57,34.61],[64.32,34.16],[63.87,33.84],[63.41,32.3],[64.38,32.17],[65.02,31.91],[65.69,31.85],[66.1,31.59],[66.48,31.59],[66.45,31.01],[66.53,31.01],[66.34,30.44],[66.42,30.44],[66.32,29.86],[66.07,29.73],[66.89,29.67],[66.99,29.41],[67.14,29.34],[66.93,28.57],[67.01,28.57],[66.97,28.32],[67.04,28.32],[67.05,27.87],[67.12,27.87],[67.06,27.48],[67.17,27.22],[67.2,26.32],[67.27,26.32],[67.25,26.13],[67.45,26],[67.49,25.74],[67.11,25.1],[66.64,24.91],[66.65,24.97],[66.62,25.36],[66.35,25.55],[66.02,25.36],[64.82,25.29],[64.8,25.16],[64.28,25.23],[64.23,25.36],[63.63,25.36],[63.54,25.23],[62.56,25.23],[62.47,25.1],[62.18,25.16],[62.02,25.04],[61.72,25.04],[61.66,25.16],[61.13,25.1],[60.92,25.23],[60.62,25.23],[60.63,25.36],[59.06,25.36],[58.78,25.55],[57.96,25.55],[57.74,25.62],[57.68,25.74],[57.38,25.74],[57.18,25.94],[57.05,26.84],[56.71,27.16],[56.19,27.16],[56.1,27.03],[56.32,27.03],[56.31,26.9],[56.06,26.71],[55.6,26.64],[55.44,26.52],[55.29,26.52],[55.31,26.71],[55.54,26.77],[55.24,26.77],[54.83,26.45],[54.46,26.52],[54.26,26.71],[53.66,26.71],[53.46,26.97],[52.74,27.22],[52.48,27.61],[52.05,27.8],[51.6,27.8],[51.32,27.99],[51.33,28.12],[51.07,28.44],[51.03,28.77],[50.81,28.83],[50.92,29.09],[50.62,29.15],[50.65,29.41],[50.24,29.73],[50.06,30.18],[49.59,29.99],[48.94,30.31],[48.99,30.05],[48.37,29.92],[48.4,29.6],[47.87,29.54],[47.85,29.41],[48.08,29.41],[48.22,29.28],[48.19,29.09],[48.46,28.77],[48.56,28.32],[48.97,27.93],[48.87,27.67],[49.24,27.61],[49.36,27.29],[50.13,26.77],[50.12,26.58],[50.25,26.45],[50.22,26.13],[50.07,26.07],[50.21,26],[50.33,25.62],[50.61,25.42],[50.65,25.1],[50.73,25.1],[50.77,25.55],[50.92,25.62],[50.95,25.94],[51.12,26.13],[51.42,26.13],[51.7,25.87],[51.57,25.36],[51.72,25.29],[51.69,24.97],[51.52,24.78],[51.41,24.33],[51.85,24.26],[51.91,24.01],[52.28,24.01],[52.6,24.26],[53.11,24.14],[54.08,24.14],[54.1,24.33],[54.32,24.26],[54.56,24.46],[54.74,24.84],[55.14,25.1],[55.41,25.55],[55.97,25.87],[56.17,26.32],[56.48,26.39],[56.54,26.32],[56.39,25.55],[56.46,25.55],[56.42,25.16],[56.5,25.16],[56.4,24.97],[56.54,24.91],[56.79,24.33],[57.49,23.88],[58.81,23.62],[59.08,23.3],[59.07,23.17],[59.28,23.04],[59.27,22.91],[58.9,22.91],[58.91,23.04],[58.61,23.04],[58.33,23.3],[57.96,23.3],[57.97,23.43],[57.83,23.49],[56.81,23.75],[56.82,23.88],[56.54,24.07],[56.49,24.33],[56.27,24.39],[56.29,24.59],[56.09,24.84],[55.86,24.78],[55.84,24.59],[55.62,24.65],[54.81,23.94],[54.27,23.75],[51.88,23.69],[51.82,23.88],[51.17,24.07],[51.1,24.2],[51.2,24.52],[51.13,24.59],[51.29,24.71],[51.33,25.1],[51.4,25.1],[51.27,25.29],[51.35,25.36],[51.32,25.87],[51.17,25.87],[51.23,25.68],[50.98,25.42],[50.96,25.23],[51.12,25.29],[50.92,24.71],[50.62,24.65],[50.34,24.97],[50.03,25.68],[49.67,25.87],[49.88,26.45],[49.25,26.97],[49.27,27.09],[49.06,27.29],[48.55,27.48],[48.53,27.99],[48.32,28.19],[48.25,28.19],[48.21,28.57],[47.53,29.28],[47.65,29.67],[46.7,29.92],[46.66,30.24],[46.45,30.37],[45.77,30.44],[45.08,31.08],[45.1,31.21],[44.81,31.34],[44.86,31.72],[44.73,31.98],[43.9,32.04],[43.92,32.17],[43.7,32.24],[43.49,32.43],[43.5,32.56],[43.35,32.56],[43.15,32.81],[42.71,32.94],[42.58,33.14],[42.21,33.26],[42.22,33.33],[42.06,33.33],[42,33.46],[41.49,33.65],[41.43,33.78],[41.27,33.78],[41.21,33.91],[40.91,33.97],[40.7,34.16],[40.31,34.1],[40.4,34.23],[40.18,34.29],[40.1,34.29],[40.62,34.74],[40.77,34.74],[41.11,35],[41.09,36.03],[41.67,36.35],[42.63,36.55],[42.66,36.74],[42.97,36.74],[43.15,36.93],[43.61,36.87],[43.71,37.06],[44.29,37.25],[44.74,37.19],[44.87,37],[45.1,36.93],[45.43,37.06],[45.45,37.19],[45.29,37.19],[45.25,37.45],[45.17,37.45],[45.22,37.77],[45.63,37.9],[45.85,38.29],[46.37,38.55],[47.25,38.67],[48.33,38.09],[48.8,38.09],[48.87,38.09],[48.83,37.84],[49.09,37.51],[49.85,37.45],[50.32,37],[50.57,37.06],[50.63,37],[50.53,36.87],[51.26,36.61],[52.19,36.55],[53.09,36.8],[54.03,36.87],[54.09,37.19],[53.91,37.45],[53.91,37.84],[53.83,37.84],[53.99,39],[53.52,39.38],[53.14,39.45],[53.54,39.51],[53.5,40.03],[52.72,40.1],[52.71,40.42],[52.79,40.42],[52.89,40.87],[52.97,40.87],[52.94,40.74],[53.34,40.74],[53.45,40.87],[53.4,40.68],[54.54,40.81],[56.65,40.36],[56.99,40.42],[56.96,40.29],[57.03,40.29],[57.24,40.16]]]]}},{"type":"Feature","properties":{"NAME":"Western Satraps","C":10,"name":"Western Satraps","start_year":306,"end_year":346,"capital":"","type":"polity","region":"","event":"","source":"Cliopatria / Seshat Global History Databank (CC BY 4.0)","wikipedia":"Western Satraps","wikidata":"Q2086608","_a":150,"_c":[73.97,24.36],"_nz":"西萨特拉普王朝","_sz":""},"geometry":{"type":"Polygon","coordinates":[[[74.03,19.76],[73.02,19.25],[72.73,19.38],[72.66,20.09],[72.84,20.34],[72.9,20.92],[72.56,21.24],[72.76,21.69],[72.54,21.76],[72.53,22.27],[72.38,22.27],[72.34,21.95],[72.11,21.89],[72.17,21.76],[72.32,21.76],[72.18,21.18],[71.41,20.86],[71.32,20.73],[70.72,20.66],[70.3,20.86],[69.89,21.24],[69.9,21.37],[69.5,21.76],[69.35,21.76],[68.95,22.21],[68.98,22.46],[69.2,22.46],[69.26,22.34],[69.41,22.34],[69.5,22.46],[69.87,22.46],[70.26,22.66],[70.37,22.91],[69.45,22.72],[68.81,22.98],[68.55,23.36],[68.34,23.43],[68.35,23.56],[68.13,23.56],[68.16,23.81],[67.63,23.81],[67.49,23.88],[67.44,24.07],[67.29,24.07],[67.33,24.39],[67.15,24.78],[66.63,24.84],[66.64,24.91],[67.11,25.1],[67.49,25.74],[67.45,26],[67.25,26.13],[67.27,26.32],[67.2,26.32],[67.17,27.22],[67.56,27.8],[68.51,28.06],[68.69,28.25],[69.83,28.32],[69.93,28.44],[70.65,28.7],[71.02,29.09],[71.7,29.47],[71.77,29.47],[71.85,29.47],[71.84,29.41],[71.91,29.41],[71.99,29.41],[72.06,29.41],[72.14,29.41],[72.15,29.41],[72.12,29.17],[72.29,28.83],[72.58,28.46],[72.94,28.31],[73.26,27.91],[73.49,27.24],[74.19,27.24],[75.8,26.72],[76.77,26.27],[77.28,26.71],[77.31,26.71],[77.77,26.32],[77.98,25.74],[78.25,25.55],[78.31,24.97],[78.58,24.71],[78.88,24.71],[80.16,24.33],[80.58,24.14],[81.18,23.62],[81.17,23.49],[81.31,23.43],[81.19,22.53],[81,22.19],[80.76,22.14],[78.06,22.6],[77.21,22.95],[75.89,22.48],[75.37,22.47],[74.31,22.22],[74.38,21.67],[74.18,20.84],[73.91,20.6],[74.11,19.83],[74.04,19.83],[74.03,19.76]]]}},{"type":"Feature","properties":{"NAME":"Lazica","C":2,"name":"Lazica","start_year":306,"end_year":395,"capital":"","type":"polity","region":"","event":"","source":"Cliopatria / Seshat Global History Databank (CC BY 4.0)","wikipedia":"Lazica","wikidata":"Q136884","_a":7,"_c":[41.46,42.43],"_nz":"拉齐卡","_sz":""},"geometry":{"type":"Polygon","coordinates":[[[42.5,43.15],[42.6,43.21],[42.53,43.28],[41.95,43.21],[40.74,43.6],[40.17,43.6],[39.99,43.47],[40.22,43.41],[40.42,43.15],[40.82,43.15],[41.12,43.02],[41.61,42.63],[41.48,42.37],[41.7,42.24],[41.6,42.11],[41.76,42.11],[41.74,41.98],[41.82,41.98],[41.7,41.78],[41.69,41.72],[41.84,41.65],[41.81,41.46],[41.53,41.26],[42.25,41.26],[42.36,41.46],[42.62,41.59],[42.93,42.43],[42.72,42.56],[42.75,42.76],[42.61,42.82],[42.57,43.08],[42.49,43.08],[42.5,43.15]]]}},{"type":"Feature","properties":{"NAME":"Late Pallava Empire","C":3,"name":"Late Pallava Empire","start_year":306,"end_year":352,"capital":"","type":"polity","region":"","event":"","source":"Cliopatria / Seshat Global History Databank (CC BY 4.0)","wikipedia":"Pallava dynasty","wikidata":"Q466803","_a":44,"_c":[77.74,12.26],"_nz":"后期帕拉瓦帝国","_sz":""},"geometry":{"type":"Polygon","coordinates":[[[78.8,15.73],[78.18,15.55],[77.32,14.87],[75.96,14.69],[75.4,15.12],[75.11,14.58],[77.13,12.92],[76.64,12.71],[75.82,11.1],[76.56,8.89],[76.98,8.37],[77.56,8.08],[78.06,8.38],[78.2,8.93],[78.33,9.05],[78.96,9.27],[79.45,9.15],[79.31,9.33],[79.04,9.32],[78.91,9.56],[79.26,10.04],[79.3,10.27],[79.88,10.28],[79.78,11.67],[79.88,12.05],[80.2,12.55],[80.36,13.33],[80.09,14.91],[80.37,15.86],[79.72,16.31],[78.78,16.44],[78.8,15.73]]]}},{"type":"Feature","properties":{"NAME":"Protectorate of the Western Regions","C":9,"name":"Protectorate of the Western Regions","start_year":306,"end_year":386,"capital":"海头","type":"polity","region":"central_asia","event":"","source":"Cliopatria / Seshat Global History Databank (CC BY 4.0)","wikipedia":"Protectorate of the Western Regions","wikidata":"Q911440","_a":128,"_c":[83.53,39.69],"_nz":"西域长史府","_sz":""},"geometry":{"type":"MultiPolygon","coordinates":[[[[87.04,42.5],[88.85,42.24],[88.82,42.17],[89.64,42.04],[89.61,41.98],[90.22,41.91],[90.19,41.85],[90.43,41.85],[90.54,41.72],[90.78,41.72],[91.27,41.39],[92.35,41.13],[92.32,41.07],[92.8,41.07],[92.77,41],[93.77,40.74],[93.85,40.74],[93.57,40.48],[93.36,40.55],[93.28,40.16],[93.2,40.16],[93.09,39.9],[93.27,39.77],[93.3,39.45],[93.01,39.32],[92.25,39.38],[91.54,39.19],[90.49,39.13],[88.72,38.8],[88.64,38.8],[87.66,38.48],[86.78,38.42],[86.08,38.22],[85.81,37.9],[85.36,37.71],[85.11,37.45],[81.03,36.61],[80.37,37],[79.4,37.13],[79.15,37.32],[78.42,37.51],[78.39,37.64],[78.09,37.71],[77.8,38.03],[77.84,38.16],[77.67,38.35],[77.51,38.35],[77.41,38.55],[77.26,38.55],[77.03,38.8],[75.79,39.13],[73.77,39.45],[73.69,39.45],[73.4,39.51],[73.57,39.58],[73.8,40.29],[73.53,40.42],[73.49,40.55],[73.33,40.55],[73.29,40.68],[73.14,40.68],[73.1,40.81],[73.12,40.87],[73.34,41.07],[74.75,41],[77.35,41.39],[77.37,41.46],[77.87,41.52],[80.03,42.37],[80.11,42.37],[80.24,42.5],[80.51,42.37],[82.06,42.24],[84.11,42.76],[85.79,42.76],[85.76,42.69],[86.96,42.5],[87.04,42.5]]],[[[93.92,40.74],[93.85,40.74],[93.87,40.81],[93.95,40.81],[93.92,40.74]]]]}},{"type":"Feature","properties":{"NAME":"Cheng Han","C":10,"name":"Cheng Han","start_year":311,"end_year":337,"capital":"","type":"polity","region":"","event":"","source":"Cliopatria / Seshat Global History Databank (CC BY 4.0)","wikipedia":"Cheng-Han","wikidata":"Q1069905","_a":73,"_c":[105.23,29.22],"_nz":"成汉","_sz":""},"geometry":{"type":"Polygon","coordinates":[[[108.96,32.11],[108.82,31.72],[108.26,30.95],[106.87,29.41],[106.66,28.96],[106.5,28.89],[106.34,28.32],[105.97,27.8],[105.73,27.74],[105.35,27.42],[105.12,27.42],[104.27,27.03],[103.37,26.39],[102.59,25.55],[102.06,25.16],[101.59,25.04],[101.51,25.04],[101.4,25.94],[101.28,26.07],[101.32,26.26],[101.2,26.39],[101.18,26.97],[101.1,26.97],[101.05,27.99],[100.92,28.06],[101.04,28.25],[100.96,28.25],[101.03,28.51],[100.95,28.51],[101.02,28.77],[100.88,29.09],[100.95,29.34],[100.88,29.34],[100.96,29.67],[100.89,29.67],[100.96,29.92],[100.89,29.92],[100.98,30.24],[100.9,30.24],[101.02,30.63],[100.94,30.63],[101.06,31.01],[100.98,31.01],[101.69,32.75],[102.55,33.26],[103.13,33.39],[103.21,33.39],[104.7,33.26],[105.17,33.07],[105.7,33.07],[106.03,33.33],[106.56,33.33],[106.75,33.2],[107.48,33.33],[107.67,33.2],[107.65,32.94],[107.88,32.94],[108.1,33.14],[108.24,32.88],[109.16,32.88],[109.58,32.56],[108.96,32.11]]]}},{"type":"Feature","properties":{"NAME":"Gothia","C":4,"name":"Gothia","start_year":311,"end_year":352,"capital":"","type":"polity","region":"","event":"","source":"Cliopatria / Seshat Global History Databank (CC BY 4.0)","wikipedia":"Gothia","wikidata":"Q422253","_a":140,"_c":[28.93,47.49],"_nz":"哥特亚","_sz":""},"geometry":{"type":"MultiPolygon","coordinates":[[[[29.58,45.43],[29.67,45.43],[29.66,45.37],[29.58,45.37],[29.58,45.43]]],[[[37.95,50.45],[37.9,50.18],[37.81,50.18],[37.87,50.05],[37.7,50.05],[37.4,49.78],[37.29,49.65],[37.33,49.38],[37.09,49.45],[36.37,49.18],[36.17,48.99],[35.91,48.92],[35.88,48.72],[35.72,48.79],[35.35,48.52],[35.24,48.39],[35.27,48.06],[35.08,47.86],[35.03,47.53],[34.46,47.6],[34.11,47.47],[34.16,47.27],[34,47.27],[33.79,46.94],[32.92,46.61],[32.17,46.55],[32.19,46.68],[32.03,46.74],[31.79,46.74],[31.61,46.61],[30.88,46.68],[30.3,45.96],[30.04,45.89],[29.86,45.69],[29.61,45.69],[29.59,45.5],[29.58,45.43],[29.1,45.43],[28.67,45.24],[28.35,45.3],[28.28,45.43],[27.87,45.37],[27.85,45.17],[28,45.04],[27.97,44.78],[27.8,44.71],[27.79,44.58],[27.94,44.52],[27.83,44.19],[27.49,44.06],[26.28,44.06],[25.85,43.73],[25.43,43.6],[24.88,43.73],[24.15,43.67],[23.6,43.86],[22.95,43.8],[22.89,44.12],[22.5,44.32],[22.52,44.52],[22.69,44.65],[21.95,44.52],[21.88,44.65],[21.41,44.84],[20.75,44.71],[20.52,44.91],[20.53,45.1],[20.06,45.37],[20.06,45.43],[19.91,45.63],[20.17,45.96],[20.19,46.22],[20.59,46.22],[20.75,46.09],[21.24,46.09],[21.33,46.22],[21.49,46.22],[21.49,46.09],[21.74,46.15],[22.01,46.55],[22.03,46.81],[22.29,47.07],[22.22,47.2],[22.3,47.2],[22.31,47.4],[22.48,47.47],[22.67,47.73],[22.6,47.86],[22.95,48.19],[22.99,48.65],[22.83,48.79],[22.85,48.99],[22.69,49.05],[22.78,49.18],[22.62,49.25],[22.66,49.71],[23.65,50.45],[23.99,50.51],[24.01,50.71],[24.36,50.85],[25.48,51.05],[27.51,51.05],[27.91,50.91],[29.24,50.78],[29.76,50.85],[30.42,50.71],[31.44,50.25],[32.2,50.25],[33.42,50.51],[33.52,50.65],[33.45,50.71],[33.63,50.78],[33.96,50.71],[34.32,50.85],[34.52,51.05],[34.87,51.11],[34.81,51.25],[35.3,51.18],[35.68,51.38],[36.36,51.38],[36.77,51.31],[36.83,51.18],[37,51.18],[36.88,51.05],[37.05,51.05],[37.18,50.85],[37.81,50.58],[37.79,50.51],[37.95,50.45]]],[[[36.16,48.92],[36.17,48.99],[36.26,48.99],[36.25,48.92],[36.16,48.92]]],[[[32.47,50.38],[32.48,50.45],[32.56,50.45],[32.55,50.38],[32.47,50.38]]]]}},{"type":"Feature","properties":{"NAME":"Goguryeo","C":11,"name":"Goguryeo","start_year":313,"end_year":382,"capital":"国内城（今集安）","type":"dynasty","region":"korea","event":"","source":"Cliopatria / Seshat Global History Databank (CC BY 4.0)","wikipedia":"Goguryeo","wikidata":"Q28370","_a":42,"_c":[127.03,40.36],"_nz":"高句丽","_sz":""},"geometry":{"type":"Polygon","coordinates":[[[129.74,41.72],[130.32,42.24],[130.77,42.43],[130.9,42.63],[130.74,42.63],[130.92,42.89],[130.76,42.89],[130.77,43.02],[130.61,43.02],[130.65,43.08],[130.33,43.08],[126.47,42.82],[125.46,42.63],[124.61,42.17],[123.25,41.91],[123.17,41.91],[123.13,41.85],[123.41,41.78],[123.37,41.72],[123.6,41.72],[123.56,41.65],[123.84,41.59],[123.8,41.52],[124.04,41.52],[124,41.46],[124.28,41.39],[124.24,41.33],[124.48,41.33],[124.44,41.26],[125.08,41],[125,40.87],[125.08,40.74],[124.88,40.42],[124.57,40.29],[124.27,39.9],[124.34,39.9],[124.51,39.64],[124.86,39.71],[124.87,39.58],[125.31,39.51],[125.39,39.38],[125.03,38.74],[125.19,38.74],[125.15,38.67],[124.96,38.61],[124.79,38.29],[124.87,38.29],[124.76,38.09],[125.08,38.09],[124.9,37.9],[125.21,37.9],[125.3,37.77],[125.23,37.64],[125.39,37.64],[125.68,37.9],[125.83,37.9],[125.84,37.77],[126.27,37.84],[126.35,37.84],[126.94,38.35],[126.99,38.74],[126.91,38.74],[126.95,38.8],[127.02,38.93],[126.85,39.19],[126.96,39.38],[127.59,39.51],[127.63,39.58],[127.58,39.77],[127.93,39.97],[128.37,40.03],[128.68,40.29],[129.08,40.42],[129.24,40.68],[129.76,40.87],[129.88,41.2],[129.73,41.33],[129.81,41.46],[129.7,41.65],[129.74,41.72]]]}},{"type":"Feature","properties":{"NAME":"Dongye","C":8,"name":"Dongye","start_year":313,"end_year":382,"capital":"无固定都城","type":"polity","region":"korea","event":"","source":"Cliopatria / Seshat Global History Databank (CC BY 4.0)","wikipedia":"Dongye","wikidata":"Q105946539","_a":7,"_c":[128.12,38.16],"_nz":"东濊","_sz":""},"geometry":{"type":"Polygon","coordinates":[[[128.62,38.42],[128.36,38.8],[127.92,39],[127.92,39.13],[127.48,39.19],[127.55,39.45],[127.59,39.51],[126.96,39.38],[126.85,39.19],[127.02,38.93],[126.95,38.8],[127.03,38.8],[126.99,38.74],[126.94,38.35],[127.61,38.29],[127.48,37.9],[127.63,37.9],[127.62,37.58],[127.83,37.38],[127.82,37.06],[127.99,36.8],[128.7,37.25],[129.21,37.19],[129.35,37.32],[129.39,37.38],[129.26,37.58],[129.1,37.58],[128.58,38.35],[128.62,38.42]]]}},{"type":"Feature","properties":{"NAME":"Roman Empire","C":3,"name":"Roman Empire","start_year":324,"end_year":336,"capital":"","type":"polity","region":"","event":"","source":"Cliopatria / Seshat Global History Databank (CC BY 4.0)","wikipedia":"Roman Empire","wikidata":"Q12544","_a":1739,"_c":[17.6,39.36],"_nz":"罗马帝国","_sz":""},"geometry":{"type":"MultiPolygon","coordinates":[[[[14.34,36.03],[14.42,36.03],[14.57,35.97],[14.57,35.77],[14.34,35.84],[14.34,36.03]]],[[[22.89,36.42],[22.96,36.42],[23.12,36.35],[23.11,36.16],[22.87,36.16],[22.89,36.42]]],[[[7.24,50.71],[7.41,50.65],[7.41,50.51],[7.58,50.51],[7.75,50.31],[7.68,49.91],[8.18,49.85],[8.18,49.78],[8.35,49.65],[8.36,49.45],[8.27,49.45],[8.28,49.18],[8.11,49.05],[8.12,48.85],[7.79,48.65],[7.71,48.32],[7.63,48.32],[7.63,47.99],[7.55,47.99],[7.64,47.53],[8.47,47.6],[8.55,47.73],[8.88,47.8],[8.96,48.06],[9.12,48.19],[10.03,48.52],[10.45,48.52],[10.94,48.79],[11.36,48.85],[11.69,49.12],[12.11,49.18],[12.61,48.99],[12.77,48.79],[13.52,48.65],[14.26,48.26],[14.67,48.26],[14.84,48.39],[15.5,48.19],[16.66,48.32],[16.9,48.13],[17.07,48.19],[17.07,48.06],[17.63,47.8],[18.63,47.8],[18.8,47.93],[18.96,47.8],[18.95,47.66],[19.27,47.47],[19.17,47.2],[18.92,47.14],[19,47.01],[18.83,47.01],[18.82,46.81],[18.91,46.81],[18.9,46.61],[19.05,46.41],[18.95,46.09],[18.87,46.09],[18.95,46.02],[18.85,45.76],[19.01,45.63],[18.92,45.5],[19,45.5],[19,45.37],[19.24,45.3],[19.97,45.37],[20.06,45.37],[20.53,45.1],[20.52,44.91],[20.75,44.71],[21.41,44.84],[21.88,44.65],[21.95,44.52],[22.69,44.65],[22.52,44.52],[22.5,44.32],[22.89,44.12],[22.95,43.8],[23.6,43.86],[24.15,43.67],[24.88,43.73],[25.43,43.6],[25.85,43.73],[26.28,44.06],[27.49,44.06],[27.83,44.19],[27.94,44.52],[27.79,44.58],[27.8,44.71],[27.97,44.78],[28,45.04],[27.85,45.17],[27.87,45.37],[28.28,45.43],[28.35,45.3],[28.67,45.24],[29.1,45.43],[29.58,45.43],[29.58,45.37],[29.66,45.37],[29.53,44.91],[29.02,44.78],[29.05,44.97],[28.8,44.97],[28.84,44.58],[28.58,44.39],[28.54,43.99],[28.62,43.99],[28.48,43.47],[28.16,43.47],[28.23,43.34],[27.9,43.28],[27.8,43.15],[27.85,42.76],[27.51,42.63],[27.49,42.43],[27.8,42.24],[27.78,42.11],[28,41.91],[27.98,41.65],[28.22,41.65],[28.28,41.46],[28.51,41.33],[28.98,41.26],[28.96,41.13],[30.48,41.2],[30.62,41.07],[31.18,41.07],[31.53,41.39],[32.03,41.52],[32.04,41.65],[32.19,41.59],[32.69,41.78],[32.63,41.91],[32.86,41.85],[33.28,41.98],[34.78,41.91],[34.88,42.04],[35.12,42.04],[35.16,41.72],[35.95,41.72],[36.21,41.26],[36.77,41.33],[37.07,41.13],[37.23,41.2],[37.21,41.07],[37.77,41.07],[37.83,40.94],[38.16,41],[38.3,40.87],[38.78,40.94],[39.05,41.13],[39.74,40.94],[40.37,40.94],[40.39,41.07],[40.54,41],[41.05,41.2],[41.16,41.39],[41.31,41.33],[41.41,41.46],[41.57,41.46],[41.68,41.65],[41.69,41.72],[41.84,41.65],[41.81,41.46],[41.53,41.26],[41.45,40.74],[40.95,40.61],[40.4,40.1],[38.79,39.9],[38.93,39.77],[38.74,39.58],[39.03,39.38],[39.21,39.51],[39.75,39.45],[39.85,39.58],[40.48,39.58],[40.51,39.26],[40.66,39.19],[40.47,38.42],[40.55,38.42],[40.57,38.03],[41.67,38.03],[41.97,37.96],[42.03,37.84],[42.51,37.9],[43.26,37.71],[43.89,37.71],[43.94,37.58],[44.64,37.51],[44.77,37.38],[44.74,37.19],[44.29,37.25],[43.71,37.06],[43.61,36.87],[43.15,36.93],[42.97,36.74],[42.66,36.74],[42.63,37.13],[42.71,37.13],[42.76,37.51],[41.26,37.38],[41.17,37.25],[41.25,37.25],[41.21,37],[41.67,36.35],[41.09,36.03],[41.11,35],[40.77,34.74],[40.62,34.74],[40.1,34.29],[40.03,34.29],[39.51,34.49],[39.12,34.49],[37.99,33.97],[37.74,33.78],[37.73,33.65],[37.57,33.65],[37.07,33.26],[37.05,33.07],[36.9,33.07],[36.72,32.75],[36.75,32.3],[36.52,32.24],[36.66,32.17],[36.39,31.66],[36.42,31.21],[36.27,31.21],[36.4,30.95],[36.16,30.76],[35.85,29.73],[35.77,29.73],[35.81,29.22],[35.66,29.22],[35.64,29.02],[35.48,28.89],[35.2,28.06],[34.59,28.06],[34.61,28.25],[34.85,28.57],[34.91,29.41],[34.75,29.28],[34.52,28.06],[34.36,27.93],[34.35,27.74],[34.12,27.74],[33.62,28.12],[33.55,28.32],[33.4,28.32],[33.19,28.51],[33.15,29.02],[32.86,29.22],[32.59,29.73],[32.6,29.92],[32.44,29.79],[32.69,28.96],[32.84,28.89],[33.11,28.38],[33.61,27.99],[33.59,27.61],[33.8,27.42],[33.93,27.03],[34.07,26.97],[34.05,26.58],[34.2,26.52],[34.46,25.87],[34.61,25.81],[35.15,24.65],[35.86,24.01],[35.85,23.88],[35.56,23.94],[35.55,23.81],[35.11,23.88],[33.76,23.69],[33.68,23.69],[33.39,23.81],[32.04,23.69],[31.67,23.75],[30.54,23.36],[30.46,23.36],[30.4,23.56],[30.1,23.75],[30.11,23.88],[29.96,23.88],[29.67,24.2],[28.57,24.65],[28.29,25.16],[28.24,25.94],[28.35,26.58],[28.27,26.58],[28.15,27.35],[27.94,27.54],[27.71,27.54],[27.79,27.67],[27.43,27.99],[27.28,27.93],[27.29,28.12],[27.14,28.25],[25.59,28.96],[25.37,29.28],[25.15,29.28],[25,29.41],[24.85,29.34],[24.78,29.54],[24.33,29.67],[23.96,29.92],[23.51,29.99],[22.92,30.31],[22.76,30.24],[22.77,30.37],[21.94,30.56],[20.95,30.56],[19.19,30.05],[18.28,30.05],[16.7,30.69],[15.49,30.95],[15.18,30.89],[15.19,31.08],[14.58,31.53],[14.59,31.66],[13.83,32.11],[13.3,32.24],[13.07,32.17],[13.07,32.3],[12.46,32.36],[11.77,32.3],[11.77,32.43],[11.54,32.43],[11.46,32.56],[11.31,32.49],[11.16,32.69],[10.39,33.01],[10.01,33.01],[10.08,33.14],[9.63,33.14],[9.55,33.33],[9.62,33.46],[9.32,33.59],[9.08,34.04],[8.93,34.04],[9,34.36],[8.93,34.36],[8.85,34.74],[8.46,34.87],[8.23,34.81],[7.99,35.07],[7.99,35.52],[7.91,35.52],[7.91,35.97],[7.83,35.97],[7.9,36.22],[7.59,36.61],[6.96,36.61],[6.89,36.48],[6.42,36.55],[6.35,36.42],[5.88,36.48],[5.65,36.35],[2.77,36.42],[2.32,36.22],[2,36.29],[2.01,36.16],[1.15,36.16],[1.01,36.03],[0.77,36.03],[0.48,35.64],[-0.29,35.58],[-1.04,35.07],[-1.2,35.13],[-1.35,35],[-1.81,34.94],[-1.88,34.81],[-2.81,34.94],[-5.28,34.94],[-5.81,34.81],[-6.11,34.61],[-6.24,34.36],[-6.16,34.23],[-6.31,34.23],[-6.6,33.97],[-6.59,33.84],[-6.81,33.71],[-6.73,33.59],[-7.18,33.52],[-7.47,33.26],[-7.88,33.52],[-7.13,33.84],[-7.06,33.97],[-6.9,33.91],[-6.61,34.16],[-6.7,34.29],[-6.47,34.36],[-6.48,34.49],[-6.33,34.55],[-6.28,34.87],[-6.2,34.87],[-6.29,35.07],[-6.13,35],[-6.15,35.19],[-6,35.32],[-5.88,35.77],[-5.34,35.84],[-5.24,35.52],[-4.75,35.19],[-3.13,35.19],[-2.98,35.26],[-2.99,35.45],[-2.84,35.45],[-2.82,35.13],[-2.66,35.07],[-1.89,35.07],[-1.59,35.26],[-1.36,35.26],[-1.14,35.45],[-1.22,35.64],[-1.07,35.58],[-0.92,35.71],[-0.53,35.71],[-0.46,35.84],[0.08,35.84],[0.38,36.22],[0.68,36.29],[0.68,36.42],[0.91,36.35],[1.22,36.55],[1.53,36.48],[2.38,36.67],[2.69,36.61],[2.84,36.74],[3.23,36.74],[3.46,36.87],[3.85,36.8],[4.24,36.93],[4.86,36.87],[5.1,36.67],[5.56,36.67],[5.64,36.8],[6.11,36.8],[6.1,36.93],[6.33,37.06],[6.8,36.87],[7.19,36.87],[7.35,37.06],[7.5,37.06],[7.74,36.87],[8.52,36.87],[8.9,37.13],[9.06,37.06],[9.37,37.25],[9.76,37.32],[9.99,37.19],[10.23,37.25],[10.23,37.06],[10.31,37.06],[10.23,36.8],[10.46,36.74],[11.01,37],[11.01,36.8],[10.46,36.42],[10.54,36.35],[10.46,35.9],[10.7,35.71],[10.85,35.77],[10.93,35.58],[11.08,35.58],[11.08,35.39],[11.01,35.39],[11.08,35],[10.85,34.94],[10.85,34.81],[10.54,34.55],[10,34.29],[10.08,34.23],[10.01,33.91],[10.24,33.71],[10.54,33.71],[10.7,33.52],[11.08,33.59],[11.16,33.2],[11.46,33.2],[12.23,32.81],[12.61,32.88],[12.53,32.75],[12.84,32.75],[12.84,32.88],[13.3,32.94],[13.45,32.81],[13.76,32.88],[13.76,32.75],[14.07,32.75],[14.44,32.49],[14.67,32.56],[14.75,32.43],[15.06,32.43],[15.28,32.3],[15.42,31.66],[15.58,31.59],[15.65,31.4],[16.18,31.21],[16.86,31.21],[17.85,30.95],[18.22,30.76],[18.59,30.37],[18.9,30.37],[18.97,30.24],[19.66,30.37],[19.96,30.56],[19.97,30.69],[20.2,30.89],[20.13,31.14],[20.21,31.27],[20,31.59],[20.09,32.11],[20.02,32.24],[20.25,32.24],[20.33,32.49],[20.48,32.43],[20.56,32.56],[20.72,32.56],[20.64,32.69],[20.87,32.62],[21.11,32.81],[21.41,32.75],[21.88,32.94],[23.09,32.62],[23.08,32.43],[23.23,32.36],[23.15,32.24],[23.3,32.17],[23.68,32.17],[24.13,31.98],[24.89,31.98],[25.11,31.79],[25.1,31.59],[25.25,31.46],[26.85,31.46],[27.3,31.34],[27.51,31.14],[28.5,31.01],[28.87,30.82],[29.4,30.82],[29.49,31.01],[29.63,30.95],[29.87,31.08],[29.8,31.21],[29.88,31.27],[30.34,31.27],[30.27,31.4],[30.35,31.46],[30.81,31.46],[30.97,31.53],[30.97,31.66],[31.2,31.66],[31.12,31.53],[31.27,31.46],[31.88,31.46],[31.78,31.21],[31.94,31.27],[32,31.08],[32.3,31.08],[32.24,31.21],[32.39,31.21],[32.53,31.08],[32.77,31.14],[32.91,31.01],[33.98,31.14],[34.3,31.27],[34.31,31.4],[34.63,31.66],[34.57,31.85],[34.81,31.98],[34.77,32.36],[35.02,32.62],[35.06,33.01],[35.22,33.07],[35.4,33.39],[35.35,33.65],[35.5,33.65],[35.45,33.91],[35.68,33.97],[35.64,34.36],[35.79,34.29],[36.05,34.55],[36.07,34.74],[35.93,34.87],[35.96,35.19],[35.88,35.19],[35.99,35.52],[35.84,35.58],[35.99,36.22],[35.84,36.29],[36.26,36.61],[36.29,36.8],[36.14,36.93],[35.83,36.93],[35.49,36.61],[35.11,36.74],[34.95,36.67],[34.89,36.87],[34.58,36.87],[34.25,36.67],[33.98,36.29],[33.27,36.22],[32.71,36.03],[32.56,36.03],[32.5,36.22],[32.07,36.61],[31.09,36.93],[30.62,36.93],[30.49,36.35],[30.03,36.35],[29.94,36.22],[29.24,36.22],[29.12,36.74],[28.74,36.74],[28.59,36.87],[28.36,36.87],[28.19,36.67],[28.03,36.67],[28.14,37.06],[28.07,37.13],[27.6,37.13],[27.54,37.38],[27.22,37.32],[27.31,37.45],[27.16,37.58],[27.26,37.77],[27.18,37.77],[27.28,38.03],[26.89,38.09],[26.82,38.22],[26.43,38.22],[26.38,38.67],[26.54,38.61],[26.59,38.35],[27.06,38.35],[27.08,38.55],[26.85,38.61],[26.96,39],[26.88,39],[26.89,39.19],[26.74,39.26],[26.85,39.58],[26.13,39.51],[26.27,40.29],[26.6,40.48],[26.68,40.48],[26.67,40.36],[27.47,40.42],[27.54,40.29],[27.7,40.29],[27.79,40.48],[27.95,40.48],[27.94,40.36],[29.05,40.36],[28.9,40.48],[28.91,40.61],[29.48,40.74],[29.49,40.87],[29.25,40.81],[29.1,40.94],[29.12,41.07],[28.63,41],[28.17,41.13],[28.08,41],[27.53,41.07],[27.02,40.68],[26.92,40.48],[26.63,40.74],[26.14,40.61],[26.08,40.87],[25.38,41],[24.35,41],[24.01,40.74],[23.7,40.81],[23.68,40.61],[23.84,40.55],[23.74,40.23],[23.27,40.29],[22.88,40.48],[22.89,40.61],[22.65,40.61],[22.56,40.36],[22.54,40.1],[22.7,40.1],[22.61,39.9],[23.14,39.45],[22.82,39.38],[22.8,39.06],[23.12,39.13],[23.11,39],[23.34,39],[23.49,38.87],[23.33,38.8],[23.03,38.93],[22.94,38.74],[23.17,38.67],[23.31,38.48],[23.63,38.48],[23.56,38.74],[24.03,38.67],[24.18,38.55],[24.16,38.22],[24,38.22],[23.98,37.84],[23.44,38.03],[23.21,38.03],[23.2,37.9],[23.04,37.9],[23.11,37.64],[23.34,37.64],[23.4,37.32],[23.17,37.32],[23.18,37.45],[22.95,37.58],[22.71,37.58],[22.7,37.32],[22.85,37.25],[23.06,36.67],[22.83,36.87],[22.6,36.87],[22.51,36.67],[22.36,36.67],[22.22,37.06],[21.91,37.06],[21.9,36.87],[21.74,36.87],[21.68,37.19],[21.6,37.19],[21.7,37.51],[21.24,37.84],[21.42,38.16],[21.73,38.16],[21.74,38.35],[21.19,38.42],[20.97,38.74],[20.74,38.8],[20.91,39.06],[20.3,39.38],[20.15,39.71],[19.91,39.58],[19.76,39.64],[19.76,39.77],[20,39.77],[20.01,39.97],[19.63,40.29],[19.47,40.29],[19.49,40.61],[19.25,40.61],[19.25,40.74],[19.5,40.87],[19.44,41.26],[19.52,41.39],[19.44,41.39],[19.53,41.52],[19.45,41.52],[19.54,41.78],[18.85,42.37],[18.14,42.63],[17.99,42.82],[17.59,42.89],[17.51,42.76],[17.52,42.95],[17.36,42.95],[17.37,43.21],[17.12,43.15],[17.05,43.41],[16.73,43.34],[16.73,43.54],[16.58,43.6],[15.93,43.47],[16.01,43.6],[15.86,43.8],[15.7,43.8],[15.62,43.93],[15.37,43.86],[15.46,43.99],[15.22,44.06],[15.15,44.39],[14.91,44.58],[14.92,44.97],[14.52,45.1],[14.6,45.37],[14.2,45.37],[14.19,45.04],[13.95,45.04],[13.94,44.91],[13.78,44.91],[13.71,45.24],[13.54,45.3],[13.55,45.5],[13.71,45.5],[13.71,45.76],[13.39,45.82],[13.14,45.82],[13.06,45.63],[12.82,45.69],[12.65,45.56],[12.16,45.5],[12.16,45.17],[12.4,45.04],[12.4,44.78],[12.16,44.84],[12.15,44.45],[12.31,44.19],[12.87,43.8],[13.04,43.86],[13.03,43.73],[13.36,43.67],[13.67,43.41],[13.75,43.08],[13.99,42.95],[13.9,42.76],[14.06,42.5],[14.37,42.24],[14.53,42.24],[14.61,42.11],[14.77,42.17],[14.77,42.04],[14.92,41.98],[15.17,42.04],[15.24,41.91],[16.12,41.91],[16.11,41.78],[15.87,41.72],[15.94,41.39],[17.2,41],[17.51,40.74],[17.98,40.61],[18.44,40.16],[18.35,39.9],[18.11,39.9],[17.81,40.36],[17.42,40.36],[17.35,40.55],[17.03,40.55],[16.87,40.48],[16.95,40.42],[16.86,40.29],[16.62,40.29],[16.7,40.1],[16.46,39.97],[16.45,39.64],[16.92,39.51],[17.07,39.38],[17.14,39.06],[16.5,38.8],[16.49,38.42],[15.93,37.96],[15.7,37.96],[15.62,38.16],[15.39,38.16],[15.07,37.64],[15.06,37.25],[15.21,37.19],[15.05,36.74],[14.66,36.74],[14.28,37.13],[13.58,37.25],[13.19,37.58],[12.49,37.71],[12.49,37.9],[12.65,38.09],[13.04,38.03],[13.12,38.16],[13.35,38.16],[13.67,37.96],[14.06,37.96],[15.86,38.29],[15.95,38.67],[16.27,38.74],[16.27,38.93],[16.12,39.06],[15.9,39.77],[15.67,39.9],[15.75,40.03],[15.43,40.03],[15.2,40.23],[15.04,40.23],[14.89,40.68],[14.42,40.68],[14.42,40.87],[14.1,40.87],[13.95,41.13],[13.79,41.13],[13.71,41.26],[13,41.33],[12.92,41.46],[12.6,41.52],[12.13,41.91],[12.13,42.04],[11.81,42.11],[11.65,42.37],[11.49,42.3],[11.42,42.43],[11.26,42.43],[11.18,42.63],[11.02,42.63],[11.02,42.82],[10.54,43.08],[10.21,43.99],[9.89,43.99],[9.97,44.12],[9.73,44.12],[9.16,44.45],[8.43,44.39],[8.03,43.93],[7.15,43.73],[6.99,43.54],[6.67,43.47],[6.52,43.21],[6.28,43.15],[5.8,43.15],[5.63,43.28],[5.39,43.28],[5.39,43.41],[5.06,43.47],[4.18,43.47],[4.17,43.6],[3.85,43.6],[3.62,43.41],[3.14,43.28],[2.98,43.15],[3.01,42.56],[3.18,42.37],[3.12,41.91],[2.57,41.59],[2.33,41.59],[2.11,41.33],[1.24,41.2],[0.7,40.94],[0.71,40.68],[0.25,40.42],[0.18,40.16],[-0.13,40.03],[-0.35,39.71],[-0.31,39.13],[0.1,38.74],[-0.66,38.29],[-0.8,38.03],[-0.7,37.64],[-1.71,37.45],[-1.62,37.32],[-1.86,37.32],[-2.06,36.8],[-2.53,36.87],[-2.68,36.74],[-4.47,36.74],[-4.69,36.55],[-5.23,36.48],[-5.29,36.22],[-5.66,36.03],[-5.83,36.22],[-6.06,36.22],[-6.33,36.67],[-6.35,36.93],[-6.59,37],[-6.84,37.25],[-7.47,37.25],[-7.45,37.13],[-7.68,37],[-8.7,37.13],[-9,37],[-8.9,37.58],[-8.82,37.58],[-8.82,38.48],[-9.21,38.42],[-9.23,38.67],[-9.38,38.61],[-9.55,38.74],[-9.57,38.93],[-9.43,39.06],[-9.39,39.45],[-9.16,39.51],[-9.1,39.77],[-9.03,39.77],[-8.93,40.36],[-8.85,40.36],[-8.87,40.61],[-8.73,40.74],[-8.96,42.17],[-8.66,42.37],[-9.08,42.56],[-9.1,42.76],[-9.28,42.89],[-9.3,43.15],[-9.16,43.28],[-8.85,43.41],[-8.37,43.41],[-8.39,43.6],[-8.24,43.73],[-7.28,43.73],[-7.34,43.6],[-7.18,43.54],[-5.73,43.6],[-4.99,43.41],[-3.47,43.47],[-3.3,43.34],[-1.69,43.34],[-1.39,43.67],[-1.35,44.25],[-1.27,44.25],[-1.29,44.52],[-1.21,44.52],[-1.25,45.17],[-1.17,45.17],[-1.19,45.43],[-1.03,45.5],[-1.05,45.69],[-1.21,45.76],[-1.14,45.89],[-1.22,45.89],[-1.25,46.28],[-1.67,46.35],[-2.01,46.61],[-2.02,46.74],[-2.19,46.81],[-2.14,47.14],[-2.23,47.27],[-2.56,47.27],[-2.58,47.47],[-2.83,47.47],[-2.84,47.6],[-3.16,47.47],[-3.34,47.73],[-3.76,47.73],[-3.93,47.86],[-4.42,47.8],[-4.69,47.99],[-4.71,48.13],[-4.55,48.19],[-4.64,48.32],[-4.89,48.32],[-4.91,48.52],[-4.6,48.72],[-3.85,48.72],[-3.46,48.92],[-3.12,48.92],[-2.76,48.59],[-2.52,48.72],[-1.6,48.65],[-1.72,49.05],[-1.64,49.05],[-1.65,49.25],[-1.91,49.38],[-2.03,49.78],[-1.36,49.78],[-1.25,49.45],[0.01,49.38],[-0.01,49.65],[0.22,49.85],[1.05,49.98],[1.45,50.25],[1.42,50.71],[1.66,51.05],[2.58,51.18],[2.74,51.31],[3.41,51.45],[3.4,51.65],[3.74,51.65],[3.65,51.78],[3.98,51.92],[4.06,52.12],[4.23,51.98],[4.57,52.05],[4.65,52.05],[5.93,51.98],[6.63,51.51],[6.71,51.51],[6.89,51.38],[7.06,50.98],[7.24,50.91],[7.24,50.71]]],[[[20.62,37.9],[20.7,37.9],[20.93,37.9],[20.92,37.64],[20.61,37.71],[20.62,37.9]]],[[[20.33,38.35],[20.49,38.42],[20.57,38.42],[20.8,38.29],[20.79,38.09],[20.32,38.16],[20.33,38.35]]],[[[1.27,38.8],[1.18,39.06],[1.26,39.13],[1.34,39.13],[1.65,39.13],[1.66,39],[1.43,38.8],[1.27,38.8]]],[[[20.07,39.58],[20.07,39.64],[20.15,39.64],[20.15,39.58],[20.07,39.58]]],[[[3.3,39.32],[2.82,39.32],[2.66,39.51],[2.35,39.45],[2.34,39.64],[2.88,39.97],[2.96,39.97],[3.19,39.97],[3.2,39.84],[3.52,39.77],[3.3,39.32]]],[[[3.74,40.1],[3.82,40.1],[4.22,40.1],[4.3,39.84],[3.83,39.9],[3.74,40.1]]],[[[9.67,40.29],[9.75,39.64],[9.67,39.64],[9.59,39.13],[9.12,39.19],[8.97,38.87],[8.73,38.87],[8.34,39],[8.41,39.26],[8.33,39.26],[8.33,39.51],[8.41,39.51],[8.48,39.9],[8.32,39.97],[8.4,40.29],[8.32,40.29],[8.32,40.48],[8.16,40.55],[8.15,40.94],[8.55,40.87],[9.02,41.26],[9.1,41.26],[9.5,41.2],[9.82,40.74],[9.82,40.36],[9.67,40.29]]],[[[9.58,41.98],[9.5,41.98],[9.5,41.78],[9.26,41.39],[9.1,41.33],[8.78,41.52],[8.78,41.72],[8.62,41.72],[8.7,41.91],[8.54,42.11],[8.53,42.5],[8.77,42.69],[9.17,42.76],[9.25,43.02],[9.33,43.02],[9.49,43.02],[9.49,42.76],[9.57,42.76],[9.58,41.98]]],[[[10.13,42.89],[10.21,42.89],[10.46,42.89],[10.46,42.69],[10.21,42.69],[10.13,42.89]]],[[[14.27,44.97],[14.35,44.97],[14.51,44.91],[14.5,44.52],[14.26,44.58],[14.27,44.97]]],[[[19.17,47.07],[19.08,47.07],[19.09,47.14],[19.17,47.14],[19.17,47.07]]],[[[16.99,48.19],[16.91,48.19],[16.91,48.26],[16.99,48.26],[16.99,48.19]]],[[[16.91,48.26],[16.83,48.26],[16.83,48.32],[16.91,48.32],[16.91,48.26]]],[[[0.07,52.99],[0.17,52.86],[0.34,52.86],[0.49,53.06],[1.09,53.06],[1.53,52.92],[1.72,52.72],[1.74,52.38],[1.65,52.38],[1.59,52.12],[1.43,51.98],[1.17,51.98],[1.18,51.78],[0.84,51.78],[0.86,51.51],[0.52,51.51],[1.38,51.38],[1.31,51.11],[0.49,50.78],[-1.37,50.85],[-1.11,50.78],[-1.18,50.58],[-1.51,50.58],[-1.52,50.71],[-2.61,50.58],[-2.79,50.71],[-3.13,50.71],[-3.46,50.65],[-3.58,50.25],[-4.09,50.25],[-4.19,50.38],[-4.35,50.38],[-4.93,50.25],[-5.15,49.98],[-5.75,50.05],[-5.77,50.25],[-5.28,50.38],[-5.13,50.58],[-4.88,50.58],[-4.82,50.78],[-4.66,50.85],[-4.68,51.05],[-4.43,51.05],[-4.2,51.31],[-3.09,51.25],[-3.11,51.38],[-2.95,51.45],[-3.12,51.51],[-3.28,51.38],[-3.7,51.38],[-3.89,51.58],[-4.31,51.51],[-4.42,51.71],[-5.08,51.58],[-5.26,51.71],[-5.22,52.05],[-4.55,52.18],[-4.16,52.45],[-4.3,52.92],[-4.79,52.79],[-4.81,52.92],[-4.49,53.12],[-4.67,53.19],[-4.7,53.46],[-4.27,53.46],[-4.08,53.26],[-3.15,53.46],[-3.1,53.73],[-3.2,53.87],[-2.97,54.14],[-3.3,54.07],[-3.32,54.21],[-3.59,54.27],[-3.72,54.68],[-3.57,54.89],[-2.89,55.09],[-2.82,55.23],[-2.38,55.16],[-1.61,55.36],[-1.29,54.68],[-0.67,54.61],[-0.2,54.21],[-0.18,53.94],[0,53.8],[0.01,53.73],[0.12,53.46],[0.3,53.39],[0.32,53.12],[0.07,52.99]]],[[[34.09,35],[33.7,34.94],[33.52,34.74],[33.13,34.68],[33.04,34.55],[32.37,34.74],[32.23,34.94],[32.25,35.13],[32.55,35.13],[32.88,35.26],[32.89,35.39],[33.74,35.39],[34.31,35.71],[34.39,35.71],[34.54,35.71],[34.53,35.58],[33.96,35.26],[34.09,35]]],[[[24.15,35.39],[24.3,35.32],[25.69,35.32],[25.68,35.13],[26.23,35.19],[26.14,35.07],[24.82,35],[24.76,35.19],[24.53,35.19],[24.45,35.19],[23.68,35.26],[23.62,35.52],[24.16,35.52],[24.15,35.39]]],[[[27.69,36.29],[28.02,36.48],[28.09,36.48],[28.25,36.48],[28.14,36.03],[27.74,35.9],[27.69,36.29]]],[[[27.12,36.93],[27.19,36.8],[26.87,36.67],[27.04,36.93],[27.12,36.93]]],[[[25.34,37.13],[25.42,37.13],[25.57,37.13],[25.56,37],[25.33,37],[25.34,37.13]]],[[[24.28,37.71],[24.36,37.71],[24.43,37.58],[24.27,37.51],[24.2,37.64],[24.28,37.71]]],[[[24.99,37.71],[25.06,37.71],[25.22,37.71],[25.29,37.51],[25.05,37.51],[24.99,37.71]]],[[[26.08,37.71],[26.16,37.71],[26.31,37.71],[26.3,37.58],[25.99,37.51],[26.08,37.71]]],[[[24.69,38.03],[24.77,38.03],[25.07,37.77],[24.83,37.71],[24.68,37.84],[24.69,38.03]]],[[[25.9,38.48],[25.82,38.48],[25.91,38.67],[25.99,38.67],[26.22,38.55],[26.11,38.16],[25.88,38.16],[25.9,38.48]]],[[[23.57,38.8],[23.56,38.74],[23.48,38.74],[23.49,38.8],[23.57,38.8]]],[[[24.36,39],[24.44,39],[24.67,38.93],[24.66,38.74],[24.36,38.87],[24.36,39]]],[[[26.09,39],[26.1,39.13],[25.79,39.19],[26.04,39.38],[26.12,39.38],[26.51,39.32],[26.64,39],[26.25,38.93],[26.09,39]]],[[[25.07,40.03],[25.15,40.03],[25.46,40.03],[25.45,39.84],[24.97,39.84],[25.07,40.03]]],[[[25.8,40.29],[26.04,40.29],[26.02,40.16],[25.7,40.1],[25.72,40.29],[25.8,40.29]]],[[[24.57,40.81],[24.81,40.81],[24.79,40.61],[24.55,40.55],[24.49,40.81],[24.57,40.81]]]]}},{"type":"Feature","properties":{"NAME":"Former Zhao","C":3,"name":"Former Zhao","start_year":324,"end_year":336,"capital":"","type":"polity","region":"","event":"","source":"Cliopatria / Seshat Global History Databank (CC BY 4.0)","wikipedia":"Han-Zhao","wikidata":"Q1574107","_a":102,"_c":[109.59,36.58],"_nz":"前赵","_sz":""},"geometry":{"type":"Polygon","coordinates":[[[109.88,32.56],[109.91,32.43],[110.17,32.3],[111.24,32.3],[111.77,32.49],[112.65,33.39],[114.46,34.29],[114.54,34.49],[114.44,34.61],[114.73,35.13],[114.89,35.32],[115.34,35.45],[115.38,35.9],[115.3,35.9],[115.56,36.48],[115.46,36.61],[114.92,36.61],[114.95,36.67],[114.35,36.74],[114.38,36.8],[113.99,36.8],[114,37],[113.92,37],[114.14,37.64],[114.5,38.22],[114.37,38.29],[114.44,38.42],[114.3,38.61],[114.14,38.61],[114.05,38.74],[114.17,39],[114.09,39],[114.19,39.19],[114.59,39.19],[114.94,39.58],[114.86,39.58],[114.96,39.77],[114.69,40.16],[114.41,40.23],[114.97,40.68],[114.77,40.74],[114.76,40.87],[114.68,40.87],[114.53,40.74],[114.33,40.81],[114.18,40.68],[113.87,40.68],[113.72,40.55],[113.04,40.61],[107.77,39.9],[104.69,39.9],[104.61,39.9],[104.55,39.77],[104.63,39.77],[104.57,39.64],[104.67,39.51],[103.67,38.87],[103.61,38.74],[104.11,38.8],[103.84,38.55],[103.75,38.35],[103.88,38.29],[103.66,37.96],[103.76,37.84],[104.7,37.64],[104.83,37.58],[104.77,37.45],[105.16,37.45],[105.47,37.25],[105.7,37.25],[105.86,37.06],[105.75,36.8],[105.93,36.67],[105.87,36.55],[106.13,36.22],[105.92,35.9],[106.39,35.71],[106.42,35.58],[106.78,35.52],[106.73,35.39],[106.86,35.32],[106.78,34.94],[107.07,34.87],[106.92,34.49],[107.13,34.23],[107.08,34.1],[106.39,34.1],[106.19,33.78],[106.35,33.59],[106.03,33.33],[106.56,33.33],[106.75,33.2],[107.48,33.33],[107.67,33.2],[107.65,32.94],[107.88,32.94],[108.1,33.14],[108.24,32.88],[109.16,32.88],[109.58,32.56],[109.88,32.56]]]}},{"type":"Feature","properties":{"NAME":"Former Liang","C":10,"name":"Former Liang","start_year":324,"end_year":372,"capital":"姑臧（今武威）","type":"dynasty","region":"china","event":"","source":"Cliopatria / Seshat Global History Databank (CC BY 4.0)","wikipedia":"Former Liang","wikidata":"Q943392","_a":112,"_c":[100.11,37.07],"_nz":"前凉","_sz":""},"geometry":{"type":"Polygon","coordinates":[[[98.32,40.48],[98.22,40.61],[97.91,40.61],[97.89,40.74],[97.6,40.81],[97.63,40.87],[96.9,41],[96.93,41.07],[95.23,41],[93.92,40.74],[93.85,40.74],[93.57,40.48],[93.36,40.55],[93.28,40.16],[93.2,40.16],[93.09,39.9],[93.27,39.77],[93.3,39.45],[93.51,39.38],[93.88,39.51],[94.58,39.51],[95.06,39.32],[95.32,39.38],[95.4,39.19],[95.55,39.19],[95.63,39],[95.89,38.87],[95.97,38.87],[96.36,38.67],[96.7,38.74],[96.73,39.19],[96.65,39.19],[96.76,39.45],[97.21,39.38],[97.91,39],[98.22,39],[98.38,39.19],[98.91,39.13],[99.2,39.26],[99.81,38.48],[100.23,38.35],[100.41,38.61],[100.87,38.03],[101.24,37.96],[101.26,37.84],[101.55,37.77],[101.7,37.58],[102.1,37.77],[102.09,37.58],[102.25,37.38],[102.53,37.32],[102.69,37.13],[102.72,37.19],[103.21,37.06],[103.36,36.87],[103.31,36.74],[103.44,36.67],[103.39,36.55],[103.52,36.48],[103.47,36.35],[103.68,36.1],[103.6,35.9],[103.68,35.9],[103.63,35.58],[103.74,35.45],[103.45,34.49],[103.53,34.49],[103.36,34.23],[103.49,33.97],[103.23,33.46],[103.21,33.39],[104.7,33.26],[105.17,33.07],[105.7,33.07],[106.03,33.33],[106.35,33.59],[106.19,33.78],[106.39,34.1],[107.08,34.1],[107.13,34.23],[106.92,34.49],[107.07,34.87],[106.78,34.94],[106.86,35.32],[106.73,35.39],[106.78,35.52],[106.42,35.58],[106.39,35.71],[105.92,35.9],[106.13,36.22],[105.87,36.55],[105.93,36.67],[105.75,36.8],[105.86,37.06],[105.7,37.25],[105.47,37.25],[105.16,37.45],[104.77,37.45],[104.83,37.58],[104.7,37.64],[103.76,37.84],[103.66,37.96],[103.88,38.29],[103.75,38.35],[103.84,38.55],[104.11,38.8],[103.61,38.74],[103.67,38.87],[104.67,39.51],[104.57,39.64],[104.63,39.77],[104.55,39.77],[104.61,39.9],[104.53,39.9],[100.89,39.71],[100.92,39.77],[100.56,39.84],[100.54,39.97],[100.09,40.03],[100.12,40.1],[99.38,40.03],[99.28,40.16],[98.92,40.23],[98.95,40.29],[98.5,40.36],[98.4,40.48],[98.32,40.48]]]}},{"type":"Feature","properties":{"NAME":"Kingdom of Armenia","C":5,"name":"Kingdom of Armenia","start_year":324,"end_year":336,"capital":"","type":"polity","region":"","event":"","source":"Cliopatria / Seshat Global History Databank (CC BY 4.0)","wikipedia":"Kingdom of Armenia (antiquity)","wikidata":"Q208404","_a":47,"_c":[43.84,39.26],"_nz":"亚美尼亚王国","_sz":""},"geometry":{"type":"Polygon","coordinates":[[[48.22,39.71],[48.67,39.58],[48.81,39.45],[48.78,39.32],[48.93,39.26],[48.74,38.67],[48.82,38.67],[48.81,38.16],[48.8,38.09],[48.33,38.09],[47.25,38.67],[46.37,38.55],[45.85,38.29],[45.63,37.9],[45.22,37.77],[45.17,37.45],[45.25,37.45],[45.29,37.19],[45.45,37.19],[45.43,37.06],[45.1,36.93],[44.87,37],[44.74,37.19],[44.77,37.38],[44.64,37.51],[43.94,37.58],[43.89,37.71],[43.26,37.71],[42.51,37.9],[42.03,37.84],[41.97,37.96],[41.67,38.03],[40.57,38.03],[40.55,38.42],[40.47,38.42],[40.66,39.19],[40.51,39.26],[40.48,39.58],[39.85,39.58],[39.75,39.45],[39.21,39.51],[39.03,39.38],[38.74,39.58],[38.93,39.77],[38.79,39.9],[40.4,40.1],[40.95,40.61],[41.45,40.74],[41.53,41.26],[42.25,41.26],[42.36,41.46],[42.62,41.59],[42.86,41.59],[43.34,41.13],[43.98,41.13],[44.24,41.26],[45.11,41.26],[45.3,41],[45.6,40.87],[45.46,40.55],[45.88,40.29],[46.2,40.29],[46.26,40.16],[46.48,40.1],[46.46,39.97],[46.77,39.97],[47.07,39.84],[47.12,39.71],[48.15,39.71],[48.22,39.71]]]}},{"type":"Feature","properties":{"NAME":"Gupta Empire","C":9,"name":"Gupta Empire","start_year":324,"end_year":346,"capital":"","type":"polity","region":"","event":"","source":"Cliopatria / Seshat Global History Databank (CC BY 4.0)","wikipedia":"Gupta Empire","wikidata":"Q11774","_a":20,"_c":[84.98,25.59],"_nz":"笈多帝国","_sz":""},"geometry":{"type":"Polygon","coordinates":[[[84.98,26.32],[84.4,26.45],[83.15,27.03],[82.85,27.03],[82.42,26.71],[81.91,25.94],[81.65,25.74],[81.58,25.29],[82.16,24.71],[82.39,24.71],[82.72,24.46],[83.69,24.46],[84.63,24.2],[86.86,24.14],[87.87,24.39],[88.12,24.59],[88.38,25.68],[88.18,25.81],[88.16,26.07],[85.98,26.07],[85.25,26.19],[85.05,26.32],[84.98,26.32]]]}},{"type":"Feature","properties":{"NAME":"Western Jin","C":5,"name":"Western Jin","start_year":324,"end_year":336,"capital":"建康（今南京）","type":"dynasty","region":"china","event":"","source":"Cliopatria / Seshat Global History Databank (CC BY 4.0)","wikipedia":"Jin dynasty (266-420)","wikidata":"Q7352","_a":644,"_c":[114.3,29.59],"_nz":"西晋","_sz":""},"geometry":{"type":"MultiPolygon","coordinates":[[[[109.86,18.35],[109.84,18.22],[109.25,18.22],[109.12,18.35],[108.76,18.41],[108.64,18.54],[108.7,19.38],[109.2,19.7],[109.25,19.96],[110.16,20.09],[110.59,20.02],[110.61,20.15],[110.91,20.15],[111.09,19.89],[111.03,19.57],[110.88,19.57],[110.85,19.38],[110.68,19.25],[110.51,18.67],[110.19,18.54],[110.18,18.48],[109.86,18.35]]],[[[121.02,41.26],[123.09,41.91],[123.17,41.91],[123.13,41.85],[123.41,41.78],[123.37,41.72],[123.6,41.72],[123.56,41.65],[123.84,41.59],[123.8,41.52],[124.04,41.52],[124,41.46],[124.28,41.39],[124.24,41.33],[124.48,41.33],[124.44,41.26],[125.08,41],[125,40.87],[125.08,40.74],[124.88,40.42],[124.57,40.29],[124.27,39.9],[124.23,39.84],[123.6,39.84],[122.94,39.64],[122.17,39.26],[121.95,39],[121.72,39],[121.42,38.74],[121.03,38.74],[121.2,39.06],[121.52,39.06],[121.69,39.38],[121.3,39.38],[121.21,39.51],[121.28,39.64],[121.44,39.64],[121.5,39.9],[121.78,39.97],[122.23,40.48],[122.11,40.68],[121.83,40.74],[121.82,40.87],[121.11,40.87],[121,40.68],[120.65,40.48],[120.5,40.23],[119.38,39.77],[119.22,39.32],[118.45,39.06],[118.06,39.06],[118.05,39.19],[117.89,39.19],[117.58,38.74],[117.65,38.74],[117.6,38.48],[118.05,38.29],[118.07,38.16],[118.58,38.09],[118.65,38.22],[118.8,38.22],[118.77,38.16],[119.46,37.96],[119.39,37.84],[119.24,37.84],[118.98,37.32],[119.14,37.32],[119.16,37.19],[119.7,37.19],[119.83,37.45],[120.2,37.58],[120.19,37.71],[120.75,37.9],[121.11,37.84],[121.17,37.64],[121.48,37.64],[121.5,37.51],[122.15,37.58],[122.12,37.51],[122.71,37.45],[122.47,37.13],[122.57,37],[122.39,36.8],[121.91,36.93],[121.21,36.61],[120.98,36.61],[120.96,36.42],[120.73,36.42],[120.66,36.1],[120.32,36.03],[119.99,35.64],[119.62,35.52],[119.23,34.81],[119.46,34.81],[119.43,34.74],[119.71,34.68],[119.73,34.55],[120.34,34.36],[120.49,34.16],[120.55,33.59],[120.93,33.2],[120.92,32.62],[121.4,32.49],[121.5,32.17],[121.78,32.11],[121.99,31.85],[121.84,31.66],[121.3,31.85],[120.89,31.79],[121.45,31.66],[121.48,31.53],[121.63,31.53],[121.58,31.4],[121.74,31.4],[122,31.08],[121.9,30.82],[121.52,30.82],[121.2,30.56],[121.05,30.56],[120.68,30.18],[120.81,30.12],[121.1,30.31],[121.48,30.31],[121.62,30.05],[122.03,29.92],[121.86,29.67],[122.02,29.67],[121.93,29.41],[122,29.41],[121.94,29.22],[121.71,29.22],[121.8,29.47],[121.59,29.54],[121.54,29.15],[121.74,29.09],[121.71,28.77],[121.52,28.64],[121.65,28.57],[121.65,28.32],[121.15,28.19],[121.19,28.32],[121.12,28.32],[121.04,28.06],[120.87,27.99],[120.71,27.74],[120.66,27.54],[120.73,27.54],[120.55,27.16],[120.39,27.16],[120.25,26.9],[120.1,26.9],[120.06,26.77],[120.21,26.77],[120.16,26.58],[119.84,26.52],[119.94,26.32],[119.59,26.13],[119.78,26],[119.53,25.62],[119.9,25.62],[119.87,25.49],[119.47,25.36],[119.42,25.49],[119.27,25.49],[119.39,25.36],[119.34,25.16],[119.03,25.1],[119.07,24.97],[118.82,24.84],[118.76,24.59],[118.15,24.52],[118.08,24.2],[117.72,23.94],[117.69,23.81],[117.47,23.81],[117.18,23.49],[116.89,23.56],[116.78,23.36],[116.81,23.17],[116.59,23.17],[116.54,22.91],[115.7,22.79],[115.67,22.66],[115.37,22.66],[115.17,22.79],[114.9,22.53],[114.75,22.53],[114.64,22.72],[114.53,22.14],[114.37,22.08],[114,22.08],[114,22.46],[113.79,22.53],[113.75,22.72],[113.6,22.72],[113.7,22.46],[113.64,22.14],[113.42,22.14],[113.32,22.01],[113.11,22.08],[113.07,21.89],[112.77,21.89],[112.44,21.69],[111.86,21.76],[111.66,21.5],[110.98,21.44],[110.74,21.31],[110.72,21.18],[110.42,21.18],[110.48,21.11],[110.36,20.86],[110.62,20.6],[110.49,20.28],[109.88,20.21],[109.93,20.47],[109.79,20.54],[109.77,20.86],[109.7,20.86],[109.87,21.44],[109.81,21.5],[109.12,21.37],[109.09,21.63],[108.65,21.69],[108.56,21.56],[107.79,21.44],[107.42,20.99],[106.96,20.92],[106.83,20.6],[106.69,20.6],[106.54,20.15],[105.97,19.83],[105.73,18.86],[106.05,18.54],[106.03,18.41],[106.18,18.41],[106.29,18.22],[106.57,18.09],[106.57,17.64],[106.77,17.51],[106.75,17.39],[106.96,17.32],[106.95,17.26],[106.53,16.94],[106.54,17],[106.4,17],[106.42,17.13],[105.14,18.41],[105.19,18.67],[105.04,18.67],[105.14,18.86],[105.02,18.99],[105.01,19.44],[104.94,19.44],[104.99,19.76],[104.86,19.89],[104.98,20.15],[104.44,20.47],[104.62,20.66],[104.91,20.6],[104.87,20.86],[105.1,20.86],[104.85,21.18],[104.98,21.5],[104.93,21.63],[105.1,21.76],[105.13,21.95],[104.87,22.21],[105.24,22.59],[105.21,22.85],[105.51,22.85],[105.69,23.04],[105.36,23.3],[104.96,23.11],[104.9,23.24],[103.43,23.3],[102.85,23.43],[102.47,23.81],[102.32,23.81],[102.09,24.14],[101.81,24.26],[101.57,24.97],[101.59,25.04],[102.06,25.16],[102.59,25.55],[103.37,26.39],[104.27,27.03],[105.12,27.42],[105.35,27.42],[105.73,27.74],[105.97,27.8],[106.34,28.32],[106.5,28.89],[106.66,28.96],[106.87,29.41],[108.26,30.95],[108.82,31.72],[108.96,32.11],[109.58,32.56],[109.88,32.56],[109.91,32.43],[110.17,32.3],[111.24,32.3],[111.77,32.49],[112.65,33.39],[114.46,34.29],[114.54,34.49],[114.44,34.61],[114.73,35.13],[114.89,35.32],[115.34,35.45],[115.38,35.9],[115.3,35.9],[115.56,36.48],[115.46,36.61],[114.92,36.61],[114.95,36.67],[114.35,36.74],[114.38,36.8],[113.99,36.8],[114,37],[113.92,37],[114.14,37.64],[114.5,38.22],[114.37,38.29],[114.44,38.42],[114.3,38.61],[114.14,38.61],[114.05,38.74],[114.17,39],[114.09,39],[114.19,39.19],[114.59,39.19],[114.94,39.58],[114.86,39.58],[114.96,39.77],[114.69,40.16],[114.41,40.23],[114.97,40.68],[114.77,40.74],[114.76,40.87],[114.84,40.87],[115.99,41.78],[117.3,42.11],[117.46,42.24],[117.78,42.24],[117.74,42.04],[117.86,41.98],[117.75,41.78],[117.87,41.59],[118.43,41.59],[118.39,41.52],[118.91,41.46],[118.87,41.39],[118.95,41.39],[121.02,41.26]]],[[[122.27,30.18],[122.28,29.99],[121.98,29.99],[122.02,30.12],[122.05,30.18],[122.27,30.18]]],[[[126.91,38.74],[126.95,38.8],[127.03,38.8],[126.99,38.74],[126.91,38.74]]]]}},{"type":"Feature","properties":{"NAME":"Tuyuhun","C":8,"name":"Tuyuhun","start_year":324,"end_year":386,"capital":"无固定都城（游牧）","type":"polity","region":"tibet","event":"","source":"Cliopatria / Seshat Global History Databank (CC BY 4.0)","wikipedia":"Tuyuhun","wikidata":"Q1196201","_a":56,"_c":[95.86,37.55],"_nz":"吐谷浑","_sz":""},"geometry":{"type":"MultiPolygon","coordinates":[[[[95.97,38.87],[96.36,38.67],[96.7,38.74],[96.73,39.19],[96.65,39.19],[96.76,39.45],[97.21,39.38],[97.91,39],[98.22,39],[98.38,39.19],[98.91,39.13],[99.2,39.26],[99.81,38.48],[100.23,38.35],[100.41,38.61],[100.87,38.03],[101.24,37.96],[101.26,37.84],[101.55,37.77],[101.7,37.58],[102.1,37.77],[102.09,37.58],[102.25,37.38],[102.53,37.32],[102.69,37.13],[102.66,37.06],[102.87,36.8],[102.87,36.42],[103,36.35],[102.87,36.22],[102.88,36.03],[102.62,35.97],[102.62,35.77],[102.7,35.77],[102.47,35.58],[101.69,35.77],[100.01,35.84],[96.4,36.55],[96.21,36.67],[95.9,36.67],[95.5,36.87],[94.7,37],[92.6,37.64],[90.39,38.03],[90.28,38.16],[90.05,38.16],[89.94,38.29],[89.71,38.29],[89.6,38.42],[88.96,38.61],[88.8,38.8],[88.72,38.8],[90.49,39.13],[91.54,39.19],[92.25,39.38],[93.01,39.32],[93.3,39.45],[93.51,39.38],[93.88,39.51],[94.58,39.51],[95.06,39.32],[95.32,39.38],[95.4,39.19],[95.55,39.19],[95.63,39],[95.89,38.87],[95.97,38.87]]],[[[91.39,37.77],[91.32,37.77],[91.34,37.84],[91.42,37.84],[91.39,37.77]]]]}}]}