{"type":"FeatureCollection", "features": [
{"type":"Feature","geometry":{"type":"Polygon","coordinates":[[[30.54,23.36],[30.74,22.85],[30.72,22.27],[30.64,21.95],[30.69,21.31],[30.76,21.31],[30.74,20.79],[30.82,20.79],[30.8,20.34],[30.88,20.34],[31.15,17.64],[31.22,17.64],[31.34,16.81],[31.48,16.61],[31.39,16.36],[31.54,16.23],[31.53,15.97],[31.73,15.59],[32.09,15.39],[32.53,15.33],[32.53,15.2],[33.86,15.46],[34.1,15.84],[34.68,15.78],[34.56,16.23],[34.71,16.49],[35.67,16.49],[36.05,16.81],[36,17.32],[35.5,17.64],[35.3,18.09],[34.94,18.29],[34.88,18.61],[34.6,18.93],[34.47,19.38],[34.26,19.64],[33.82,21.63],[33.88,23.17],[33.82,23.49],[33.68,23.69],[33.39,23.81],[32.04,23.69],[31.67,23.75],[30.54,23.36]]]},"properties":{"NAME":"Kingdom of Kush","C":3,"name":"Kingdom of Kush","start_year":-630,"end_year":337,"capital":"","type":"polity","region":"","event":"","source":"Cliopatria / Seshat Global History Databank (CC BY 4.0)","wikipedia":"Kingdom of Kush","wikidata":"Q241790","_a":48,"_c":[33.29,19.51],"_nz":"库施王国","_sz":""}},
{"type":"Feature","geometry":{"type":"Polygon","coordinates":[[[127.55,34.61],[127.76,34.74],[128.07,34.74],[128.33,34.81],[128.68,34.74],[128.88,35],[129.15,35.07],[129.35,35.32],[129.07,35.39],[129.01,35.58],[128.62,35.58],[128.61,35.71],[128.22,35.71],[128.21,35.84],[127.93,35.9],[127.63,35.45],[127.45,35.07],[127.57,35],[127.45,34.74],[127.55,34.61]]]},"properties":{"NAME":"Byeonhan","C":0,"name":"Byeonhan","start_year":-91,"end_year":533,"capital":"无固定都城（弁韩诸部）","type":"polity","region":"korea","event":"","source":"Cliopatria / Seshat Global History Databank (CC BY 4.0)","wikipedia":"Byeonhan confederacy","wikidata":"Q1378584","_a":2,"_c":[128.4,35.25],"_nz":"弁韩","_sz":""}},
{"type":"Feature","geometry":{"type":"Polygon","coordinates":[[[129.35,35.32],[129.55,35.58],[129.67,35.97],[129.42,36.1],[129.54,36.93],[129.35,37.32],[129.21,37.19],[128.7,37.25],[127.99,36.8],[127.97,36.29],[128.09,36.22],[127.93,35.9],[128.21,35.84],[128.22,35.71],[128.61,35.71],[128.62,35.58],[129.01,35.58],[129.07,35.39],[129.35,35.32]]]},"properties":{"NAME":"Jinhan","C":6,"name":"Jinhan","start_year":-91,"end_year":372,"capital":"无固定都城（辰韩诸部）","type":"polity","region":"korea","event":"","source":"Cliopatria / Seshat Global History Databank (CC BY 4.0)","wikipedia":"Jinhan confederacy","wikidata":"Q701273","_a":4,"_c":[128.76,36.32],"_nz":"辰韩","_sz":""}},
{"type":"Feature","geometry":{"type":"Polygon","coordinates":[[[126.35,37.84],[126.29,37.58],[126.7,37.32],[126.6,37.13],[126.05,36.8],[126.26,36.61],[126.45,36.67],[126.43,36.16],[126.68,36.03],[126.3,35.26],[126.2,34.87],[126.48,34.81],[126.12,34.36],[126.42,34.36],[126.63,34.29],[127.13,34.55],[127.22,34.42],[127.55,34.61],[127.45,34.74],[127.57,35],[127.45,35.07],[127.63,35.45],[127.93,35.9],[128.09,36.22],[127.97,36.29],[127.99,36.8],[127.82,37.06],[127.83,37.38],[127.62,37.58],[127.63,37.9],[127.48,37.9],[127.61,38.29],[126.94,38.35],[126.35,37.84]]]},"properties":{"NAME":"Mahan","C":5,"name":"Mahan","start_year":-91,"end_year":337,"capital":"","type":"polity","region":"","event":"","source":"Cliopatria / Seshat Global History Databank (CC BY 4.0)","wikipedia":"Mahan","wikidata":"Q421372","_a":8,"_c":[127.07,36.32],"_nz":"马韩","_sz":""}},
{"type":"Feature","geometry":{"type":"Polygon","coordinates":[[[129.35,37.32],[129.26,37.58],[129.1,37.58],[128.58,38.35],[128.62,38.42],[128.36,38.8],[127.92,39],[127.92,39.13],[127.48,39.19],[127.59,39.51],[126.96,39.38],[126.85,39.19],[127.02,38.93],[126.94,38.35],[127.61,38.29],[127.48,37.9],[127.63,37.9],[127.62,37.58],[127.83,37.38],[127.82,37.06],[127.99,36.8],[128.7,37.25],[129.21,37.19],[129.35,37.32]]]},"properties":{"NAME":"Dongye","C":8,"name":"Dongye","start_year":-36,"end_year":312,"capital":"无固定都城","type":"polity","region":"korea","event":"","source":"Cliopatria / Seshat Global History Databank (CC BY 4.0)","wikipedia":"Dongye","wikidata":"Q105946539","_a":7,"_c":[128.12,38.16],"_nz":"东濊","_sz":""}},
{"type":"Feature","geometry":{"type":"MultiPolygon","coordinates":[[[[34.02,45.69],[32.92,45.43],[33.61,45.1],[33.52,44.45],[33.93,44.45],[34.38,44.78],[35.3,44.97],[35.41,45.17],[35.73,45.17],[35.88,45.04],[36.37,45.1],[36.42,45.43],[35.02,45.3],[34.99,45.63],[34.74,45.63],[34.62,45.89],[34.02,45.69]]],[[[39.09,46.28],[39.29,46.48],[39.55,47.01],[39.74,47.14],[39.72,47.47],[39.24,47.6],[38.49,47.53],[38.35,47.2],[39.2,47.33],[39.22,47.01],[38.89,47.01],[38.62,46.87],[38.49,46.61],[37.84,46.61],[37.9,46.48],[38.37,46.35],[38.33,46.15],[37.89,45.96],[37.7,45.3],[36.97,45.3],[36.78,45.1],[37.26,45.04],[37.53,44.71],[37.93,44.71],[38.12,44.84],[38.39,45.5],[38.7,45.89],[38.86,45.89],[39.09,46.28]]]]},"properties":{"NAME":"Cimmerian Bosporus","C":0,"name":"Cimmerian Bosporus","start_year":78,"end_year":370,"capital":"","type":"polity","region":"","event":"","source":"Cliopatria / Seshat Global History Databank (CC BY 4.0)","wikipedia":"Bosporan Kingdom","wikidata":"Q321371","_a":21,"_c":[36.33,46.03],"_nz":"辛梅里安博斯普鲁斯王国","_sz":""}},
{"type":"Feature","geometry":{"type":"Polygon","coordinates":[[[81.26,8.64],[80.99,8.96],[81,9.09],[80.73,9.48],[80.44,9.54],[80.45,9.74],[79.88,9.86],[79.86,9.67],[80.08,9.61],[79.99,9.41],[80.05,9.16],[79.81,8.77],[79.76,8.06],[79.61,7.87],[79.74,7.68],[79.76,6.65],[79.95,6.14],[80.23,5.88],[80.67,5.88],[81.34,6.14],[81.88,6.71],[81.92,7.42],[81.77,7.49],[81.65,7.94],[81.45,8.13],[81.4,8.51],[81.26,8.64]]]},"properties":{"NAME":"Anurādhapura","C":2,"name":"Anurādhapura","start_year":78,"end_year":438,"capital":"","type":"polity","region":"","event":"","source":"Cliopatria / Seshat Global History Databank (CC BY 4.0)","wikipedia":"Anurādhapura","wikidata":"Q5724","_a":9,"_c":[80.77,7.87],"_nz":"阿努拉德普勒","_sz":""}},
{"type":"Feature","geometry":{"type":"Polygon","coordinates":[[[96.83,22.14],[96.86,22.79],[96.78,22.79],[96.87,23.3],[96.59,23.88],[96.17,24.01],[95.29,23.69],[94.66,22.08],[94.72,21.95],[94.55,21.82],[94.41,20.86],[94.65,20.47],[94.61,20.21],[94.84,19.7],[94.73,19.44],[94.89,19.06],[94.85,18.8],[95.09,18.35],[95.68,18.35],[96.19,18.86],[96.42,19.38],[96.4,19.76],[96.58,19.96],[96.48,20.28],[96.71,20.34],[96.62,20.73],[96.79,20.86],[96.95,21.95],[96.83,22.14]]]},"properties":{"NAME":"Pyu City-States","C":4,"name":"Pyu City-States","start_year":84,"end_year":849,"capital":"","type":"polity","region":"","event":"","source":"Cliopatria / Seshat Global History Databank (CC BY 4.0)","wikipedia":"Pyu city-states","wikidata":"Q1627675","_a":14,"_c":[95.68,21.18],"_nz":"骠国城邦","_sz":""}},
{"type":"Feature","geometry":{"type":"Polygon","coordinates":[[[47.35,45.89],[47.31,45.69],[48.06,45.76],[48.35,45.96],[48.59,45.96],[48.64,46.15],[49.06,46.22],[49.3,46.55],[49.99,46.68],[50.3,46.94],[50.84,47.14],[51.58,47.14],[51.86,46.94],[53.11,47.01],[53.24,46.87],[53.25,45.96],[53.07,45.89],[53.06,45.56],[53.42,45.37],[53.67,45.37],[53.88,45.56],[54.29,45.56],[54.56,46.28],[54.52,46.74],[53.68,47.6],[53.1,47.86],[51.26,47.8],[49.97,47.6],[49.58,47.33],[49.41,47.33],[48.71,46.81],[48.38,46.81],[47.7,46.35],[47.17,46.15],[47.35,45.89]]]},"properties":{"NAME":"Huns","C":6,"name":"Huns","start_year":106,"end_year":370,"capital":"","type":"polity","region":"","event":"","source":"Cliopatria / Seshat Global History Databank (CC BY 4.0)","wikipedia":"Huns","wikidata":"Q45813","_a":25,"_c":[50.59,46.29],"_nz":"匈人","_sz":""}},
{"type":"Feature","geometry":{"type":"Polygon","coordinates":[[[-98.87,19.19],[-98.51,18.86],[-98.29,18.86],[-98.2,19.19],[-98.05,19.19],[-98.02,19.38],[-98.42,19.57],[-98.44,19.7],[-98.88,19.64],[-98.99,19.44],[-98.87,19.19]]]},"properties":{"NAME":"Teotihuacan","C":3,"name":"Teotihuacan","start_year":106,"end_year":655,"capital":"","type":"polity","region":"","event":"","source":"Cliopatria / Seshat Global History Databank (CC BY 4.0)","wikipedia":"Teotihuacan","wikidata":"Q172613","_a":1,"_c":[-98.5,19.28],"_nz":"特奥蒂瓦坎","_sz":""}},
{"type":"Feature","geometry":{"type":"Polygon","coordinates":[[[80.03,42.37],[79.52,42.5],[79.49,42.63],[79.03,42.89],[78.63,42.89],[77.72,43.02],[75.77,42.95],[75.88,42.82],[75.7,42.56],[75.81,42.43],[76.16,42.5],[76.14,42.24],[76.28,42.17],[76.13,41.98],[76.16,41.85],[76.62,41.78],[76.62,41.59],[76.82,41.46],[77.37,41.46],[77.87,41.52],[80.03,42.37]]]},"properties":{"NAME":"Wusun","C":6,"name":"Wusun","start_year":165,"end_year":386,"capital":"赤谷城","type":"polity","region":"central_asia","event":"","source":"Cliopatria / Seshat Global History Databank (CC BY 4.0)","wikipedia":"Wusun","wikidata":"Q854062","_a":7,"_c":[77.88,42.24],"_nz":"乌孙","_sz":""}},
{"type":"Feature","geometry":{"type":"Polygon","coordinates":[[[108.24,13.34],[108.35,13.08],[108.25,12.18],[108.1,12.12],[108.14,11.79],[108.5,11.73],[108.62,11.54],[109.05,11.47],[109.21,11.6],[109.23,12.37],[109.32,12.56],[109.47,12.56],[109.51,12.95],[109.33,13.27],[109.35,14.04],[109.18,14.36],[109.16,14.75],[108.97,15.01],[109.02,15.33],[108.68,15.52],[108.7,15.65],[108.37,15.91],[108.33,16.16],[108.14,16.36],[107.84,16.36],[107.67,16.68],[107.48,16.87],[107.33,16.87],[107.29,17.06],[106.95,17.26],[106.53,16.94],[106.52,16.87],[106.75,16.42],[106.97,16.42],[107.02,16.23],[107.5,16.04],[107.25,15.84],[107.22,15.65],[107.63,15.39],[107.67,15.14],[108.02,15.01],[107.99,14.81],[108.11,14.62],[108.05,14.17],[108.28,13.66],[108.24,13.34]]]},"properties":{"NAME":"Chámpa","C":6,"name":"Chámpa","start_year":207,"end_year":545,"capital":"","type":"polity","region":"","event":"","source":"Cliopatria / Seshat Global History Databank (CC BY 4.0)","wikipedia":"Champa","wikidata":"Q216786","_a":17,"_c":[108.02,14.37],"_nz":"占婆","_sz":""}},
{"type":"Feature","geometry":{"type":"Polygon","coordinates":[[[-95.59,17.32],[-95.99,17.51],[-96.28,17.51],[-96.61,17.71],[-96.91,17.71],[-97.54,17.96],[-98.06,17.96],[-98.25,17.77],[-98.23,17.64],[-98.02,17.32],[-98.03,16.94],[-97.9,17],[-97.77,16.68],[-98.04,16.55],[-98.05,16.1],[-97.72,15.91],[-97.05,15.84],[-96.73,15.65],[-96.21,15.65],[-94.95,16.1],[-94.85,16.36],[-94.63,16.42],[-94.38,16.68],[-94.6,17.13],[-95.07,17.32],[-95.59,17.32]]]},"properties":{"NAME":"Zapotec Civilization","C":5,"name":"Zapotec Civilization","start_year":207,"end_year":509,"capital":"","type":"polity","region":"","event":"","source":"Cliopatria / Seshat Global History Databank (CC BY 4.0)","wikipedia":"Zapotec civilization","wikidata":"Q844750","_a":9,"_c":[-96.31,16.81],"_nz":"萨波特克文明","_sz":""}},
{"type":"Feature","geometry":{"type":"MultiPolygon","coordinates":[[[[19.17,52.72],[18.5,52.86],[18.35,53.19],[17.67,53.39],[17.76,53.53],[17.34,53.6],[17.17,53.73],[15.25,53.19],[14.48,53.26],[14.05,53.06],[14.04,52.86],[14.55,52.65],[14.45,52.38],[14.95,51.92],[15.8,51.85],[15.79,51.58],[15.95,51.45],[16.54,51.38],[16.53,51.11],[17.12,51.05],[17.19,50.91],[17.86,50.71],[17.84,50.45],[18.09,50.31],[18.08,50.18],[19.79,50.58],[20.06,50.85],[20.17,51.18],[20.52,51.38],[20.54,51.58],[20.99,51.98],[20.85,52.38],[20.69,52.52],[20.18,52.45],[19.17,52.72]]],[[[15.08,55.23],[14.64,55.29],[14.64,55.09],[15.07,55.02],[15.08,55.23]]]]},"properties":{"NAME":"Burgundians","C":8,"name":"Burgundians","start_year":224,"end_year":346,"capital":"","type":"polity","region":"","event":"","source":"Cliopatria / Seshat Global History Databank (CC BY 4.0)","wikipedia":"Burgundians","wikidata":"Q13590051","_a":36,"_c":[17.52,52.74],"_nz":"勃艮第人","_sz":""}},
{"type":"Feature","geometry":{"type":"Polygon","coordinates":[[[127.59,39.51],[127.58,39.77],[127.93,39.97],[128.37,40.03],[128.68,40.29],[129.08,40.42],[129.24,40.68],[129.76,40.87],[129.88,41.2],[129.73,41.33],[129.81,41.46],[129.74,41.72],[130.32,42.24],[130.77,42.43],[130.74,42.63],[130.92,42.89],[130.65,43.08],[130.33,43.08],[126.47,42.82],[125.46,42.63],[124.61,42.17],[123.17,41.91],[124.48,41.33],[124.68,41.13],[125.83,41.33],[126.11,41.26],[126.19,41.13],[126.74,41],[126.62,40.68],[126.43,40.61],[126.27,40.36],[126.43,40.1],[126.71,40.03],[126.83,39.84],[126.73,39.38],[126.96,39.38],[127.59,39.51]]]},"properties":{"NAME":"Goguryeo","C":11,"name":"Goguryeo","start_year":238,"end_year":305,"capital":"国内城（今集安）","type":"dynasty","region":"korea","event":"","source":"Cliopatria / Seshat Global History Databank (CC BY 4.0)","wikipedia":"Goguryeo","wikidata":"Q28370","_a":29,"_c":[127.03,41.23],"_nz":"高句丽","_sz":""}},
{"type":"Feature","geometry":{"type":"Polygon","coordinates":[[[108.1,12.12],[108.25,12.18],[108.35,13.08],[108.24,13.34],[106.3,13.08],[106.24,13.21],[105.88,13.21],[105.54,13.47],[103.21,13.59],[101.87,14.04],[101.68,13.08],[101.81,12.95],[101.78,12.63],[102.11,12.31],[102.26,12.31],[102.22,11.99],[102.44,11.99],[102.6,12.12],[102.87,11.86],[102.84,11.6],[103.05,11.47],[103.06,10.83],[103.36,10.83],[103.6,11.09],[103.64,10.77],[103.49,10.7],[103.53,10.48],[104.01,9.87],[104.16,10.56],[104.53,10.09],[105.03,9.99],[104.79,9.74],[104.7,8.64],[104.77,8.51],[105.14,8.58],[105.62,9.16],[106.14,9.29],[106.23,9.48],[106.6,9.54],[106.55,9.8],[106.64,9.99],[106.8,10.06],[106.82,10.32],[106.98,10.51],[107.34,10.38],[108.03,10.7],[108.12,10.89],[108.57,11.02],[109.05,11.41],[108.62,11.54],[108.5,11.73],[108.14,11.79],[108.1,12.12]]]},"properties":{"NAME":"Funan","C":0,"name":"Funan","start_year":238,"end_year":545,"capital":"","type":"polity","region":"","event":"","source":"Cliopatria / Seshat Global History Databank (CC BY 4.0)","wikipedia":"Funan","wikidata":"Q867782","_a":41,"_c":[105.37,11.27],"_nz":"扶南","_sz":""}},
{"type":"Feature","geometry":{"type":"MultiPolygon","coordinates":[[[[40.82,14.81],[40.68,15.01],[40.31,14.94],[39.97,15.52],[39.82,15.52],[39.73,15.2],[39.61,15.59],[39.15,15.33],[38.93,15.39],[38.78,15.14],[38.63,15.07],[38.17,14.69],[38,14.17],[38.26,13.4],[38.4,13.08],[38.97,12.82],[41.32,12.82],[41.47,12.95],[41.91,13.01],[41.92,13.14],[42.22,13.27],[42.44,13.27],[42.38,13.59],[41.66,14.04],[41.39,14.56],[40.82,14.81]]],[[[42.82,16.61],[42.69,15.52],[42.77,15.52],[42.82,15.07],[42.89,15.07],[44,15.14],[43.95,15.65],[44.12,16.1],[43.91,16.29],[43.94,16.87],[44.02,16.87],[44.02,16.94],[43.82,17.26],[43.9,17.39],[43.55,17.77],[43.25,17.64],[43.03,17.71],[43.02,17.51],[42.63,17.19],[42.48,17],[42.82,16.61]]]]},"properties":{"NAME":"Kingdom of Axum","C":3,"name":"Kingdom of Axum","start_year":238,"end_year":352,"capital":"","type":"polity","region":"","event":"","source":"Cliopatria / Seshat Global History Databank (CC BY 4.0)","wikipedia":"Kingdom of Aksum","wikidata":"Q139377","_a":30,"_c":[41.06,15.3],"_nz":"阿克苏姆王国","_sz":""}},
{"type":"Feature","geometry":{"type":"Polygon","coordinates":[[[74.11,19.83],[74.31,19.32],[74.45,19.11],[74.46,18.94],[74.05,18.8],[73.72,18.61],[73.94,18.16],[74.28,17.91],[75.06,16.77],[75.01,15.54],[75.97,14.69],[77.31,14.86],[78.19,15.56],[78.76,15.73],[78.79,17.02],[78.87,17.36],[79.19,17.73],[80.32,18.57],[80.73,18.59],[80.8,20],[82.26,20.4],[83.73,20.41],[84.14,20.8],[84.44,21.43],[84.58,22.57],[83.94,22.56],[83.46,23.1],[83.03,22.98],[82.22,23.01],[81.24,22.42],[81.15,22.22],[80.76,22.14],[78.06,22.6],[77.21,22.95],[75.89,22.48],[75.37,22.47],[74.31,22.22],[74.38,21.67],[74.18,20.84],[73.91,20.6],[74.11,19.83]]]},"properties":{"NAME":"Vakataka Kingdom","C":7,"name":"Vakataka Kingdom","start_year":260,"end_year":305,"capital":"","type":"polity","region":"","event":"","source":"Cliopatria / Seshat Global History Databank (CC BY 4.0)","wikipedia":"Vakataka dynasty","wikidata":"Q1501306","_a":91,"_c":[79.15,18.9],"_nz":"伐卡塔卡王国","_sz":""}},
{"type":"Feature","geometry":{"type":"Polygon","coordinates":[[[126.78,33.26],[127,33.59],[126.36,33.52],[126.14,33.2],[126.78,33.26]]]},"properties":{"NAME":"Tamna","C":11,"name":"Tamna","start_year":263,"end_year":681,"capital":"无固定城邑","type":"polity","region":"korea","event":"","source":"Cliopatria / Seshat Global History Databank (CC BY 4.0)","wikipedia":"Tamna","wikidata":"Q28057","_a":0,"_c":[126.57,33.4],"_nz":"耽罗","_sz":""}},
{"type":"Feature","geometry":{"type":"Polygon","coordinates":[[[66.64,24.91],[66.63,24.84],[67.15,24.78],[67.33,24.39],[67.29,24.07],[67.44,24.07],[67.49,23.88],[67.63,23.81],[68.16,23.81],[68.13,23.56],[68.55,23.36],[68.81,22.98],[69.45,22.72],[70.37,22.91],[70.26,22.66],[69.87,22.46],[69.5,22.46],[69.41,22.34],[69.2,22.46],[68.98,22.46],[68.95,22.21],[69.35,21.76],[69.5,21.76],[69.9,21.37],[69.89,21.24],[70.3,20.86],[70.72,20.66],[71.09,20.66],[72.1,21.11],[72.28,21.37],[72.38,22.27],[72.53,22.27],[72.54,21.76],[72.76,21.69],[72.56,21.24],[72.9,20.92],[72.84,20.34],[72.66,20.09],[72.73,19.38],[73.02,19.25],[73.79,19.57],[74.11,19.83],[73.91,20.6],[74.18,20.84],[74.38,21.67],[74.31,22.22],[75.37,22.47],[75.89,22.48],[77.21,22.95],[78.06,22.6],[80.76,22.14],[81,22.19],[81.19,22.53],[81.31,23.43],[80.86,23.94],[79.81,24.46],[78.58,24.71],[78.26,25.1],[78.25,25.55],[77.98,25.74],[77.89,26.13],[77.52,26.58],[77.37,26.58],[77.25,26.77],[77.1,26.77],[76.98,26.97],[76.83,26.97],[76.71,27.16],[76.56,27.16],[75.98,27.67],[75.27,27.93],[74.69,28.51],[74.19,28.64],[73.86,28.89],[73.28,29.02],[72.87,29.28],[71.7,29.47],[71.02,29.09],[70.65,28.7],[69.93,28.44],[69.83,28.32],[68.69,28.25],[68.51,28.06],[67.56,27.8],[67.17,27.22],[67.2,26.32],[67.25,26.13],[67.45,26],[67.49,25.74],[67.11,25.1],[66.64,24.91]]]},"properties":{"NAME":"Western Satraps","C":10,"name":"Western Satraps","start_year":270,"end_year":305,"capital":"","type":"polity","region":"","event":"","source":"Cliopatria / Seshat Global History Databank (CC BY 4.0)","wikipedia":"Western Satraps","wikidata":"Q2086608","_a":150,"_c":[73.97,24.36],"_nz":"西萨特拉普王朝","_sz":""}},
{"type":"Feature","geometry":{"type":"Polygon","coordinates":[[[36.17,48.99],[36.37,49.18],[37.09,49.45],[37.7,50.05],[37.87,50.05],[37.95,50.45],[37.81,50.58],[37.18,50.85],[36.88,51.05],[36.77,51.31],[36.36,51.38],[35.68,51.38],[35.3,51.18],[34.52,51.05],[34.32,50.85],[33.96,50.71],[33.63,50.78],[33.42,50.51],[32.2,50.25],[31.44,50.25],[30.42,50.71],[29.76,50.85],[29.24,50.78],[27.91,50.91],[27.51,51.05],[25.48,51.05],[24.36,50.85],[24.01,50.71],[23.99,50.51],[23.65,50.45],[22.66,49.71],[22.62,49.25],[22.78,49.18],[22.83,48.79],[22.99,48.65],[22.95,48.19],[22.6,47.86],[22.67,47.73],[22.48,47.47],[22.31,47.4],[22.29,47.07],[22.03,46.81],[22.01,46.55],[21.74,46.15],[21.49,46.09],[20.75,46.09],[20.59,46.22],[20.19,46.22],[20.17,45.96],[19.91,45.63],[20.06,45.37],[20.53,45.1],[20.52,44.91],[20.75,44.71],[21.41,44.84],[21.88,44.65],[21.95,44.52],[22.52,44.52],[22.5,44.32],[22.89,44.12],[22.95,43.8],[23.6,43.86],[24.15,43.67],[24.88,43.73],[25.43,43.6],[25.85,43.73],[26.28,44.06],[27.49,44.06],[27.83,44.19],[27.94,44.52],[27.8,44.71],[27.97,44.78],[28,45.04],[27.85,45.17],[27.87,45.37],[28.28,45.43],[28.35,45.3],[28.67,45.24],[29.1,45.43],[29.58,45.43],[29.61,45.69],[29.86,45.69],[30.04,45.89],[30.3,45.96],[30.88,46.68],[31.61,46.61],[31.79,46.74],[32.19,46.68],[32.17,46.55],[32.92,46.61],[33.79,46.94],[34.11,47.47],[34.46,47.6],[35.03,47.53],[35.08,47.86],[35.27,48.06],[35.24,48.39],[35.35,48.52],[35.91,48.92],[36.17,48.99]]]},"properties":{"NAME":"Gothia","C":4,"name":"Gothia","start_year":270,"end_year":307,"capital":"","type":"polity","region":"","event":"","source":"Cliopatria / Seshat Global History Databank (CC BY 4.0)","wikipedia":"Gothia","wikidata":"Q422253","_a":140,"_c":[28.93,47.49],"_nz":"哥特亚","_sz":""}},
{"type":"Feature","geometry":{"type":"Polygon","coordinates":[[[41.84,29.02],[42.13,28.96],[42.2,28.83],[42.42,28.83],[42.71,28.64],[43.23,28.51],[43.44,28.38],[43.74,28.32],[43.8,28.19],[44.03,28.25],[45.43,27.93],[45.8,27.8],[46.7,27.74],[47.69,27.87],[48.17,28.19],[48.25,28.19],[48.21,28.57],[47.53,29.28],[47.65,29.67],[46.7,29.92],[46.66,30.24],[46.45,30.37],[45.77,30.44],[45.08,31.08],[45.1,31.21],[44.81,31.34],[44.86,31.72],[44.73,31.98],[43.9,32.04],[43.92,32.17],[43.7,32.24],[43.35,32.56],[43.15,32.81],[42.71,32.94],[42.58,33.14],[42.21,33.26],[41.89,33.14],[41.64,32.94],[41.62,32.81],[41.37,32.62],[41.16,32.11],[40.74,31.72],[40.41,31.53],[40.06,31.08],[39.93,30.5],[39.98,30.24],[40.12,30.05],[41.06,29.6],[41.11,29.34],[41.27,29.41],[41.77,29.15],[41.84,29.02]]]},"properties":{"NAME":"Lakhmid Kingdom","C":9,"name":"Lakhmid Kingdom","start_year":270,"end_year":401,"capital":"","type":"polity","region":"","event":"","source":"Cliopatria / Seshat Global History Databank (CC BY 4.0)","wikipedia":"Lakhmid kingdom","wikidata":"Q943191","_a":46,"_c":[44.09,30.5],"_nz":"莱赫米王国","_sz":""}},
{"type":"Feature","geometry":{"type":"Polygon","coordinates":[[[46.47,15.97],[46.18,15.97],[46.02,15.84],[45.58,15.84],[45.37,15.97],[44.81,16.55],[44.81,16.61],[44.09,16.81],[43.95,16.94],[43.96,17.13],[43.82,17.26],[43.9,17.39],[43.55,17.77],[43.25,17.64],[43.03,17.71],[43.02,17.51],[42.63,17.19],[42.48,17],[42.82,16.61],[42.78,15.84],[42.71,15.84],[42.75,15.14],[42.89,15.07],[42.95,14.88],[43.06,13.98],[43.26,13.72],[43.24,13.08],[43.45,12.89],[43.44,12.69],[44.39,12.63],[44.61,12.76],[45.05,12.76],[45.74,13.34],[46.11,13.4],[46.05,13.59],[46.2,13.72],[46.16,14.43],[45.95,14.49],[45.82,14.81],[45.6,14.81],[45.01,14.81],[44.93,14.69],[44.56,14.69],[44.35,14.81],[44.29,15.14],[45.02,15.14],[45.18,15.26],[45.85,15.39],[45.86,15.52],[46.15,15.52],[46.38,15.71],[46.47,15.97]]]},"properties":{"NAME":"Himyarite Kingdom","C":7,"name":"Himyarite Kingdom","start_year":283,"end_year":305,"capital":"","type":"polity","region":"","event":"","source":"Cliopatria / Seshat Global History Databank (CC BY 4.0)","wikipedia":"Himyarite Kingdom","wikidata":"Q289577","_a":24,"_c":[44.47,15.62],"_nz":"希米亚里特王国","_sz":""}},
{"type":"Feature","geometry":{"type":"Polygon","coordinates":[[[8.38,53.33],[8.98,53.26],[9.5,53.66],[9.41,53.73],[9.41,54.07],[8.97,54.55],[8.54,54.41],[8.8,54.21],[8.89,53.87],[8.37,53.87],[8.38,53.33]]]},"properties":{"NAME":"Saxons","C":6,"name":"Saxons","start_year":283,"end_year":454,"capital":"","type":"polity","region":"","event":"","source":"Cliopatria / Seshat Global History Databank (CC BY 4.0)","wikipedia":"Saxons","wikidata":"Q101985","_a":1,"_c":[8.93,53.91],"_nz":"萨克森人","_sz":""}},
{"type":"Feature","geometry":{"type":"Polygon","coordinates":[[[78.3,14.31],[80.34,13.28],[80.13,14.18],[80.21,14.63],[80.06,15.15],[80.2,15.61],[79.68,15.84],[79.02,15.94],[78.79,15.72],[78.21,15.56],[77.34,14.88],[78.3,14.31]]]},"properties":{"NAME":"Late Pallava Empire","C":3,"name":"Late Pallava Empire","start_year":283,"end_year":305,"capital":"","type":"polity","region":"","event":"","source":"Cliopatria / Seshat Global History Databank (CC BY 4.0)","wikipedia":"Pallava dynasty","wikidata":"Q466803","_a":8,"_c":[78.84,14.61],"_nz":"后期帕拉瓦帝国","_sz":""}},
{"type":"Feature","geometry":{"type":"Polygon","coordinates":[[[73.1,40.81],[72.47,41.07],[72.23,41.07],[71.92,41.33],[71.63,41.65],[70.02,41.59],[69.58,41.72],[68.98,41.33],[68.22,41.46],[68.03,41.59],[67.55,41.59],[66.89,41.26],[66.65,41.26],[65.96,40.81],[65.88,40.81],[65.56,39.97],[65.29,39.84],[65.28,39.51],[65.07,39],[65.16,38.74],[64.75,35.77],[64.83,35.77],[64.85,35.19],[65.09,34.87],[64.57,34.61],[64.32,34.16],[63.87,33.84],[63.41,32.3],[64.38,32.17],[65.02,31.91],[65.69,31.85],[66.1,31.59],[66.48,31.59],[66.45,31.01],[66.53,31.01],[66.88,31.27],[67.93,31.59],[68.12,31.79],[68.66,31.79],[68.78,31.66],[69.09,31.66],[69.29,31.91],[69.67,31.91],[69.87,32.11],[70.61,32.36],[70.74,32.62],[70.91,32.69],[70.95,32.88],[71.5,33.26],[72.14,34.04],[72.46,34.1],[72.42,33.91],[72.72,33.91],[72.77,33.78],[73.26,33.91],[73.34,34.55],[73.72,34.81],[73.73,34.87],[73.44,34.94],[72.71,35.71],[72.5,36.1],[72.3,36.22],[72.23,36.55],[72.63,37.71],[72.99,38.16],[73.49,38.55],[73.75,39.13],[73.63,39.26],[73.69,39.45],[73.57,39.58],[73.8,40.29],[73.53,40.42],[73.49,40.55],[73.1,40.81]]]},"properties":{"NAME":"Indo-Sasanian Empire","C":3,"name":"Indo-Sasanian Empire","start_year":283,"end_year":346,"capital":"","type":"polity","region":"","event":"","source":"Cliopatria / Seshat Global History Databank (CC BY 4.0)","wikipedia":"Kushano-Sasanian Kingdom","wikidata":"Q1661685","_a":111,"_c":[68.6,36.37],"_nz":"印度-萨珊帝国","_sz":""}},
{"type":"Feature","geometry":{"type":"Polygon","coordinates":[[[71.7,29.47],[71.71,29.54],[72.41,30.05],[73.22,31.01],[74.21,31.72],[74.62,31.85],[74.82,32.04],[75.21,32.11],[75.5,32.36],[75.9,32.43],[75.88,32.69],[75.27,33.01],[75.01,33.52],[74.77,33.78],[74.8,33.91],[74.6,34.04],[74.63,34.16],[74.45,34.36],[74.3,34.36],[73.99,34.68],[73.72,34.81],[73.34,34.55],[73.26,33.91],[72.77,33.78],[72.72,33.91],[72.42,33.91],[72.46,34.1],[72.14,34.04],[71.5,33.26],[70.95,32.88],[70.91,32.69],[70.74,32.62],[70.61,32.36],[69.87,32.11],[69.67,31.91],[69.29,31.91],[69.09,31.66],[68.78,31.66],[68.66,31.79],[68.12,31.79],[67.93,31.59],[66.88,31.27],[66.53,31.01],[66.34,30.44],[66.42,30.44],[66.32,29.86],[66.07,29.73],[66.89,29.67],[66.99,29.41],[67.14,29.34],[66.93,28.57],[67.01,28.57],[67.06,27.48],[67.17,27.22],[67.56,27.8],[68.51,28.06],[68.69,28.25],[69.83,28.32],[69.93,28.44],[70.65,28.7],[71.02,29.09],[71.7,29.47]]]},"properties":{"NAME":"Eastern Kushans","C":7,"name":"Eastern Kushans","start_year":283,"end_year":337,"capital":"","type":"polity","region":"","event":"","source":"Cliopatria / Seshat Global History Databank (CC BY 4.0)","wikipedia":"Kushan Empire","wikidata":"Q25979","_a":77,"_c":[71.1,31.05],"_nz":"东贵霜","_sz":""}},
{"type":"Feature","geometry":{"type":"Polygon","coordinates":[[[8.18,49.85],[8.27,49.85],[8.43,50.31],[8.76,50.51],[8.42,50.58],[7.91,50.98],[7.99,51.11],[7.65,51.18],[7.65,51.31],[7.39,51.51],[7.39,51.71],[7.21,51.85],[7.12,52.25],[6.68,52.59],[6.35,52.38],[6,52.45],[6.08,52.65],[5.65,52.65],[5.56,52.92],[4.89,52.65],[4.81,52.38],[4.56,52.32],[4.65,52.05],[5.93,51.98],[6.63,51.51],[6.89,51.38],[7.06,50.98],[7.24,50.91],[7.24,50.71],[7.41,50.51],[7.58,50.51],[7.75,50.31],[7.68,49.91],[8.18,49.85]]]},"properties":{"NAME":"Ripuarian Franks","C":0,"name":"Ripuarian Franks","start_year":283,"end_year":357,"capital":"","type":"polity","region":"","event":"","source":"Cliopatria / Seshat Global History Databank (CC BY 4.0)","wikipedia":"Ripuarian Franks","wikidata":"Q316860","_a":13,"_c":[6.66,51.42],"_nz":"里普利安法兰克人","_sz":""}},
{"type":"Feature","geometry":{"type":"Polygon","coordinates":[[[42.66,36.74],[42.76,37.51],[41.26,37.38],[41.21,37],[41.67,36.35],[42.63,36.55],[42.66,36.74]]]},"properties":{"NAME":"Kingdom of Adiabene","C":9,"name":"Kingdom of Adiabene","start_year":287,"end_year":366,"capital":"","type":"polity","region":"","event":"","source":"Cliopatria / Seshat Global History Databank (CC BY 4.0)","wikipedia":"Adiabene","wikidata":"Q149747","_a":2,"_c":[41.97,36.93],"_nz":"阿迪亚贝纳王国","_sz":""}},
{"type":"Feature","geometry":{"type":"Polygon","coordinates":[[[42.62,41.59],[42.93,42.43],[42.72,42.56],[42.5,43.15],[42.53,43.28],[41.95,43.21],[41.05,43.54],[40.17,43.6],[40.16,43.54],[40.6,43.28],[41,43.28],[41.21,43.08],[41.67,42.95],[41.78,42.69],[42,42.56],[42.01,41.72],[41.7,41.33],[42.25,41.26],[42.36,41.46],[42.62,41.59]]]},"properties":{"NAME":"Lazica","C":2,"name":"Lazica","start_year":287,"end_year":305,"capital":"","type":"polity","region":"","event":"","source":"Cliopatria / Seshat Global History Databank (CC BY 4.0)","wikipedia":"Lazica","wikidata":"Q136884","_a":6,"_c":[41.55,42.43],"_nz":"拉齐卡","_sz":""}},
{"type":"Feature","geometry":{"type":"Polygon","coordinates":[[[48.15,39.71],[48.2,40.81],[48.38,40.94],[48.34,41.13],[47.96,41.2],[47.99,41.33],[47.5,41.26],[47.35,41.33],[46.82,41.85],[46.43,41.91],[46.23,42.11],[45.7,42.24],[45.54,42.24],[45.31,41.91],[45.07,41.91],[44.77,41.59],[44.35,41.46],[44.24,41.26],[45.11,41.26],[45.3,41],[45.6,40.87],[45.46,40.55],[45.88,40.29],[46.2,40.29],[46.46,39.97],[46.77,39.97],[47.07,39.84],[47.12,39.71],[48.15,39.71]]]},"properties":{"NAME":"Caucasian Albania","C":4,"name":"Caucasian Albania","start_year":287,"end_year":386,"capital":"","type":"polity","region":"","event":"","source":"Cliopatria / Seshat Global History Databank (CC BY 4.0)","wikipedia":"Caucasian Albania","wikidata":"Q177076","_a":10,"_c":[46.31,40.98],"_nz":"高加索阿尔巴尼亚","_sz":""}},
{"type":"Feature","geometry":{"type":"Polygon","coordinates":[[[48.8,38.09],[48.82,38.67],[48.74,38.67],[48.93,39.26],[48.67,39.58],[48.15,39.71],[47.12,39.71],[47.07,39.84],[46.77,39.97],[46.46,39.97],[46.2,40.29],[45.88,40.29],[45.46,40.55],[45.6,40.87],[45.3,41],[45.11,41.26],[44.24,41.26],[43.98,41.13],[43.34,41.13],[42.86,41.59],[42.62,41.59],[42.36,41.46],[42.25,41.26],[41.7,41.33],[41.61,41.26],[41.53,41.26],[41.45,40.74],[40.95,40.61],[40.4,40.1],[38.79,39.9],[38.93,39.77],[38.74,39.58],[38.95,39.38],[39.21,39.51],[39.75,39.45],[39.85,39.58],[40.48,39.58],[40.51,39.26],[40.66,39.19],[40.47,38.42],[40.57,38.03],[41.67,38.03],[41.97,37.96],[42.03,37.84],[42.51,37.9],[43.26,37.71],[43.89,37.71],[43.94,37.58],[44.64,37.51],[44.77,37.38],[44.74,37.19],[44.87,37],[45.1,36.93],[45.43,37.06],[45.17,37.45],[45.22,37.77],[45.63,37.9],[45.85,38.29],[46.37,38.55],[47.25,38.67],[48.33,38.09],[48.8,38.09]]]},"properties":{"NAME":"Kingdom of Armenia","C":5,"name":"Kingdom of Armenia","start_year":287,"end_year":305,"capital":"","type":"polity","region":"","event":"","source":"Cliopatria / Seshat Global History Databank (CC BY 4.0)","wikipedia":"Kingdom of Armenia (antiquity)","wikidata":"Q208404","_a":47,"_c":[43.84,39.26],"_nz":"亚美尼亚王国","_sz":""}},
{"type":"Feature","geometry":{"type":"Polygon","coordinates":[[[45.7,42.24],[45.68,42.56],[45.44,42.56],[45.16,42.76],[44.69,42.82],[43.78,42.69],[43.74,42.89],[43.2,43.02],[42.92,43.21],[42.5,43.15],[42.72,42.56],[42.93,42.43],[42.62,41.59],[42.86,41.59],[43.34,41.13],[43.98,41.13],[44.24,41.26],[44.35,41.46],[44.77,41.59],[45.07,41.91],[45.31,41.91],[45.54,42.24],[45.7,42.24]]]},"properties":{"NAME":"Caucasian Iberia","C":6,"name":"Caucasian Iberia","start_year":287,"end_year":396,"capital":"","type":"polity","region":"","event":"","source":"Cliopatria / Seshat Global History Databank (CC BY 4.0)","wikipedia":"Kingdom of Iberia","wikidata":"Q19083","_a":7,"_c":[44.1,42.17],"_nz":"高加索伊比利亚","_sz":""}},
{"type":"Feature","geometry":{"type":"MultiPolygon","coordinates":[[[[50.65,25.87],[50.69,26.26],[50.46,26.26],[50.43,25.94],[50.65,25.87]]],[[[65.88,40.81],[65.59,40.61],[65.27,40.61],[65.24,40.48],[64.39,40.29],[64.02,40.1],[63.21,40.03],[63.17,40.16],[62.87,40.23],[62.91,40.68],[62.77,40.74],[62.76,41],[62.32,41.39],[62.35,41.52],[62.15,41.65],[62.19,41.78],[61.94,42.04],[61.78,42.04],[61.56,42.37],[61.4,42.37],[61.17,42.69],[61.01,42.69],[60.39,43.34],[60.37,43.54],[59.12,43.41],[58.63,43.67],[58.42,43.47],[58.26,43.47],[57.46,41.39],[56.83,40.74],[54.39,40.81],[53.4,40.68],[52.94,40.74],[52.79,40.42],[52.72,40.1],[53.5,40.03],[53.52,39.38],[53.99,39],[53.83,37.84],[53.91,37.45],[54.09,37.19],[54.03,36.87],[53.09,36.8],[52.19,36.55],[51.26,36.61],[50.53,36.87],[50.32,37],[49.85,37.45],[49.09,37.51],[48.83,37.84],[48.8,38.09],[48.33,38.09],[47.25,38.67],[46.37,38.55],[45.85,38.29],[45.63,37.9],[45.22,37.77],[45.17,37.45],[45.43,37.06],[45.1,36.93],[44.87,37],[44.74,37.19],[44.29,37.25],[43.71,37.06],[43.61,36.87],[43.15,36.93],[42.97,36.74],[42.66,36.74],[42.63,36.55],[41.67,36.35],[41.09,36.03],[41.11,35],[40.77,34.74],[40.62,34.74],[40.1,34.29],[40.7,34.16],[40.91,33.97],[41.21,33.91],[41.49,33.65],[42,33.46],[42.21,33.26],[42.58,33.14],[42.71,32.94],[43.15,32.81],[43.35,32.56],[43.7,32.24],[43.92,32.17],[43.9,32.04],[44.73,31.98],[44.86,31.72],[44.81,31.34],[45.1,31.21],[45.08,31.08],[45.77,30.44],[46.45,30.37],[46.66,30.24],[46.7,29.92],[47.65,29.67],[47.53,29.28],[48.21,28.57],[48.25,28.19],[48.53,27.99],[48.55,27.48],[49.06,27.29],[49.27,27.09],[49.25,26.97],[49.88,26.45],[49.67,25.87],[50.03,25.68],[50.34,24.97],[50.62,24.65],[50.92,24.71],[51.12,25.29],[50.98,25.42],[51.23,25.68],[51.35,25.36],[51.29,24.71],[51.1,24.2],[51.17,24.07],[51.82,23.88],[51.88,23.69],[54.27,23.75],[54.81,23.94],[55.62,24.65],[55.84,24.59],[55.86,24.78],[56.09,24.84],[56.29,24.59],[56.27,24.39],[56.49,24.33],[56.54,24.07],[56.82,23.88],[56.81,23.75],[57.83,23.49],[57.96,23.3],[58.33,23.3],[58.61,23.04],[58.91,23.04],[58.9,22.91],[59.27,22.91],[59.28,23.04],[59.07,23.17],[59.08,23.3],[58.81,23.62],[57.49,23.88],[56.79,24.33],[56.54,24.91],[56.4,24.97],[56.46,25.55],[56.39,25.55],[56.54,26.32],[56.48,26.39],[56.17,26.32],[55.97,25.87],[55.41,25.55],[55.14,25.1],[54.74,24.84],[54.56,24.46],[54.32,24.26],[54.1,24.33],[54.08,24.14],[53.11,24.14],[52.6,24.26],[52.28,24.01],[51.91,24.01],[51.85,24.26],[51.41,24.33],[51.52,24.78],[51.69,24.97],[51.72,25.29],[51.57,25.36],[51.7,25.87],[51.42,26.13],[51.12,26.13],[50.95,25.94],[50.92,25.62],[50.61,25.42],[50.33,25.62],[50.21,26],[50.25,26.45],[50.12,26.58],[50.13,26.77],[49.36,27.29],[49.24,27.61],[48.87,27.67],[48.97,27.93],[48.56,28.32],[48.46,28.77],[48.19,29.09],[48.22,29.28],[47.87,29.54],[48.4,29.6],[48.37,29.92],[48.99,30.05],[48.94,30.31],[49.59,29.99],[50.06,30.18],[50.24,29.73],[50.65,29.41],[50.62,29.15],[50.92,29.09],[50.81,28.83],[51.03,28.77],[51.07,28.44],[51.33,28.12],[51.32,27.99],[51.6,27.8],[52.05,27.8],[52.48,27.61],[52.74,27.22],[53.46,26.97],[53.66,26.71],[54.26,26.71],[54.46,26.52],[54.83,26.45],[55.24,26.77],[55.29,26.52],[55.6,26.64],[56.06,26.71],[56.31,26.9],[56.19,27.16],[56.71,27.16],[57.05,26.84],[57.18,25.94],[57.38,25.74],[57.68,25.74],[57.74,25.62],[57.96,25.55],[58.78,25.55],[59.06,25.36],[60.63,25.36],[60.62,25.23],[60.92,25.23],[61.13,25.1],[61.66,25.16],[61.72,25.04],[62.02,25.04],[62.18,25.16],[62.47,25.1],[62.56,25.23],[63.54,25.23],[63.63,25.36],[64.23,25.36],[64.28,25.23],[64.8,25.16],[64.82,25.29],[66.02,25.36],[66.35,25.55],[66.62,25.36],[66.64,24.91],[67.11,25.1],[67.49,25.74],[67.45,26],[67.25,26.13],[67.2,26.32],[67.17,27.22],[67.06,27.48],[67.01,28.57],[66.93,28.57],[67.14,29.34],[66.99,29.41],[66.89,29.67],[66.07,29.73],[66.32,29.86],[66.42,30.44],[66.34,30.44],[66.53,31.01],[66.45,31.01],[66.48,31.59],[66.1,31.59],[65.69,31.85],[65.02,31.91],[64.38,32.17],[63.41,32.3],[63.87,33.84],[64.32,34.16],[64.57,34.61],[65.09,34.87],[64.85,35.19],[64.83,35.77],[64.75,35.77],[65.16,38.74],[65.07,39],[65.28,39.51],[65.29,39.84],[65.56,39.97],[65.88,40.81]]]]},"properties":{"NAME":"Sasanian Empire","C":8,"name":"Sasanian Empire","start_year":287,"end_year":305,"capital":"","type":"polity","region":"","event":"","source":"Cliopatria / Seshat Global History Databank (CC BY 4.0)","wikipedia":"Sasanian Empire","wikidata":"Q1661685","_a":569,"_c":[53.8,33.29],"_nz":"萨珊帝国","_sz":""}},
{"type":"Feature","geometry":{"type":"Polygon","coordinates":[[[102.69,37.13],[102.53,37.32],[102.25,37.38],[102.09,37.58],[102.1,37.77],[101.7,37.58],[101.55,37.77],[101.26,37.84],[101.24,37.96],[100.87,38.03],[100.41,38.61],[100.23,38.35],[99.81,38.48],[99.2,39.26],[98.91,39.13],[98.38,39.19],[98.22,39],[97.91,39],[97.21,39.38],[96.76,39.45],[96.7,38.74],[96.36,38.67],[95.63,39],[95.55,39.19],[95.32,39.38],[95.06,39.32],[94.58,39.51],[93.88,39.51],[93.51,39.38],[93.22,39.45],[93.01,39.32],[92.25,39.38],[91.54,39.19],[90.49,39.13],[88.72,38.8],[88.96,38.61],[89.6,38.42],[89.71,38.29],[89.94,38.29],[90.05,38.16],[90.28,38.16],[90.39,38.03],[92.6,37.64],[94.7,37],[95.5,36.87],[95.9,36.67],[96.21,36.67],[96.4,36.55],[100.01,35.84],[101.69,35.77],[102.47,35.58],[102.62,35.77],[102.62,35.97],[102.88,36.03],[102.87,36.8],[102.69,37.13]]]},"properties":{"NAME":"Tuyuhun","C":8,"name":"Tuyuhun","start_year":287,"end_year":305,"capital":"无固定都城（游牧）","type":"polity","region":"tibet","event":"","source":"Cliopatria / Seshat Global History Databank (CC BY 4.0)","wikipedia":"Tuyuhun","wikidata":"Q1196201","_a":56,"_c":[95.86,37.55],"_nz":"吐谷浑","_sz":""}},
{"type":"Feature","geometry":{"type":"MultiPolygon","coordinates":[[[[110.18,18.48],[110.51,18.67],[110.68,19.25],[110.85,19.38],[110.88,19.57],[111.03,19.57],[111.09,19.89],[110.91,20.15],[110.61,20.15],[110.59,20.02],[110.16,20.09],[109.25,19.96],[109.2,19.7],[108.7,19.38],[108.64,18.54],[108.76,18.41],[109.12,18.35],[109.25,18.22],[109.84,18.22],[109.86,18.35],[110.18,18.48]]],[[[123.17,41.91],[123.09,41.91],[121.02,41.26],[118.87,41.39],[118.39,41.52],[117.99,41.52],[117.75,41.78],[117.86,41.98],[117.78,42.24],[117.46,42.24],[117.3,42.11],[115.99,41.78],[114.84,40.87],[113.87,40.68],[113.84,40.48],[112.7,39.19],[111.85,37.58],[111.02,37.64],[111.08,37.77],[110.46,37.77],[110.48,37.84],[109.5,37.9],[108.79,37.9],[108.49,38.09],[107.36,37.84],[106.06,37.9],[105.88,38.03],[105.06,37.77],[104.41,37.71],[104.31,37.84],[103.71,37.9],[103.69,38.03],[103.96,38.29],[103.81,38.48],[104.21,38.87],[103.61,38.74],[103.94,39.13],[104.48,39.45],[104.73,39.64],[104.61,39.9],[100.89,39.71],[100.56,39.84],[100.54,39.97],[100.12,40.1],[99.38,40.03],[99.28,40.16],[99.05,40.16],[98.95,40.29],[98.04,40.55],[97.63,40.87],[96.9,41],[96.93,41.07],[95.23,41],[93.69,40.74],[93.3,40.94],[92.32,41.07],[92.35,41.13],[91.27,41.39],[90.78,41.72],[90.54,41.72],[90.22,41.91],[87.12,42.5],[85.76,42.69],[85.79,42.76],[84.11,42.76],[82.06,42.24],[80.51,42.37],[80.24,42.5],[80.03,42.37],[77.87,41.52],[77.37,41.46],[77.35,41.39],[74.75,41],[73.34,41.07],[73.1,40.81],[73.49,40.55],[73.53,40.42],[73.8,40.29],[73.57,39.58],[73.69,39.45],[73.77,39.45],[75.79,39.13],[77.03,38.8],[77.26,38.55],[77.41,38.55],[77.51,38.35],[77.67,38.35],[77.84,38.16],[77.8,38.03],[78.09,37.71],[78.39,37.64],[78.42,37.51],[79.15,37.32],[79.4,37.13],[80.37,37],[81.03,36.61],[85.11,37.45],[85.36,37.71],[85.81,37.9],[86.08,38.22],[86.78,38.42],[87.66,38.48],[88.64,38.8],[88.72,38.8],[90.49,39.13],[91.54,39.19],[92.25,39.38],[93.01,39.32],[93.22,39.45],[93.51,39.38],[93.88,39.51],[94.58,39.51],[95.06,39.32],[95.32,39.38],[95.55,39.19],[95.63,39],[96.36,38.67],[96.7,38.74],[96.76,39.45],[97.21,39.38],[97.91,39],[98.22,39],[98.38,39.19],[98.91,39.13],[99.2,39.26],[99.81,38.48],[100.23,38.35],[100.41,38.61],[100.87,38.03],[101.24,37.96],[101.26,37.84],[101.55,37.77],[101.7,37.58],[102.1,37.77],[102.09,37.58],[102.25,37.38],[102.53,37.32],[102.69,37.13],[103.08,37.13],[103.36,36.87],[103.47,36.35],[103.65,36.22],[103.63,35.58],[103.74,35.45],[103.36,34.23],[103.49,33.97],[103.33,33.52],[103.03,33.33],[102.55,33.26],[101.69,32.75],[100.98,31.01],[100.89,29.92],[100.96,29.67],[100.88,29.34],[100.88,29.09],[101.02,28.77],[101.03,28.51],[100.92,28.06],[101.05,27.99],[101.01,27.54],[101.09,27.54],[101.2,26.39],[101.4,25.94],[101.46,25.16],[101.81,24.26],[102.09,24.14],[102.32,23.81],[102.47,23.81],[102.65,23.56],[102.8,23.56],[102.99,23.36],[104.9,23.24],[104.96,23.11],[105.36,23.3],[105.69,23.04],[105.51,22.85],[105.21,22.85],[105.24,22.59],[104.87,22.21],[105.13,21.95],[105.1,21.76],[104.93,21.63],[104.98,21.5],[104.85,21.18],[105.1,20.86],[104.87,20.86],[104.91,20.6],[104.62,20.66],[104.44,20.47],[104.98,20.15],[104.86,19.89],[104.99,19.76],[105.02,18.99],[105.19,18.67],[105.14,18.41],[106.42,17.13],[106.53,16.94],[106.95,17.26],[106.75,17.39],[106.77,17.51],[106.57,17.64],[106.57,18.09],[106.29,18.22],[106.18,18.41],[105.73,18.86],[105.97,19.83],[106.54,20.15],[106.69,20.6],[106.83,20.6],[106.96,20.92],[107.42,20.99],[107.79,21.44],[108.56,21.56],[108.65,21.69],[109.09,21.63],[109.12,21.37],[109.81,21.5],[109.87,21.44],[109.7,20.86],[109.79,20.54],[109.93,20.47],[109.88,20.21],[110.49,20.28],[110.62,20.6],[110.36,20.86],[110.48,21.11],[110.72,21.18],[110.74,21.31],[110.98,21.44],[111.66,21.5],[111.86,21.76],[112.44,21.69],[112.77,21.89],[113.07,21.89],[113.11,22.08],[113.32,22.01],[113.42,22.14],[113.64,22.14],[113.79,22.53],[114,22.46],[114,22.08],[114.37,22.08],[114.53,22.14],[114.64,22.72],[114.75,22.53],[114.9,22.53],[115.17,22.79],[115.37,22.66],[115.67,22.66],[115.7,22.79],[116.54,22.91],[116.59,23.17],[116.81,23.17],[116.78,23.36],[116.89,23.56],[117.18,23.49],[117.47,23.81],[117.69,23.81],[117.72,23.94],[118.08,24.2],[118.15,24.52],[118.76,24.59],[118.82,24.84],[119.07,24.97],[119.03,25.1],[119.34,25.16],[119.47,25.36],[119.87,25.49],[119.9,25.62],[119.53,25.62],[119.78,26],[119.59,26.13],[119.94,26.32],[119.84,26.52],[120.16,26.58],[120.25,26.9],[120.39,27.16],[120.55,27.16],[120.73,27.54],[120.71,27.74],[120.87,27.99],[121.15,28.19],[121.65,28.32],[121.71,28.77],[121.71,29.22],[121.94,29.22],[122.03,29.92],[121.62,30.05],[121.48,30.31],[121.1,30.31],[120.81,30.12],[120.68,30.18],[121.05,30.56],[121.2,30.56],[121.52,30.82],[121.9,30.82],[122,31.08],[121.74,31.4],[121.58,31.4],[121.3,31.85],[121.84,31.66],[121.94,31.72],[121.96,31.98],[121.5,32.17],[121.4,32.49],[120.92,32.62],[120.93,33.2],[120.55,33.59],[120.49,34.16],[120.34,34.36],[119.73,34.55],[119.71,34.68],[119.23,34.81],[119.62,35.52],[119.99,35.64],[120.32,36.03],[120.66,36.1],[120.73,36.42],[120.96,36.42],[120.98,36.61],[121.21,36.61],[121.91,36.93],[122.39,36.8],[122.57,37],[122.47,37.13],[122.71,37.45],[122.12,37.51],[121.5,37.51],[121.48,37.64],[121.17,37.64],[121.11,37.84],[120.75,37.9],[120.19,37.71],[120.2,37.58],[119.83,37.45],[119.7,37.19],[119.16,37.19],[118.98,37.32],[119.24,37.84],[119.46,37.96],[118.77,38.16],[118.58,38.09],[118.07,38.16],[118.05,38.29],[117.77,38.35],[117.6,38.48],[117.58,38.74],[117.78,39.13],[118.06,39.06],[118.45,39.06],[118.99,39.19],[119.22,39.32],[119.38,39.77],[120.5,40.23],[120.65,40.48],[121,40.68],[121.11,40.87],[121.82,40.87],[121.83,40.74],[122.11,40.68],[122.23,40.48],[121.78,39.97],[121.5,39.9],[121.44,39.64],[121.21,39.51],[121.3,39.38],[121.69,39.38],[121.52,39.06],[121.2,39.06],[121.03,38.74],[121.42,38.74],[121.72,39],[121.95,39],[122.17,39.26],[122.94,39.64],[123.6,39.84],[124.03,39.77],[124.34,39.9],[124.51,39.64],[124.86,39.71],[124.87,39.58],[125.31,39.51],[125.39,39.38],[124.79,38.29],[124.76,38.09],[125.08,38.09],[125.39,37.64],[125.68,37.9],[125.84,37.77],[126.35,37.84],[126.94,38.35],[127.02,38.93],[126.85,39.19],[126.96,39.38],[126.73,39.38],[126.83,39.84],[126.71,40.03],[126.43,40.1],[126.27,40.36],[126.43,40.61],[126.62,40.68],[126.74,41],[126.19,41.13],[126.11,41.26],[125.83,41.33],[124.68,41.13],[124.48,41.33],[123.17,41.91]]],[[[122.27,30.18],[122.05,30.18],[121.98,29.99],[122.28,29.99],[122.27,30.18]]]]},"properties":{"NAME":"Western Jin","C":5,"name":"Western Jin","start_year":287,"end_year":305,"capital":"建康（今南京）","type":"dynasty","region":"china","event":"","source":"Cliopatria / Seshat Global History Databank (CC BY 4.0)","wikipedia":"Jin dynasty (266-420)","wikidata":"Q7352","_a":1392,"_c":[100.06,29.85],"_nz":"西晋","_sz":""}},
{"type":"Feature","geometry":{"type":"MultiPolygon","coordinates":[[[[10.71,55.02],[10.8,55.43],[10.63,55.63],[9.75,55.57],[9.93,55.84],[10.28,55.98],[10.37,56.32],[9.66,56.25],[9.22,55.91],[9.23,55.57],[9.58,55.29],[9.93,55.09],[10.71,55.02]]],[[[18.23,57.83],[18.03,57.56],[18.08,56.94],[18.34,56.94],[18.45,57.21],[18.91,57.42],[18.84,57.7],[19.05,57.97],[18.6,57.97],[18.23,57.83]]],[[[10.92,60.07],[11.66,60.28],[11.66,60.63],[10.93,60.91],[10.56,60.63],[10.47,60.35],[10.93,60.21],[10.92,60.07]]]]},"properties":{"NAME":"Norse","C":3,"name":"Norse","start_year":299,"end_year":401,"capital":"","type":"polity","region":"","event":"","source":"Cliopatria / Seshat Global History Databank (CC BY 4.0)","wikipedia":"Norse","wikidata":"Q909583","_a":58,"_c":[14.09,57.97],"_nz":"诺斯人","_sz":""}},
{"type":"Feature","geometry":{"type":"Polygon","coordinates":[[[-86.72,20.92],[-86.75,21.5],[-86.92,21.63],[-87.22,21.63],[-87.34,21.5],[-88.48,21.63],[-89.18,21.37],[-89.98,21.31],[-90.17,21.11],[-90.32,21.11],[-90.42,20.41],[-90.43,20.02],[-90.74,19.7],[-90.81,19.25],[-91.35,18.93],[-91.3,18.61],[-91.5,18.48],[-91.79,18.48],[-91.84,18.74],[-92.5,18.74],[-92.62,18.54],[-93.49,18.48],[-93.84,18.35],[-93.57,18.03],[-93.57,17.58],[-93.37,17.26],[-93.49,17.13],[-93.4,17],[-93.64,16.68],[-93.59,16.36],[-93.82,15.91],[-92.75,15.14],[-92.47,14.69],[-91.35,13.91],[-90.47,13.91],[-89.92,13.59],[-89.87,13.79],[-89.57,13.72],[-89.59,13.91],[-89.19,14.24],[-88.82,14.24],[-88.69,14.43],[-88.63,15.07],[-88.38,15.39],[-88.51,15.84],[-88.82,15.97],[-88.64,16.23],[-88.49,16.23],[-88.24,16.49],[-88.14,16.81],[-88.19,17.64],[-87.91,18.22],[-87.7,18.29],[-87.73,18.48],[-87.45,19.06],[-87.49,19.31],[-87.39,19.57],[-87.55,19.64],[-87.29,19.89],[-87.35,20.21],[-86.71,20.86],[-86.72,20.92]]]},"properties":{"NAME":"Mayan City-States","C":2,"name":"Mayan City-States","start_year":299,"end_year":554,"capital":"","type":"polity","region":"","event":"","source":"Cliopatria / Seshat Global History Databank (CC BY 4.0)","wikipedia":"Maya civilization","wikidata":"Q28567","_a":57,"_c":[-90.27,17.61],"_nz":"玛雅城邦","_sz":""}},
{"type":"Feature","geometry":{"type":"Polygon","coordinates":[[[75.99,10.6],[76.55,8.92],[77.15,8.26],[77.25,8.39],[77.34,9.58],[77.23,9.76],[77.41,10.21],[76.85,10.45],[76.89,10.76],[76.71,10.91],[75.99,10.6]]]},"properties":{"NAME":"Early Cheras","C":9,"name":"Early Cheras","start_year":299,"end_year":305,"capital":"","type":"polity","region":"","event":"","source":"Cliopatria / Seshat Global History Databank (CC BY 4.0)","wikipedia":"Chera dynasty","wikidata":"Q877155","_a":4,"_c":[76.7,9.59],"_nz":"早期哲罗","_sz":""}},
{"type":"Feature","geometry":{"type":"Polygon","coordinates":[[[79.29,10.27],[78.92,10.13],[77.44,10.19],[77.24,9.77],[77.36,9.58],[77.26,8.15],[77.53,8.08],[77.84,8.17],[78.18,8.51],[78.25,8.91],[78.54,9.1],[79.15,9.26],[78.91,9.45],[78.94,9.67],[79.27,9.99],[79.29,10.27]]]},"properties":{"NAME":"Early Pandyas","C":3,"name":"Early Pandyas","start_year":299,"end_year":305,"capital":"","type":"polity","region":"","event":"","source":"Cliopatria / Seshat Global History Databank (CC BY 4.0)","wikipedia":"Early Pandyas","wikidata":"Q3532152","_a":5,"_c":[78.22,9.18],"_nz":"早期潘迪亚","_sz":""}},
{"type":"Feature","geometry":{"type":"Polygon","coordinates":[[[45.6,14.81],[45.6,14.88],[46.34,15.01],[46.49,15.07],[46.58,15.33],[46.8,15.33],[47.53,15.2],[47.52,15.07],[48.32,14.94],[48.54,14.81],[49.63,14.69],[50.75,15.01],[50.85,15.33],[51.07,15.46],[51.24,15.78],[51.86,16.23],[51.95,16.49],[51.89,16.61],[51.08,16.68],[50.48,16.55],[50.12,16.61],[49.59,16.49],[48.12,16.42],[46.7,16.1],[46.55,16.16],[46.47,15.97],[46.38,15.71],[46.15,15.52],[45.86,15.52],[45.85,15.39],[45.18,15.26],[45.02,15.14],[44.29,15.14],[44.35,14.81],[44.56,14.69],[44.93,14.69],[45.01,14.81],[45.6,14.81]]]},"properties":{"NAME":"Hadhramaut","C":11,"name":"Hadhramaut","start_year":299,"end_year":305,"capital":"","type":"polity","region":"","event":"","source":"Cliopatria / Seshat Global History Databank (CC BY 4.0)","wikipedia":"Hadhramaut","wikidata":"Q1517159","_a":15,"_c":[48.12,15.68],"_nz":"哈德拉毛","_sz":""}},
{"type":"Feature","geometry":{"type":"MultiPolygon","coordinates":[[[[40.16,43.54],[40.42,43.15],[40.82,43.15],[41.33,42.89],[41.61,42.63],[41.48,42.37],[41.7,42.24],[41.82,41.98],[41.57,41.46],[41.16,41.39],[41.05,41.2],[40.37,40.94],[39.74,40.94],[39.05,41.13],[38.95,41],[38.54,40.87],[38.3,40.87],[38.16,41],[37.83,40.94],[37.77,41.07],[37.44,41],[37.07,41.13],[36.77,41.33],[36.21,41.26],[35.95,41.72],[35.16,41.72],[35.12,42.04],[34.88,42.04],[34.78,41.91],[33.28,41.98],[32.86,41.85],[32.03,41.52],[31.53,41.39],[31.18,41.07],[30.62,41.07],[30.48,41.2],[29.21,41.2],[29.04,41.13],[29.25,40.81],[28.91,40.61],[29.05,40.36],[27.94,40.36],[27.7,40.29],[27.47,40.42],[26.75,40.36],[26.6,40.48],[26.27,40.29],[26.13,39.51],[26.85,39.58],[26.74,39.26],[26.96,39],[26.85,38.61],[27.08,38.55],[27.06,38.35],[26.59,38.35],[26.54,38.61],[26.38,38.67],[26.43,38.22],[26.82,38.22],[26.89,38.09],[27.28,38.03],[27.16,37.58],[27.54,37.38],[27.6,37.13],[28.07,37.13],[28.14,37.06],[28.03,36.67],[28.19,36.67],[28.36,36.87],[29.12,36.74],[29.24,36.22],[29.94,36.22],[30.03,36.35],[30.49,36.35],[30.62,36.93],[31.39,36.87],[32.07,36.61],[32.5,36.22],[32.56,36.03],[33.98,36.29],[34.25,36.67],[34.58,36.87],[34.89,36.87],[35.33,36.61],[35.49,36.61],[35.83,36.93],[36.14,36.93],[36.29,36.8],[36.26,36.61],[35.84,36.29],[35.99,36.22],[35.84,35.58],[35.99,35.52],[35.93,34.87],[36.07,34.74],[36.05,34.55],[35.79,34.29],[35.68,33.97],[35.45,33.91],[35.5,33.65],[35.35,33.65],[35.4,33.39],[35.22,33.07],[35.06,33.01],[35.02,32.62],[34.77,32.36],[34.81,31.98],[34.57,31.85],[34.64,31.72],[34.55,31.53],[34.31,31.4],[34.3,31.27],[33.98,31.14],[32.83,31.01],[32.77,31.14],[32.53,31.08],[32,31.08],[31.88,31.46],[31.27,31.46],[30.97,31.53],[30.81,31.46],[30.35,31.46],[30.34,31.27],[29.88,31.27],[29.87,31.08],[29.4,30.82],[28.87,30.82],[28.5,31.01],[27.51,31.14],[27.3,31.34],[26.85,31.46],[25.25,31.46],[25.1,31.59],[25.11,31.79],[24.89,31.98],[24.13,31.98],[23.68,32.17],[23.3,32.17],[23.08,32.36],[23.09,32.62],[21.88,32.94],[21.41,32.75],[21.11,32.81],[20.87,32.62],[20.33,32.49],[20.25,32.24],[20.09,32.11],[20,31.59],[20.21,31.27],[20.13,31.14],[20.2,30.89],[19.97,30.69],[19.96,30.56],[19.66,30.37],[19.27,30.24],[18.59,30.37],[18,30.89],[17.47,31.08],[16.18,31.21],[15.65,31.4],[15.58,31.59],[15.42,31.66],[15.21,32.36],[14.75,32.43],[14.67,32.56],[14.44,32.49],[14.07,32.75],[13.45,32.81],[13.3,32.94],[12.84,32.88],[12.84,32.75],[12.23,32.81],[11.46,33.2],[11.16,33.2],[11.08,33.59],[10.7,33.52],[10.54,33.71],[10.24,33.71],[10.01,33.91],[10.08,34.23],[10,34.29],[10.54,34.55],[10.85,34.81],[10.85,34.94],[11.08,35],[11.01,35.39],[11.08,35.58],[10.7,35.71],[10.46,35.9],[10.54,36.35],[10.46,36.42],[11.01,36.8],[10.85,37],[10.54,36.74],[10.23,36.8],[10.31,37.06],[10.23,37.25],[9.99,37.19],[9.6,37.32],[9.06,37.06],[8.9,37.13],[8.52,36.87],[7.74,36.87],[7.5,37.06],[7.35,37.06],[7.19,36.87],[6.8,36.87],[6.33,37.06],[6.1,36.93],[6.11,36.8],[5.64,36.8],[5.56,36.67],[5.1,36.67],[4.86,36.87],[4.47,36.93],[3.85,36.8],[3.46,36.87],[3.23,36.74],[2.84,36.74],[2.69,36.61],[2.38,36.67],[1.53,36.48],[1.22,36.55],[0.91,36.35],[0.38,36.22],[0.08,35.84],[-0.46,35.84],[-0.53,35.71],[-0.92,35.71],[-1.36,35.26],[-1.59,35.26],[-1.89,35.07],[-2.66,35.07],[-2.98,35.26],[-3.13,35.19],[-4.75,35.19],[-5.24,35.52],[-5.34,35.84],[-5.88,35.77],[-6,35.32],[-6.29,35.07],[-6.33,34.55],[-6.61,34.16],[-6.9,33.91],[-7.13,33.84],[-7.88,33.52],[-7.47,33.26],[-7.18,33.52],[-6.73,33.59],[-6.81,33.71],[-6.59,33.84],[-6.6,33.97],[-6.31,34.23],[-6.11,34.61],[-5.81,34.81],[-5.28,34.94],[-2.81,34.94],[-1.88,34.81],[-1.81,34.94],[-1.35,35],[-1.2,35.13],[-1.04,35.07],[-0.29,35.58],[0.48,35.64],[0.77,36.03],[1.01,36.03],[1.15,36.16],[2.01,36.16],[2.32,36.22],[2.77,36.42],[5.65,36.35],[5.88,36.48],[6.35,36.42],[6.42,36.55],[6.89,36.48],[6.96,36.61],[7.59,36.61],[7.9,36.22],[7.91,35.52],[7.99,35.52],[7.99,35.07],[8.23,34.81],[8.46,34.87],[8.85,34.74],[8.93,34.36],[8.93,34.04],[9.08,34.04],[9.32,33.59],[9.62,33.46],[9.55,33.33],[9.63,33.14],[10.08,33.14],[10.01,33.01],[10.39,33.01],[11.16,32.69],[11.31,32.49],[11.77,32.43],[11.77,32.3],[12.46,32.36],[13.07,32.3],[13.83,32.11],[14.59,31.66],[14.58,31.53],[15.19,31.08],[15.18,30.89],[15.49,30.95],[16.7,30.69],[18.28,30.05],[18.81,29.99],[18.82,30.05],[19.5,30.12],[19.65,30.24],[20.95,30.56],[21.94,30.56],[22.77,30.37],[23.51,29.99],[23.96,29.92],[24.33,29.67],[24.78,29.54],[25.15,29.28],[25.37,29.28],[25.59,28.96],[27.14,28.25],[28.15,27.35],[28.27,26.58],[28.35,26.58],[28.24,25.94],[28.29,25.16],[28.57,24.65],[29.67,24.2],[30.1,23.75],[30.4,23.56],[30.54,23.36],[31.67,23.75],[32.04,23.69],[33.39,23.81],[33.68,23.69],[35.11,23.88],[35.55,23.81],[35.56,23.94],[35.85,23.88],[35.86,24.01],[35.15,24.65],[34.61,25.81],[34.46,25.87],[34.2,26.52],[34.05,26.58],[34.07,26.97],[33.93,27.03],[33.8,27.42],[33.59,27.61],[33.61,27.99],[33.11,28.38],[32.84,28.89],[32.69,28.96],[32.44,29.79],[32.59,29.73],[32.86,29.22],[33.15,29.02],[33.19,28.51],[33.4,28.32],[33.55,28.32],[33.62,28.12],[34.12,27.74],[34.35,27.74],[34.36,27.93],[34.52,28.06],[34.75,29.28],[34.91,29.41],[34.85,28.57],[34.61,28.25],[34.59,28.06],[35.2,28.06],[35.48,28.89],[35.81,29.22],[35.77,29.73],[35.85,29.73],[36.16,30.76],[36.4,30.95],[36.39,31.66],[36.75,32.3],[36.72,32.75],[36.9,33.07],[37.07,33.26],[37.99,33.97],[39.12,34.49],[39.51,34.49],[40.1,34.29],[40.62,34.74],[40.77,34.74],[41.11,35],[41.09,36.03],[41.67,36.35],[41.21,37],[41.26,37.38],[42.76,37.51],[42.66,36.74],[42.97,36.74],[43.15,36.93],[43.61,36.87],[43.71,37.06],[44.29,37.25],[44.74,37.19],[44.77,37.38],[44.64,37.51],[43.94,37.58],[43.89,37.71],[43.26,37.71],[42.51,37.9],[42.03,37.84],[41.97,37.96],[41.67,38.03],[40.57,38.03],[40.47,38.42],[40.66,39.19],[40.51,39.26],[40.48,39.58],[39.85,39.58],[39.75,39.45],[39.21,39.51],[38.95,39.38],[38.74,39.58],[38.93,39.77],[38.79,39.9],[40.4,40.1],[40.95,40.61],[41.45,40.74],[41.53,41.26],[41.61,41.26],[41.7,41.33],[42.01,41.72],[42,42.56],[41.78,42.69],[41.67,42.95],[41.21,43.08],[41,43.28],[40.6,43.28],[40.16,43.54]]],[[[1.18,39.06],[1.27,38.8],[1.43,38.8],[1.66,39],[1.65,39.13],[1.26,39.13],[1.18,39.06]]],[[[2.82,39.32],[3.3,39.32],[3.52,39.77],[3.2,39.84],[3.19,39.97],[2.88,39.97],[2.34,39.64],[2.35,39.45],[2.66,39.51],[2.82,39.32]]],[[[4.65,52.05],[3.98,51.92],[3.4,51.65],[3.41,51.45],[2.74,51.31],[2.58,51.18],[1.66,51.05],[1.42,50.71],[1.45,50.25],[1.05,49.98],[0.22,49.85],[-0.01,49.65],[0.01,49.38],[-1.25,49.45],[-1.36,49.78],[-2.03,49.78],[-1.91,49.38],[-1.65,49.25],[-1.72,49.05],[-1.6,48.65],[-2.52,48.72],[-2.76,48.59],[-3.12,48.92],[-3.46,48.92],[-3.85,48.72],[-4.6,48.72],[-4.91,48.52],[-4.89,48.32],[-4.64,48.32],[-4.69,47.99],[-4.42,47.8],[-3.93,47.86],[-3.76,47.73],[-3.34,47.73],[-3.16,47.47],[-2.58,47.47],[-2.56,47.27],[-2.23,47.27],[-2.14,47.14],[-2.19,46.81],[-1.67,46.35],[-1.25,46.28],[-1.21,45.76],[-1.05,45.69],[-1.03,45.5],[-1.19,45.43],[-1.25,45.17],[-1.21,44.52],[-1.35,44.25],[-1.32,43.86],[-1.46,43.54],[-1.69,43.34],[-3.3,43.34],[-3.47,43.47],[-4.99,43.41],[-5.65,43.54],[-7.18,43.54],[-7.28,43.73],[-8.24,43.73],[-8.39,43.6],[-8.37,43.41],[-8.85,43.41],[-9.3,43.15],[-9.08,42.56],[-8.66,42.37],[-8.96,42.17],[-8.73,40.74],[-8.87,40.61],[-9.03,39.77],[-9.16,39.51],[-9.39,39.45],[-9.43,39.06],[-9.57,38.93],[-9.55,38.74],[-9.21,38.42],[-8.82,38.48],[-8.82,37.58],[-8.9,37.58],[-9,37],[-8.7,37.13],[-8.31,37.13],[-8.07,37],[-7.68,37],[-7.45,37.13],[-7.47,37.25],[-6.84,37.25],[-6.59,37],[-6.35,36.93],[-6.33,36.67],[-6.06,36.22],[-5.83,36.22],[-5.66,36.03],[-5.29,36.22],[-5.23,36.48],[-4.69,36.55],[-4.47,36.74],[-2.68,36.74],[-2.53,36.87],[-2.06,36.8],[-1.86,37.32],[-1.71,37.45],[-0.7,37.64],[-0.8,38.03],[-0.66,38.29],[0.1,38.74],[-0.31,39.13],[-0.35,39.71],[-0.2,39.97],[0.18,40.16],[0.25,40.42],[0.47,40.61],[0.71,40.68],[0.7,40.94],[1.24,41.2],[2.11,41.33],[2.33,41.59],[2.89,41.72],[3.12,41.91],[3.18,42.37],[3.01,42.56],[2.98,43.15],[3.85,43.6],[4.17,43.6],[4.18,43.47],[5.06,43.47],[5.39,43.41],[5.8,43.15],[6.28,43.15],[6.6,43.28],[6.67,43.47],[7.23,43.73],[8.03,43.93],[8.19,44.19],[8.59,44.45],[9.16,44.45],[9.73,44.12],[10.13,44.06],[10.37,43.67],[10.54,43.08],[11.02,42.82],[11.26,42.43],[11.65,42.37],[11.81,42.11],[12.13,42.04],[12.13,41.91],[13,41.33],[13.71,41.26],[13.95,41.13],[14.1,40.87],[14.42,40.87],[14.42,40.68],[14.89,40.68],[15.04,40.23],[15.2,40.23],[15.43,40.03],[15.9,39.77],[16.12,39.06],[16.27,38.93],[16.27,38.74],[15.95,38.67],[15.86,38.29],[14.06,37.96],[13.67,37.96],[13.35,38.16],[13.12,38.16],[13.04,38.03],[12.65,38.09],[12.49,37.9],[12.49,37.71],[13.19,37.58],[13.58,37.25],[14.28,37.13],[14.66,36.74],[15.05,36.74],[15.21,37.19],[15.06,37.25],[15.07,37.64],[15.39,38.16],[15.62,38.16],[15.7,37.96],[15.93,37.96],[16.49,38.42],[16.5,38.8],[17.14,39.06],[17.07,39.38],[16.92,39.51],[16.45,39.64],[16.46,39.97],[16.7,40.1],[17.03,40.55],[17.35,40.55],[17.42,40.36],[17.81,40.36],[18.11,39.9],[18.35,39.9],[18.44,40.16],[17.98,40.61],[17.51,40.74],[17.2,41],[15.94,41.39],[15.87,41.72],[16.11,41.78],[16.12,41.91],[15.24,41.91],[15.17,42.04],[14.92,41.98],[14.37,42.24],[14.06,42.5],[13.9,42.76],[13.99,42.95],[13.75,43.08],[13.67,43.41],[13.36,43.67],[12.87,43.8],[12.31,44.19],[12.15,44.45],[12.16,44.84],[12.4,44.78],[12.4,45.04],[12.16,45.17],[12.16,45.5],[12.65,45.56],[12.82,45.69],[13.06,45.63],[13.23,45.82],[13.71,45.76],[13.71,45.5],[13.54,45.3],[13.95,45.04],[14.19,45.04],[14.2,45.37],[14.6,45.37],[14.52,45.1],[14.92,44.97],[14.91,44.58],[15.15,44.39],[15.22,44.06],[15.86,43.8],[16.01,43.6],[15.93,43.47],[16.58,43.6],[16.73,43.54],[16.73,43.34],[17.05,43.41],[17.12,43.15],[17.37,43.21],[17.36,42.95],[17.99,42.82],[18.14,42.63],[18.85,42.37],[19.54,41.78],[19.45,41.52],[19.5,40.87],[19.25,40.74],[19.49,40.61],[19.47,40.29],[19.63,40.29],[20.01,39.97],[20,39.77],[20.15,39.71],[20.3,39.38],[20.91,39.06],[20.74,38.8],[20.97,38.74],[21.19,38.42],[21.74,38.35],[21.73,38.16],[21.42,38.16],[21.24,37.84],[21.7,37.51],[21.68,37.19],[21.91,37.06],[22.22,37.06],[22.36,36.67],[22.51,36.67],[22.6,36.87],[22.83,36.87],[22.85,37.25],[22.7,37.32],[22.71,37.58],[22.95,37.58],[23.4,37.32],[23.34,37.64],[23.11,37.64],[23.04,37.9],[23.21,38.03],[23.44,38.03],[23.98,37.84],[24,38.22],[24.16,38.22],[24.18,38.55],[24.03,38.67],[23.56,38.74],[23.63,38.48],[23.31,38.48],[23.17,38.67],[22.94,38.74],[23.03,38.93],[23.33,38.8],[23.49,38.87],[22.96,39.13],[22.82,39.38],[23.14,39.45],[22.61,39.9],[22.54,40.1],[22.57,40.55],[22.89,40.61],[22.96,40.42],[23.74,40.23],[23.84,40.55],[23.68,40.61],[23.7,40.81],[24.01,40.74],[24.35,41],[25.85,40.94],[26.08,40.87],[26.14,40.61],[26.55,40.74],[27.02,40.68],[27.53,41.07],[29.04,41.07],[28.98,41.26],[28.51,41.33],[28.28,41.46],[28.22,41.65],[27.98,41.65],[28,41.91],[27.78,42.11],[27.8,42.24],[27.49,42.43],[27.51,42.63],[27.85,42.76],[27.8,43.15],[27.9,43.28],[28.23,43.34],[28.48,43.47],[28.62,43.99],[28.58,44.39],[28.84,44.58],[28.8,44.97],[29.05,44.97],[29.02,44.78],[29.53,44.91],[29.66,45.37],[29.58,45.43],[29.1,45.43],[28.67,45.24],[28.35,45.3],[28.28,45.43],[27.87,45.37],[27.85,45.17],[28,45.04],[27.97,44.78],[27.8,44.71],[27.94,44.52],[27.83,44.19],[27.49,44.06],[26.28,44.06],[25.85,43.73],[25.43,43.6],[24.88,43.73],[24.15,43.67],[23.6,43.86],[22.95,43.8],[22.89,44.12],[22.5,44.32],[22.52,44.52],[21.95,44.52],[21.88,44.65],[21.41,44.84],[20.75,44.71],[20.52,44.91],[20.53,45.1],[20.06,45.37],[19.24,45.3],[19,45.5],[18.85,45.76],[19.05,46.41],[18.9,46.61],[18.83,47.01],[19.17,47.2],[19.27,47.47],[18.95,47.66],[18.96,47.8],[17.63,47.8],[16.9,48.13],[16.83,48.26],[16.33,48.32],[16.08,48.19],[15.5,48.19],[14.92,48.39],[14.67,48.26],[14.26,48.26],[13.52,48.59],[12.77,48.79],[12.61,48.99],[12.11,49.18],[11.86,49.18],[11.19,48.79],[9.12,48.19],[8.96,48.06],[8.88,47.8],[8.55,47.73],[8.47,47.6],[7.56,47.6],[7.71,48.52],[8.12,48.85],[8.11,49.05],[8.28,49.18],[8.35,49.65],[8.18,49.85],[7.68,49.91],[7.75,50.31],[7.67,50.45],[7.41,50.51],[6.89,51.38],[6.54,51.65],[6.37,51.65],[5.93,51.98],[4.65,52.05]]],[[[3.82,40.1],[3.83,39.9],[4.3,39.84],[4.22,40.1],[3.82,40.1]]],[[[9.75,39.64],[9.67,40.29],[9.82,40.36],[9.82,40.74],[9.5,41.2],[9.02,41.26],[8.55,40.87],[8.15,40.94],[8.16,40.55],[8.32,40.48],[8.4,40.29],[8.32,39.97],[8.48,39.9],[8.33,39.51],[8.34,39],[8.73,38.87],[8.97,38.87],[9.12,39.19],[9.59,39.13],[9.67,39.64],[9.75,39.64]]],[[[9.58,41.98],[9.57,42.76],[9.49,43.02],[9.25,43.02],[9.17,42.76],[8.77,42.69],[8.53,42.5],[8.54,42.11],[8.78,41.72],[8.78,41.52],[9.1,41.33],[9.26,41.39],[9.58,41.98]]],[[[10.21,42.89],[10.21,42.69],[10.46,42.69],[10.46,42.89],[10.21,42.89]]],[[[0.17,52.86],[0.07,52.99],[0.32,53.12],[0.3,53.39],[0.12,53.46],[-0.18,53.94],[-0.2,54.21],[-0.38,54.27],[-0.67,54.61],[-1.29,54.68],[-1.61,55.36],[-2.38,55.16],[-2.82,55.23],[-2.89,55.09],[-3.57,54.89],[-3.72,54.68],[-3.59,54.27],[-3.32,54.21],[-3.1,53.73],[-3.15,53.46],[-4.08,53.26],[-4.27,53.46],[-4.7,53.46],[-4.67,53.19],[-4.49,53.12],[-4.81,52.92],[-4.79,52.79],[-4.3,52.92],[-4.16,52.45],[-4.55,52.18],[-5.22,52.05],[-5.26,51.71],[-5.08,51.58],[-4.42,51.71],[-4.31,51.51],[-3.89,51.58],[-3.7,51.38],[-3.28,51.38],[-3.09,51.25],[-4.2,51.31],[-4.43,51.05],[-4.68,51.05],[-4.66,50.85],[-4.88,50.58],[-5.13,50.58],[-5.28,50.38],[-5.77,50.25],[-5.75,50.05],[-5.15,49.98],[-4.93,50.25],[-4.35,50.38],[-4.09,50.25],[-3.58,50.25],[-3.46,50.65],[-2.79,50.71],[-2.61,50.58],[-1.52,50.71],[-1.18,50.58],[-1.11,50.78],[0.49,50.78],[1.31,51.11],[1.38,51.38],[0.86,51.51],[0.84,51.78],[1.18,51.78],[1.17,51.98],[1.43,51.98],[1.74,52.38],[1.72,52.72],[1.53,52.92],[1.09,53.06],[0.49,53.06],[0.17,52.86]]],[[[22.96,36.42],[22.87,36.16],[23.11,36.16],[23.12,36.35],[22.96,36.42]]],[[[20.7,37.9],[20.61,37.71],[20.92,37.64],[20.93,37.9],[20.7,37.9]]],[[[20.49,38.42],[20.33,38.35],[20.32,38.16],[20.79,38.09],[20.8,38.29],[20.49,38.42]]],[[[24.44,39],[24.36,38.87],[24.66,38.74],[24.67,38.93],[24.44,39]]],[[[14.35,44.97],[14.26,44.58],[14.5,44.52],[14.51,44.91],[14.35,44.97]]],[[[34.09,35],[33.96,35.26],[34.53,35.58],[34.31,35.71],[33.74,35.39],[32.89,35.39],[32.88,35.26],[32.55,35.13],[32.25,35.13],[32.23,34.94],[32.37,34.74],[33.04,34.55],[33.13,34.68],[33.52,34.74],[33.7,34.94],[34.09,35]]],[[[24.3,35.32],[24.16,35.52],[23.62,35.52],[23.68,35.26],[24.45,35.19],[24.76,35.19],[24.82,35],[26.14,35.07],[25.68,35.13],[25.69,35.32],[24.3,35.32]]],[[[28.02,36.48],[27.69,36.29],[27.74,35.9],[28.14,36.03],[28.25,36.48],[28.02,36.48]]],[[[25.06,37.71],[25.05,37.51],[25.29,37.51],[25.22,37.71],[25.06,37.71]]],[[[24.77,38.03],[24.68,37.84],[24.83,37.71],[25.07,37.77],[24.77,38.03]]],[[[25.82,38.48],[25.88,38.16],[26.11,38.16],[26.22,38.55],[25.91,38.67],[25.82,38.48]]],[[[26.09,39],[26.25,38.93],[26.64,39],[26.51,39.32],[26.04,39.38],[25.79,39.19],[26.1,39.13],[26.09,39]]],[[[25.15,40.03],[24.97,39.84],[25.45,39.84],[25.46,40.03],[25.15,40.03]]],[[[24.57,40.81],[24.55,40.55],[24.79,40.61],[24.81,40.81],[24.57,40.81]]]]},"properties":{"NAME":"Roman Empire","C":3,"name":"Roman Empire","start_year":299,"end_year":305,"capital":"","type":"polity","region":"","event":"","source":"Cliopatria / Seshat Global History Databank (CC BY 4.0)","wikipedia":"Roman Empire","wikidata":"Q12544","_a":1739,"_c":[17.6,39.36],"_nz":"罗马帝国","_sz":""}},
{"type":"Feature","geometry":{"type":"Polygon","coordinates":[[[79.83,11.36],[78.96,10.84],[77.88,10.94],[77.59,11.14],[77.02,11.17],[76.68,10.94],[76.9,10.77],[76.85,10.48],[77.4,10.21],[78.92,10.16],[79.39,10.32],[79.85,10.27],[79.87,11.2],[79.83,11.36]]]},"properties":{"NAME":"Early Cholas","C":1,"name":"Early Cholas","start_year":299,"end_year":305,"capital":"","type":"polity","region":"","event":"","source":"Cliopatria / Seshat Global History Databank (CC BY 4.0)","wikipedia":"Early Cholas","wikidata":"Q3532146","_a":4,"_c":[78.28,10.76],"_nz":"早期朱罗","_sz":""}}
]}