{"type":"FeatureCollection", "features": [
{"type":"Feature","geometry":{"type":"Polygon","coordinates":[[[127.55,34.61],[127.76,34.74],[128.07,34.74],[128.33,34.81],[128.68,34.74],[128.88,35],[129.15,35.07],[129.35,35.32],[129.07,35.39],[129.01,35.58],[128.62,35.58],[128.61,35.71],[128.22,35.71],[128.21,35.84],[127.93,35.9],[127.63,35.45],[127.45,35.07],[127.57,35],[127.45,34.74],[127.55,34.61]]]},"properties":{"NAME":"Byeonhan","C":0,"name":"Byeonhan","start_year":-91,"end_year":533,"capital":"无固定都城（弁韩诸部）","type":"polity","region":"korea","event":"","source":"Cliopatria / Seshat Global History Databank (CC BY 4.0)","wikipedia":"Byeonhan confederacy","wikidata":"Q1378584","_a":2,"_c":[128.4,35.25],"_nz":"弁韩","_sz":""}},
{"type":"Feature","geometry":{"type":"Polygon","coordinates":[[[81.26,8.64],[80.99,8.96],[81,9.09],[80.73,9.48],[80.44,9.54],[80.45,9.74],[79.88,9.86],[79.86,9.67],[80.08,9.61],[79.99,9.41],[80.05,9.16],[79.81,8.77],[79.76,8.06],[79.61,7.87],[79.74,7.68],[79.76,6.65],[79.95,6.14],[80.23,5.88],[80.67,5.88],[81.34,6.14],[81.88,6.71],[81.92,7.42],[81.77,7.49],[81.65,7.94],[81.45,8.13],[81.4,8.51],[81.26,8.64]]]},"properties":{"NAME":"Anurādhapura","C":2,"name":"Anurādhapura","start_year":78,"end_year":438,"capital":"","type":"polity","region":"","event":"","source":"Cliopatria / Seshat Global History Databank (CC BY 4.0)","wikipedia":"Anurādhapura","wikidata":"Q5724","_a":9,"_c":[80.77,7.87],"_nz":"阿努拉德普勒","_sz":""}},
{"type":"Feature","geometry":{"type":"Polygon","coordinates":[[[96.83,22.14],[96.86,22.79],[96.78,22.79],[96.87,23.3],[96.59,23.88],[96.17,24.01],[95.29,23.69],[94.66,22.08],[94.72,21.95],[94.55,21.82],[94.41,20.86],[94.65,20.47],[94.61,20.21],[94.84,19.7],[94.73,19.44],[94.89,19.06],[94.85,18.8],[95.09,18.35],[95.68,18.35],[96.19,18.86],[96.42,19.38],[96.4,19.76],[96.58,19.96],[96.48,20.28],[96.71,20.34],[96.62,20.73],[96.79,20.86],[96.95,21.95],[96.83,22.14]]]},"properties":{"NAME":"Pyu City-States","C":4,"name":"Pyu City-States","start_year":84,"end_year":849,"capital":"","type":"polity","region":"","event":"","source":"Cliopatria / Seshat Global History Databank (CC BY 4.0)","wikipedia":"Pyu city-states","wikidata":"Q1627675","_a":14,"_c":[95.68,21.18],"_nz":"骠国城邦","_sz":""}},
{"type":"Feature","geometry":{"type":"Polygon","coordinates":[[[-98.87,19.19],[-98.51,18.86],[-98.29,18.86],[-98.2,19.19],[-98.05,19.19],[-98.02,19.38],[-98.42,19.57],[-98.44,19.7],[-98.88,19.64],[-98.99,19.44],[-98.87,19.19]]]},"properties":{"NAME":"Teotihuacan","C":3,"name":"Teotihuacan","start_year":106,"end_year":655,"capital":"","type":"polity","region":"","event":"","source":"Cliopatria / Seshat Global History Databank (CC BY 4.0)","wikipedia":"Teotihuacan","wikidata":"Q172613","_a":1,"_c":[-98.5,19.28],"_nz":"特奥蒂瓦坎","_sz":""}},
{"type":"Feature","geometry":{"type":"Polygon","coordinates":[[[108.24,13.34],[108.35,13.08],[108.25,12.18],[108.1,12.12],[108.14,11.79],[108.5,11.73],[108.62,11.54],[109.05,11.47],[109.21,11.6],[109.23,12.37],[109.32,12.56],[109.47,12.56],[109.51,12.95],[109.33,13.27],[109.35,14.04],[109.18,14.36],[109.16,14.75],[108.97,15.01],[109.02,15.33],[108.68,15.52],[108.7,15.65],[108.37,15.91],[108.33,16.16],[108.14,16.36],[107.84,16.36],[107.67,16.68],[107.48,16.87],[107.33,16.87],[107.29,17.06],[106.95,17.26],[106.53,16.94],[106.52,16.87],[106.75,16.42],[106.97,16.42],[107.02,16.23],[107.5,16.04],[107.25,15.84],[107.22,15.65],[107.63,15.39],[107.67,15.14],[108.02,15.01],[107.99,14.81],[108.11,14.62],[108.05,14.17],[108.28,13.66],[108.24,13.34]]]},"properties":{"NAME":"Chámpa","C":6,"name":"Chámpa","start_year":207,"end_year":545,"capital":"","type":"polity","region":"","event":"","source":"Cliopatria / Seshat Global History Databank (CC BY 4.0)","wikipedia":"Champa","wikidata":"Q216786","_a":17,"_c":[108.02,14.37],"_nz":"占婆","_sz":""}},
{"type":"Feature","geometry":{"type":"Polygon","coordinates":[[[-95.59,17.32],[-95.99,17.51],[-96.28,17.51],[-96.61,17.71],[-96.91,17.71],[-97.54,17.96],[-98.06,17.96],[-98.25,17.77],[-98.23,17.64],[-98.02,17.32],[-98.03,16.94],[-97.9,17],[-97.77,16.68],[-98.04,16.55],[-98.05,16.1],[-97.72,15.91],[-97.05,15.84],[-96.73,15.65],[-96.21,15.65],[-94.95,16.1],[-94.85,16.36],[-94.63,16.42],[-94.38,16.68],[-94.6,17.13],[-95.07,17.32],[-95.59,17.32]]]},"properties":{"NAME":"Zapotec Civilization","C":5,"name":"Zapotec Civilization","start_year":207,"end_year":509,"capital":"","type":"polity","region":"","event":"","source":"Cliopatria / Seshat Global History Databank (CC BY 4.0)","wikipedia":"Zapotec civilization","wikidata":"Q844750","_a":9,"_c":[-96.31,16.81],"_nz":"萨波特克文明","_sz":""}},
{"type":"Feature","geometry":{"type":"Polygon","coordinates":[[[108.1,12.12],[108.25,12.18],[108.35,13.08],[108.24,13.34],[106.3,13.08],[106.24,13.21],[105.88,13.21],[105.54,13.47],[103.21,13.59],[101.87,14.04],[101.68,13.08],[101.81,12.95],[101.78,12.63],[102.11,12.31],[102.26,12.31],[102.22,11.99],[102.44,11.99],[102.6,12.12],[102.87,11.86],[102.84,11.6],[103.05,11.47],[103.06,10.83],[103.36,10.83],[103.6,11.09],[103.64,10.77],[103.49,10.7],[103.53,10.48],[104.01,9.87],[104.16,10.56],[104.53,10.09],[105.03,9.99],[104.79,9.74],[104.7,8.64],[104.77,8.51],[105.14,8.58],[105.62,9.16],[106.14,9.29],[106.23,9.48],[106.6,9.54],[106.55,9.8],[106.64,9.99],[106.8,10.06],[106.82,10.32],[106.98,10.51],[107.34,10.38],[108.03,10.7],[108.12,10.89],[108.57,11.02],[109.05,11.41],[108.62,11.54],[108.5,11.73],[108.14,11.79],[108.1,12.12]]]},"properties":{"NAME":"Funan","C":0,"name":"Funan","start_year":238,"end_year":545,"capital":"","type":"polity","region":"","event":"","source":"Cliopatria / Seshat Global History Databank (CC BY 4.0)","wikipedia":"Funan","wikidata":"Q867782","_a":41,"_c":[105.37,11.27],"_nz":"扶南","_sz":""}},
{"type":"Feature","geometry":{"type":"Polygon","coordinates":[[[126.78,33.26],[127,33.59],[126.36,33.52],[126.14,33.2],[126.78,33.26]]]},"properties":{"NAME":"Tamna","C":11,"name":"Tamna","start_year":263,"end_year":681,"capital":"无固定城邑","type":"polity","region":"korea","event":"","source":"Cliopatria / Seshat Global History Databank (CC BY 4.0)","wikipedia":"Tamna","wikidata":"Q28057","_a":0,"_c":[126.57,33.4],"_nz":"耽罗","_sz":""}},
{"type":"Feature","geometry":{"type":"Polygon","coordinates":[[[41.84,29.02],[42.13,28.96],[42.2,28.83],[42.42,28.83],[42.71,28.64],[43.23,28.51],[43.44,28.38],[43.74,28.32],[43.8,28.19],[44.03,28.25],[45.43,27.93],[45.8,27.8],[46.7,27.74],[47.69,27.87],[48.17,28.19],[48.25,28.19],[48.21,28.57],[47.53,29.28],[47.65,29.67],[46.7,29.92],[46.66,30.24],[46.45,30.37],[45.77,30.44],[45.08,31.08],[45.1,31.21],[44.81,31.34],[44.86,31.72],[44.73,31.98],[43.9,32.04],[43.92,32.17],[43.7,32.24],[43.35,32.56],[43.15,32.81],[42.71,32.94],[42.58,33.14],[42.21,33.26],[41.89,33.14],[41.64,32.94],[41.62,32.81],[41.37,32.62],[41.16,32.11],[40.74,31.72],[40.41,31.53],[40.06,31.08],[39.93,30.5],[39.98,30.24],[40.12,30.05],[41.06,29.6],[41.11,29.34],[41.27,29.41],[41.77,29.15],[41.84,29.02]]]},"properties":{"NAME":"Lakhmid Kingdom","C":9,"name":"Lakhmid Kingdom","start_year":270,"end_year":401,"capital":"","type":"polity","region":"","event":"","source":"Cliopatria / Seshat Global History Databank (CC BY 4.0)","wikipedia":"Lakhmid kingdom","wikidata":"Q943191","_a":46,"_c":[44.09,30.5],"_nz":"莱赫米王国","_sz":""}},
{"type":"Feature","geometry":{"type":"Polygon","coordinates":[[[8.38,53.33],[8.98,53.26],[9.5,53.66],[9.41,54.07],[8.97,54.55],[8.54,54.41],[8.8,54.21],[8.89,53.87],[8.37,53.87],[8.38,53.33]]]},"properties":{"NAME":"Saxons","C":6,"name":"Saxons","start_year":283,"end_year":454,"capital":"","type":"polity","region":"","event":"","source":"Cliopatria / Seshat Global History Databank (CC BY 4.0)","wikipedia":"Saxons","wikidata":"Q101985","_a":1,"_c":[8.93,53.91],"_nz":"萨克森人","_sz":""}},
{"type":"Feature","geometry":{"type":"MultiPolygon","coordinates":[[[[10.71,55.02],[10.8,55.43],[10.63,55.63],[9.75,55.57],[9.93,55.84],[10.28,55.98],[10.37,56.32],[9.66,56.25],[9.22,55.91],[9.23,55.57],[9.93,55.09],[10.71,55.02]]],[[[18.23,57.83],[18.03,57.56],[18.08,56.94],[18.34,56.94],[18.45,57.21],[18.91,57.42],[18.84,57.7],[19.05,57.97],[18.6,57.97],[18.23,57.83]]],[[[10.92,60.07],[11.66,60.28],[11.66,60.63],[10.93,60.91],[10.56,60.63],[10.47,60.35],[10.93,60.21],[10.92,60.07]]]]},"properties":{"NAME":"Norse","C":3,"name":"Norse","start_year":299,"end_year":401,"capital":"","type":"polity","region":"","event":"","source":"Cliopatria / Seshat Global History Databank (CC BY 4.0)","wikipedia":"Norse","wikidata":"Q909583","_a":58,"_c":[14.09,57.97],"_nz":"诺斯人","_sz":""}},
{"type":"Feature","geometry":{"type":"Polygon","coordinates":[[[-86.72,20.92],[-86.75,21.5],[-86.92,21.63],[-87.22,21.63],[-87.34,21.5],[-88.48,21.63],[-89.18,21.37],[-89.98,21.31],[-90.17,21.11],[-90.32,21.11],[-90.42,20.41],[-90.43,20.02],[-90.74,19.7],[-90.81,19.25],[-91.35,18.93],[-91.3,18.61],[-91.5,18.48],[-91.79,18.48],[-91.84,18.74],[-92.5,18.74],[-92.62,18.54],[-93.49,18.48],[-93.84,18.35],[-93.57,18.03],[-93.57,17.58],[-93.37,17.26],[-93.49,17.13],[-93.4,17],[-93.64,16.68],[-93.59,16.36],[-93.82,15.91],[-92.75,15.14],[-92.47,14.69],[-91.35,13.91],[-90.47,13.91],[-89.92,13.59],[-89.87,13.79],[-89.57,13.72],[-89.59,13.91],[-89.19,14.24],[-88.82,14.24],[-88.69,14.43],[-88.63,15.07],[-88.38,15.39],[-88.51,15.84],[-88.82,15.97],[-88.64,16.23],[-88.49,16.23],[-88.24,16.49],[-88.14,16.81],[-88.19,17.64],[-87.91,18.22],[-87.7,18.29],[-87.73,18.48],[-87.45,19.06],[-87.49,19.31],[-87.39,19.57],[-87.55,19.64],[-87.29,19.89],[-87.35,20.21],[-86.71,20.86],[-86.72,20.92]]]},"properties":{"NAME":"Mayan City-States","C":2,"name":"Mayan City-States","start_year":299,"end_year":554,"capital":"","type":"polity","region":"","event":"","source":"Cliopatria / Seshat Global History Databank (CC BY 4.0)","wikipedia":"Maya civilization","wikidata":"Q28567","_a":57,"_c":[-90.27,17.61],"_nz":"玛雅城邦","_sz":""}},
{"type":"Feature","geometry":{"type":"Polygon","coordinates":[[[31.1,18.29],[31.21,17.32],[31.48,16.61],[31.39,16.36],[31.54,16.23],[31.53,15.97],[31.8,15.52],[32.53,15.33],[32.53,15.2],[33.86,15.46],[34.1,15.84],[34.68,15.78],[34.56,16.23],[34.71,16.49],[35.67,16.49],[36.05,16.81],[36,17.32],[35.5,17.64],[35.37,17.96],[35.29,17.96],[34.63,17.9],[34.48,18.03],[34.12,18.03],[33.24,18.29],[31.54,18.16],[31.1,18.29]]]},"properties":{"NAME":"Alodia","C":4,"name":"Alodia","start_year":347,"end_year":601,"capital":"","type":"polity","region":"","event":"","source":"Cliopatria / Seshat Global History Databank (CC BY 4.0)","wikipedia":"Alodia","wikidata":"Q449639","_a":15,"_c":[33.57,16.74],"_nz":"阿洛迪亚","_sz":""}},
{"type":"Feature","geometry":{"type":"Polygon","coordinates":[[[34.26,19.64],[33,19.7],[32.48,19.51],[32.03,19.51],[31.52,19.64],[31.38,19.83],[30.87,20.02],[30.86,19.96],[31.1,18.29],[31.54,18.16],[33.24,18.29],[34.12,18.03],[34.48,18.03],[34.63,17.9],[35.29,17.96],[35.16,18.22],[34.94,18.29],[34.88,18.61],[34.6,18.93],[34.33,19.64],[34.26,19.64]]]},"properties":{"NAME":"Makuria","C":8,"name":"Makuria","start_year":347,"end_year":568,"capital":"","type":"polity","region":"","event":"","source":"Cliopatria / Seshat Global History Databank (CC BY 4.0)","wikipedia":"Makuria","wikidata":"Q829356","_a":9,"_c":[33.08,18.96],"_nz":"马库里亚","_sz":""}},
{"type":"Feature","geometry":{"type":"Polygon","coordinates":[[[34.26,19.64],[34.26,19.7],[33.82,21.63],[33.88,23.17],[33.82,23.49],[33.68,23.69],[33.39,23.81],[32.04,23.69],[31.67,23.75],[30.54,23.36],[30.74,22.85],[30.72,22.27],[30.56,21.95],[30.7,21.69],[30.87,20.02],[31.38,19.83],[31.52,19.64],[32.03,19.51],[32.48,19.51],[33,19.7],[34.26,19.64]]]},"properties":{"NAME":"Nobatia","C":8,"name":"Nobatia","start_year":347,"end_year":646,"capital":"","type":"polity","region":"","event":"","source":"Cliopatria / Seshat Global History Databank (CC BY 4.0)","wikipedia":"Nobatia","wikidata":"Q568523","_a":16,"_c":[32.39,21.66],"_nz":"诺巴提亚","_sz":""}},
{"type":"Feature","geometry":{"type":"Polygon","coordinates":[[[75.82,18.72],[74.5,18.8],[74.04,18.41],[73.67,17.9],[73.78,17.13],[74.68,14.86],[74.74,14.32],[75.51,13.17],[76.01,12.88],[76.94,12.76],[77.51,13.03],[77.76,13.35],[77.41,14.77],[77.5,17.03],[77.06,17.85],[75.82,18.72]]]},"properties":{"NAME":"Kadamba Empire","C":11,"name":"Kadamba Empire","start_year":353,"end_year":450,"capital":"","type":"polity","region":"","event":"","source":"Cliopatria / Seshat Global History Databank (CC BY 4.0)","wikipedia":"Kadamba Empire","wikidata":"Q1479952","_a":25,"_c":[75.72,15.78],"_nz":"卡丹巴帝国","_sz":""}},
{"type":"Feature","geometry":{"type":"Polygon","coordinates":[[[78.64,15.12],[77.63,15.23],[78.3,14.31],[79.52,13.51],[79.29,14.49],[79.44,15.83],[79.02,15.94],[78.79,15.72],[78.64,15.12]]]},"properties":{"NAME":"Late Pallava Empire","C":3,"name":"Late Pallava Empire","start_year":353,"end_year":450,"capital":"","type":"polity","region":"","event":"","source":"Cliopatria / Seshat Global History Databank (CC BY 4.0)","wikipedia":"Pallava dynasty","wikidata":"Q466803","_a":5,"_c":[78.57,14.73],"_nz":"后期帕拉瓦帝国","_sz":""}},
{"type":"Feature","geometry":{"type":"Polygon","coordinates":[[[79.5,12.85],[78.91,12.84],[77.85,12.15],[77.25,12.28],[77.07,12.21],[77.06,11.55],[76.95,11.34],[76.05,10.51],[76.53,9.53],[76.36,9.37],[76.6,8.87],[77.34,8.11],[77.54,8.08],[78.09,8.38],[78.21,8.95],[78.46,9.12],[79.02,9.32],[78.9,9.48],[79.25,10],[79.23,10.18],[79.39,10.32],[79.84,10.27],[79.76,11.67],[80.15,12.46],[79.73,12.81],[79.5,12.85]]]},"properties":{"NAME":"Kalabhra Dynasty","C":4,"name":"Kalabhra Dynasty","start_year":353,"end_year":591,"capital":"","type":"polity","region":"","event":"","source":"Cliopatria / Seshat Global History Databank (CC BY 4.0)","wikipedia":"Kalabhra dynasty","wikidata":"Q2572901","_a":20,"_c":[78.1,10.47],"_nz":"卡拉布拉王朝","_sz":""}},
{"type":"Feature","geometry":{"type":"Polygon","coordinates":[[[40.82,14.81],[40.68,15.01],[40.31,14.94],[39.97,15.52],[39.82,15.52],[39.73,15.2],[39.61,15.59],[39.15,15.33],[38.93,15.39],[38.78,15.14],[38.63,15.07],[38.17,14.69],[38,14.17],[38.26,13.4],[38.4,13.08],[38.97,12.82],[41.32,12.82],[41.47,12.95],[41.91,13.01],[41.92,13.14],[42.22,13.27],[42.44,13.27],[42.38,13.59],[41.66,14.04],[41.39,14.56],[40.82,14.81]]]},"properties":{"NAME":"Kingdom of Axum","C":3,"name":"Kingdom of Axum","start_year":353,"end_year":533,"capital":"","type":"polity","region":"","event":"","source":"Cliopatria / Seshat Global History Databank (CC BY 4.0)","wikipedia":"Kingdom of Aksum","wikidata":"Q139377","_a":12,"_c":[40.22,14.21],"_nz":"阿克苏姆王国","_sz":""}},
{"type":"Feature","geometry":{"type":"Polygon","coordinates":[[[92.42,25.16],[92.98,25.15],[94.04,25.5],[94.96,26.37],[94.91,26.77],[94.64,27.05],[94.62,27.59],[94.49,27.98],[94.12,28.21],[93.59,28.2],[92.21,27.67],[90.8,27.9],[90.2,27.86],[90.32,26.93],[90.08,26.75],[90.04,26.59],[90.15,26.13],[89.91,25.64],[90.3,25.28],[92.42,25.16]]]},"properties":{"NAME":"Kamarupa Kingdom","C":1,"name":"Kamarupa Kingdom","start_year":353,"end_year":450,"capital":"","type":"polity","region":"","event":"","source":"Cliopatria / Seshat Global History Databank (CC BY 4.0)","wikipedia":"Kamarupa","wikidata":"Q1194765","_a":15,"_c":[92.44,26.68],"_nz":"迦摩缕波王国","_sz":""}},
{"type":"Feature","geometry":{"type":"Polygon","coordinates":[[[77.5,17.03],[77.45,15.17],[77.54,15.21],[78.64,15.12],[78.81,15.87],[78.95,15.9],[79.25,16.63],[80.17,17.21],[80.57,17.39],[81.16,17.74],[81.09,18.07],[80.5,18.78],[80.52,19.25],[80.6,19.86],[80.69,20.02],[80.32,20.99],[80.26,21.32],[80.23,22.2],[78.11,22.55],[77.19,22.86],[76.13,22.59],[75.44,22.2],[74.31,22.06],[74.24,21.04],[73.91,20.57],[74.03,20.01],[74.22,19.48],[74.47,19.01],[74.74,18.81],[75.82,18.72],[77.06,17.85],[77.5,17.03]]]},"properties":{"NAME":"Vakataka Kingdom","C":7,"name":"Vakataka Kingdom","start_year":353,"end_year":409,"capital":"","type":"polity","region":"","event":"","source":"Cliopatria / Seshat Global History Databank (CC BY 4.0)","wikipedia":"Vakataka dynasty","wikidata":"Q1501306","_a":56,"_c":[77.54,18.99],"_nz":"伐卡塔卡王国","_sz":""}},
{"type":"Feature","geometry":{"type":"Polygon","coordinates":[[[4.78,51.05],[5.2,51.05],[5.54,51.18],[5.78,51.38],[5.86,51.58],[5.52,51.78],[4.33,51.71],[4.27,51.18],[4.78,51.05]]]},"properties":{"NAME":"Salian Franks","C":9,"name":"Salian Franks","start_year":358,"end_year":438,"capital":"","type":"polity","region":"","event":"","source":"Cliopatria / Seshat Global History Databank (CC BY 4.0)","wikipedia":"Salian Franks","wikidata":"Q939852","_a":1,"_c":[5.06,51.42],"_nz":"萨利安法兰克人","_sz":""}},
{"type":"Feature","geometry":{"type":"Polygon","coordinates":[[[107.62,-6.53],[107.54,-6.4],[107.6,-6.21],[107,-5.89],[106.85,-5.89],[106.79,-6.08],[105.91,-5.89],[105.7,-6.08],[105.65,-6.46],[105.43,-6.53],[105.44,-6.66],[105.94,-6.59],[106.24,-6.66],[106.25,-6.79],[107.27,-6.79],[107.48,-6.72],[107.62,-6.53]]]},"properties":{"NAME":"Tarumanagara","C":8,"name":"Tarumanagara","start_year":367,"end_year":533,"capital":"","type":"polity","region":"","event":"","source":"Cliopatria / Seshat Global History Databank (CC BY 4.0)","wikipedia":"Tarumanagara","wikidata":"Q2247225","_a":2,"_c":[106.53,-6.34],"_nz":"多罗磨","_sz":""}},
{"type":"Feature","geometry":{"type":"Polygon","coordinates":[[[44.81,16.55],[44.81,16.61],[44.09,16.81],[43.95,16.94],[43.96,17.13],[43.82,17.26],[43.9,17.39],[43.55,17.77],[43.25,17.64],[43.03,17.71],[43.02,17.51],[42.63,17.19],[42.48,17],[42.82,16.61],[42.78,15.84],[42.71,15.84],[42.75,15.14],[42.89,15.07],[42.95,14.88],[43.06,13.98],[43.26,13.72],[43.24,13.08],[43.45,12.89],[43.44,12.69],[44.39,12.63],[44.61,12.76],[45.05,12.76],[45.74,13.34],[46.84,13.4],[47.67,13.72],[47.75,13.91],[48.79,14.04],[49.41,14.69],[50.23,14.81],[50.76,15.07],[51.27,15.14],[51.88,15.46],[52.1,15.46],[52.26,15.59],[52.38,16.29],[51.89,16.61],[51.08,16.68],[50.48,16.55],[50.12,16.61],[49.59,16.49],[47.67,16.36],[46.7,16.1],[46.55,16.16],[46.47,15.97],[46.18,15.97],[46.02,15.84],[45.58,15.84],[45.37,15.97],[44.81,16.55]]]},"properties":{"NAME":"Himyarite Kingdom","C":7,"name":"Himyarite Kingdom","start_year":378,"end_year":533,"capital":"","type":"polity","region":"","event":"","source":"Cliopatria / Seshat Global History Databank (CC BY 4.0)","wikipedia":"Himyarite Kingdom","wikidata":"Q289577","_a":59,"_c":[47.43,15.62],"_nz":"希米亚里特王国","_sz":""}},
{"type":"Feature","geometry":{"type":"Polygon","coordinates":[[[129.35,35.32],[129.55,35.58],[129.67,35.97],[129.42,36.1],[129.54,36.93],[129.35,37.32],[129.21,37.19],[128.7,37.25],[127.99,36.8],[127.97,36.29],[128.09,36.22],[127.93,35.9],[128.21,35.84],[128.22,35.71],[128.61,35.71],[128.62,35.58],[129.01,35.58],[129.07,35.39],[129.35,35.32]]]},"properties":{"NAME":"Silla","C":3,"name":"Silla","start_year":378,"end_year":533,"capital":"","type":"polity","region":"","event":"","source":"Cliopatria / Seshat Global History Databank (CC BY 4.0)","wikipedia":"Silla","wikidata":"Q28456","_a":4,"_c":[128.76,36.32],"_nz":"新罗","_sz":""}},
{"type":"Feature","geometry":{"type":"Polygon","coordinates":[[[66.64,24.91],[66.63,24.84],[67.15,24.78],[67.33,24.39],[67.29,24.07],[67.44,24.07],[67.49,23.88],[67.63,23.81],[68.16,23.81],[68.13,23.56],[68.55,23.36],[68.81,22.98],[69.45,22.72],[70.37,22.91],[70.26,22.66],[69.87,22.46],[69.5,22.46],[69.41,22.34],[69.2,22.46],[68.98,22.46],[68.95,22.21],[69.35,21.76],[69.5,21.76],[69.9,21.37],[69.89,21.24],[70.3,20.86],[70.72,20.66],[71.09,20.66],[72.1,21.11],[72.28,21.37],[72.38,22.27],[72.53,22.27],[72.54,21.76],[72.76,21.69],[72.56,21.24],[72.9,20.92],[72.84,20.34],[72.66,20.09],[72.73,19.38],[73.02,19.25],[73.79,19.57],[74.04,19.83],[74.03,20.01],[73.91,20.57],[74.24,21.04],[74.31,22.06],[75.44,22.2],[76.13,22.59],[77.19,22.86],[78.11,22.55],[80.23,22.2],[80.25,21.63],[80.34,21.69],[80.41,21.69],[80.99,22.14],[81.19,22.53],[81.31,23.43],[80.58,24.14],[79.38,24.59],[78.58,24.71],[78.31,24.97],[78.17,25.49],[76.52,25.49],[75.67,25.29],[75.26,25.04],[74.73,25.04],[74.64,24.91],[73.94,24.71],[73.28,24.78],[72.81,25.16],[72.28,25.16],[71.8,24.91],[71.34,24.84],[71.01,25.16],[70.79,25.16],[70.63,25.68],[69.9,25.81],[69.56,26.07],[68.81,26.07],[67.69,25.55],[67.59,25.29],[67.21,25.29],[67.11,25.1],[66.64,24.91]]]},"properties":{"NAME":"Western Satraps","C":10,"name":"Western Satraps","start_year":383,"end_year":406,"capital":"","type":"polity","region":"","event":"","source":"Cliopatria / Seshat Global History Databank (CC BY 4.0)","wikipedia":"Western Satraps","wikidata":"Q2086608","_a":100,"_c":[73.97,22.66],"_nz":"西萨特拉普王朝","_sz":""}},
{"type":"Feature","geometry":{"type":"Polygon","coordinates":[[[67.21,25.29],[67.59,25.29],[67.69,25.55],[68.81,26.07],[69.56,26.07],[69.9,25.81],[70.63,25.68],[70.79,25.16],[71.01,25.16],[71.34,24.84],[71.8,24.91],[72.28,25.16],[72.81,25.16],[73.28,24.78],[73.94,24.71],[74.64,24.91],[74.73,25.04],[75.26,25.04],[75.67,25.29],[76.52,25.49],[78.17,25.49],[78.31,24.97],[78.58,24.71],[79.38,24.59],[80.58,24.14],[81.31,23.43],[81.19,22.53],[80.99,22.14],[80.41,21.69],[80.34,21.69],[80.25,21.63],[80.27,21.24],[80.66,21.24],[80.71,21.05],[81.04,20.73],[80.56,19.25],[80.52,19.25],[80.5,18.78],[81.09,18.07],[81.16,17.74],[80.57,17.39],[80.25,17.24],[79.94,16.49],[79.53,16.04],[79.3,14.49],[79.37,14.49],[79.33,14.05],[79.52,13.51],[79.44,12.89],[79.78,12.78],[80.14,12.44],[80.3,12.63],[80.43,13.27],[80.25,13.66],[80.26,14.62],[80.09,15.07],[80.38,15.71],[80.61,15.84],[81.12,15.78],[81.32,16.29],[82.07,16.36],[82.38,16.55],[82.45,17.13],[83.15,17.45],[83.56,17.77],[83.67,18.03],[84.05,18.16],[84.38,18.41],[84.75,18.99],[85.5,19.64],[85.65,19.64],[86.42,19.89],[86.44,20.02],[86.84,20.28],[86.79,20.47],[87.03,20.6],[86.96,21.18],[87.07,21.44],[87.76,21.63],[88.1,21.95],[88.13,21.63],[88.35,21.56],[88.51,21.69],[88.64,22.08],[88.72,22.08],[88.73,21.63],[89.1,21.63],[89.12,21.76],[89.71,21.76],[89.87,21.82],[89.9,22.01],[90.23,21.76],[90.43,22.08],[90.86,22.01],[90.94,22.53],[91.5,22.79],[91.37,22.4],[91.74,22.4],[91.76,22.08],[91.89,21.95],[91.83,21.5],[92.05,21.5],[92.01,21.18],[92.12,20.92],[92.33,20.86],[92.33,21.37],[92.76,21.24],[92.66,21.56],[92.73,22.08],[92.59,22.14],[92.63,22.4],[92.46,22.79],[92.36,23.56],[92.22,23.62],[92.25,24.26],[92.04,24.33],[91.78,24.14],[91.35,24.2],[91.3,24.39],[91.31,24.84],[91.03,24.97],[91.06,25.16],[92.42,25.16],[90.3,25.28],[89.91,25.64],[90.15,26.13],[89.52,26.13],[89.27,26.39],[89.04,26.39],[88.99,26.52],[88.55,26.58],[87.99,26.39],[87.24,26.39],[87.11,26.52],[86.65,26.45],[86.31,26.64],[85.79,26.64],[85.74,26.77],[85.45,26.84],[85.55,27.35],[85.33,27.42],[85.25,27.74],[84.86,27.67],[84.75,27.87],[84.28,27.8],[83.48,27.93],[83.07,28.12],[83.02,28.25],[81.95,28.19],[81.61,27.99],[81.19,28.19],[80.96,28.51],[80.17,28.7],[79.87,29.09],[79.96,29.54],[79.95,29.86],[79.84,30.05],[79.87,30.5],[79.62,30.76],[79.61,31.01],[79.18,31.46],[78.81,31.53],[78.84,31.66],[78.45,31.59],[76.46,32.24],[75.88,32.69],[75.27,33.01],[75.24,33.2],[75.03,33.59],[74.6,34.04],[74.63,34.16],[74.45,34.36],[74.3,34.36],[74.19,34.55],[73.72,34.81],[73.34,34.55],[73.37,34.04],[73.17,33.84],[72.77,33.78],[72.72,33.91],[72.42,33.91],[72.46,34.1],[72.14,34.04],[71.5,33.26],[70.95,32.88],[70.7,32.43],[69.87,32.11],[69.67,31.91],[69.29,31.91],[69.02,31.72],[69,31.59],[68.29,31.08],[67.96,30.56],[67.52,30.24],[67.21,29.79],[66.93,28.57],[67.01,28.57],[67.06,27.48],[67.17,27.22],[67.2,26.32],[67.5,25.81],[67.21,25.29]]]},"properties":{"NAME":"Gupta Empire","C":9,"name":"Gupta Empire","start_year":387,"end_year":409,"capital":"","type":"polity","region":"","event":"","source":"Cliopatria / Seshat Global History Databank (CC BY 4.0)","wikipedia":"Gupta Empire","wikidata":"Q11774","_a":579,"_c":[79.85,23.65],"_nz":"笈多帝国","_sz":""}},
{"type":"Feature","geometry":{"type":"Polygon","coordinates":[[[80.03,42.37],[79.52,42.5],[79.49,42.63],[79.03,42.89],[78.63,42.89],[77.72,43.02],[75.77,42.95],[75.74,42.89],[75.88,42.82],[75.76,42.5],[76.21,42.43],[76.24,41.85],[76.8,41.85],[76.65,41.65],[76.98,41.46],[77.8,41.52],[80.03,42.37]]]},"properties":{"NAME":"Wusun","C":6,"name":"Wusun","start_year":387,"end_year":401,"capital":"赤谷城","type":"polity","region":"central_asia","event":"","source":"Cliopatria / Seshat Global History Databank (CC BY 4.0)","wikipedia":"Wusun","wikidata":"Q854062","_a":7,"_c":[77.9,42.24],"_nz":"乌孙","_sz":""}},
{"type":"Feature","geometry":{"type":"Polygon","coordinates":[[[9.93,54.55],[9.93,54.82],[9.32,54.82],[9.23,54.61],[9.93,54.55]]]},"properties":{"NAME":"Angles","C":8,"name":"Angles","start_year":387,"end_year":475,"capital":"","type":"polity","region":"","event":"","source":"Cliopatria / Seshat Global History Databank (CC BY 4.0)","wikipedia":"Angles","wikidata":"Q234218","_a":0,"_c":[9.58,54.72],"_nz":"盎格鲁人","_sz":""}},
{"type":"Feature","geometry":{"type":"Polygon","coordinates":[[[93.85,40.74],[92.77,41],[92.35,41.13],[91.27,41.39],[90.78,41.72],[90.54,41.72],[90.22,41.91],[89.64,42.04],[88.82,42.17],[88.85,42.24],[87.04,42.5],[85.76,42.69],[85.79,42.76],[84.11,42.76],[82.06,42.24],[80.51,42.37],[80.24,42.5],[80.03,42.37],[77.8,41.52],[78.04,41.33],[78.05,41.13],[78.24,41],[78.39,40.74],[78.36,40.23],[78.26,39.45],[78.34,39.45],[78.03,38.74],[77.47,38.48],[77.84,38.16],[77.8,38.03],[78.09,37.71],[78.39,37.64],[78.42,37.51],[79.15,37.32],[79.4,37.13],[80.37,37],[81.03,36.61],[81.26,36.61],[81.46,36.74],[85.11,37.45],[85.36,37.71],[85.81,37.9],[86.08,38.22],[86.78,38.42],[87.66,38.48],[88.64,38.8],[88.72,38.8],[90.49,39.13],[91.54,39.19],[92.25,39.38],[93.01,39.32],[93.3,39.45],[93.27,39.77],[93.09,39.9],[93.28,40.16],[93.36,40.55],[93.57,40.48],[93.85,40.74]]]},"properties":{"NAME":"Protectorate of the Western Regions","C":9,"name":"Protectorate of the Western Regions","start_year":387,"end_year":401,"capital":"海头","type":"polity","region":"central_asia","event":"","source":"Cliopatria / Seshat Global History Databank (CC BY 4.0)","wikipedia":"Protectorate of the Western Regions","wikidata":"Q911440","_a":101,"_c":[85.7,39.69],"_nz":"西域长史府","_sz":""}},
{"type":"Feature","geometry":{"type":"Polygon","coordinates":[[[48.92,39.19],[49.15,39.19],[49.27,39.38],[49.51,40.23],[49.69,40.36],[50.26,40.42],[50.05,40.55],[49.51,40.61],[49.24,40.87],[49.27,41],[49.06,41.13],[49.09,41.26],[48.56,41.78],[48.12,41.59],[47.99,41.33],[47.5,41.26],[47.35,41.33],[46.82,41.85],[46.43,41.91],[46.23,42.11],[45.7,42.24],[45.54,42.24],[45.31,41.91],[45.07,41.91],[44.77,41.59],[44.35,41.46],[44.24,41.26],[45.11,41.26],[45.3,41],[45.6,40.87],[45.46,40.55],[45.59,40.42],[46.2,40.29],[46.46,39.97],[46.77,39.97],[47.05,39.77],[47.12,39.71],[48.3,39.71],[48.67,39.58],[48.92,39.19]]]},"properties":{"NAME":"Caucasian Albania","C":4,"name":"Caucasian Albania","start_year":387,"end_year":438,"capital":"","type":"polity","region":"","event":"","source":"Cliopatria / Seshat Global History Databank (CC BY 4.0)","wikipedia":"Caucasian Albania","wikidata":"Q177076","_a":18,"_c":[47.25,40.72],"_nz":"高加索阿尔巴尼亚","_sz":""}},
{"type":"Feature","geometry":{"type":"Polygon","coordinates":[[[72.5,36.1],[72.3,36.22],[72.38,36.8],[72.35,37],[72.72,37.77],[72.99,38.16],[73.49,38.55],[73.75,39.13],[73.63,39.26],[73.69,39.45],[73.3,39.45],[73.1,39.32],[72.49,39.38],[72.37,39.26],[71.84,39.32],[69.48,39.06],[67.27,39],[65.3,38.67],[65.11,38.55],[64.76,36.16],[64.77,35.52],[64.9,35.39],[64.9,35.07],[65.17,34.87],[65.14,34.74],[65.46,34.42],[65.75,34.36],[65.86,34.16],[66.02,34.16],[66.25,33.84],[66.41,33.84],[66.52,33.65],[66.88,33.52],[66.99,33.33],[67.22,33.33],[67.42,33.2],[68.12,32.88],[68.09,32.75],[68.38,32.69],[68.64,32.43],[68.61,32.3],[68.94,32.04],[69.02,31.72],[69.29,31.91],[69.67,31.91],[69.87,32.11],[70.7,32.43],[70.95,32.88],[71.5,33.26],[72.14,34.04],[72.46,34.1],[72.42,33.91],[72.72,33.91],[72.77,33.78],[73.17,33.84],[73.37,34.04],[73.34,34.55],[73.72,34.81],[73.73,34.87],[73.44,34.94],[72.71,35.71],[72.5,36.1]]]},"properties":{"NAME":"Kidarites","C":8,"name":"Kidarites","start_year":390,"end_year":401,"capital":"","type":"polity","region":"","event":"","source":"Cliopatria / Seshat Global History Databank (CC BY 4.0)","wikipedia":"Kidarites","wikidata":"Q26996","_a":70,"_c":[69.25,35.59],"_nz":"寄多罗","_sz":""}},
{"type":"Feature","geometry":{"type":"MultiPolygon","coordinates":[[[[110.18,18.48],[110.51,18.67],[110.68,19.25],[110.85,19.38],[110.88,19.57],[111.03,19.57],[111.09,19.89],[110.91,20.15],[110.61,20.15],[110.59,20.02],[110.16,20.09],[109.25,19.96],[109.2,19.7],[108.7,19.38],[108.64,18.54],[108.76,18.41],[109.12,18.35],[109.25,18.22],[109.84,18.22],[109.86,18.35],[110.18,18.48]]],[[[106.95,17.26],[106.75,17.39],[106.77,17.51],[106.57,17.64],[106.57,18.09],[106.29,18.22],[106.18,18.41],[105.73,18.86],[105.97,19.83],[106.54,20.15],[106.69,20.6],[106.83,20.6],[106.96,20.92],[107.42,20.99],[107.79,21.44],[108.56,21.56],[108.65,21.69],[109.09,21.63],[109.12,21.37],[109.81,21.5],[109.87,21.44],[109.7,20.86],[109.79,20.54],[109.93,20.47],[109.88,20.21],[110.49,20.28],[110.62,20.6],[110.36,20.86],[110.48,21.11],[110.72,21.18],[110.74,21.31],[110.98,21.44],[111.66,21.5],[111.86,21.76],[112.44,21.69],[112.77,21.89],[113.07,21.89],[113.11,22.08],[113.32,22.01],[113.42,22.14],[113.64,22.14],[113.79,22.53],[114,22.46],[114,22.08],[114.37,22.08],[114.53,22.14],[114.64,22.72],[114.75,22.53],[114.9,22.53],[115.17,22.79],[115.37,22.66],[115.67,22.66],[115.7,22.79],[116.54,22.91],[116.59,23.17],[116.81,23.17],[116.78,23.36],[116.89,23.56],[117.18,23.49],[117.47,23.81],[117.69,23.81],[117.72,23.94],[118.08,24.2],[118.15,24.52],[118.76,24.59],[118.82,24.84],[119.07,24.97],[119.03,25.1],[119.34,25.16],[119.47,25.36],[119.87,25.49],[119.9,25.62],[119.53,25.62],[119.78,26],[119.59,26.13],[119.94,26.32],[119.84,26.52],[120.16,26.58],[120.25,26.9],[120.39,27.16],[120.55,27.16],[120.73,27.54],[120.71,27.74],[120.87,27.99],[121.15,28.19],[121.65,28.32],[121.65,28.57],[121.74,29.09],[121.54,29.15],[121.59,29.54],[121.8,29.47],[121.71,29.22],[121.94,29.22],[121.93,29.41],[122.02,29.67],[122.03,29.92],[121.62,30.05],[121.48,30.31],[121.1,30.31],[120.81,30.12],[120.68,30.18],[121.05,30.56],[121.2,30.56],[121.52,30.82],[121.9,30.82],[122,31.08],[121.74,31.4],[121.58,31.4],[121.3,31.85],[121.84,31.66],[121.99,31.85],[121.78,32.11],[121.5,32.17],[121.4,32.49],[120.92,32.62],[120.93,33.2],[120.55,33.59],[120.49,34.16],[120.34,34.36],[119.73,34.55],[119.71,34.68],[119.23,34.81],[119.5,35.26],[119.27,35.26],[118.58,34.74],[118.44,34.94],[118.28,34.94],[118.12,34.74],[117.84,34.81],[117.53,34.81],[117.54,35],[117.31,35.19],[117,35.19],[116.81,34.94],[116.48,34.87],[116.2,34.94],[115.98,35.32],[115.54,35.39],[114.89,35.32],[114.44,34.61],[114.54,34.49],[114.41,34.16],[113.44,32.88],[111.62,32.49],[111.24,32.3],[110.17,32.3],[109.91,32.43],[109.88,32.56],[109.5,32.56],[109.16,32.88],[108.24,32.88],[108.1,33.14],[107.88,32.94],[107.65,32.94],[107.67,33.2],[107.48,33.33],[107.25,33.33],[107.13,33.2],[106.03,33.33],[105.7,33.07],[105.17,33.07],[104.7,33.26],[103.21,33.39],[102.55,33.26],[101.69,32.75],[100.98,31.01],[100.89,29.92],[100.96,29.67],[100.88,29.34],[100.88,29.09],[101.02,28.77],[101.03,28.51],[100.92,28.06],[101.05,27.99],[101.01,27.54],[101.09,27.54],[101.2,26.39],[101.4,25.94],[101.46,25.16],[101.81,24.26],[102.09,24.14],[102.32,23.81],[102.47,23.81],[102.65,23.56],[102.8,23.56],[102.99,23.36],[104.9,23.24],[104.96,23.11],[105.36,23.3],[105.69,23.04],[105.51,22.85],[105.21,22.85],[105.24,22.59],[104.87,22.21],[105.13,21.95],[105.1,21.76],[104.93,21.63],[104.98,21.5],[104.85,21.18],[105.1,20.86],[104.87,20.86],[104.91,20.6],[104.62,20.66],[104.44,20.47],[104.98,20.15],[104.86,19.89],[104.99,19.76],[105.02,18.99],[105.19,18.67],[105.14,18.41],[106.42,17.13],[106.53,16.94],[106.95,17.26]]],[[[122.27,30.18],[122.05,30.18],[121.98,29.99],[122.28,29.99],[122.27,30.18]]]]},"properties":{"NAME":"Western Jin","C":5,"name":"Western Jin","start_year":394,"end_year":401,"capital":"建康（今南京）","type":"dynasty","region":"china","event":"","source":"Cliopatria / Seshat Global History Databank (CC BY 4.0)","wikipedia":"Jin dynasty (266-420)","wikidata":"Q7352","_a":396,"_c":[111.58,26.2],"_nz":"东晋","_sz":""}},
{"type":"Feature","geometry":{"type":"Polygon","coordinates":[[[20,45.82],[19.75,45.69],[19.36,46.02],[19.41,46.94],[19.67,47.2],[19.61,47.66],[19.13,47.99],[19.22,48.13],[17.73,48.13],[17.33,48.32],[17.17,48.59],[16.93,48.72],[16.34,48.65],[15.67,48.52],[14.77,48.72],[14.1,48.65],[14.02,48.79],[13.69,48.85],[13.68,48.59],[13.76,48.46],[14.26,48.26],[15.17,48.32],[15.5,48.19],[16.08,48.19],[16.66,48.32],[17.06,47.99],[17.71,47.73],[18.87,47.8],[19.19,47.47],[19.17,47.2],[18.84,47.07],[18.81,46.61],[19.05,46.41],[18.86,45.89],[18.93,45.56],[19,45.5],[19,45.37],[19.24,45.24],[19.89,45.24],[20.06,45.37],[20,45.82]]]},"properties":{"NAME":"Vandals","C":11,"name":"Vandals","start_year":394,"end_year":406,"capital":"","type":"polity","region":"","event":"","source":"Cliopatria / Seshat Global History Databank (CC BY 4.0)","wikipedia":"Vandals","wikidata":"Q42211","_a":23,"_c":[16.87,47.05],"_nz":"汪达尔人","_sz":""}},
{"type":"Feature","geometry":{"type":"Polygon","coordinates":[[[129.35,37.32],[129.26,37.58],[129.1,37.58],[128.36,38.8],[127.92,39],[127.8,39.19],[127.44,39.26],[127.67,39.64],[127.58,39.77],[127.93,39.97],[128.37,40.03],[128.68,40.29],[129.08,40.42],[129.24,40.68],[129.76,40.87],[129.88,41.2],[129.73,41.33],[129.7,41.65],[130.32,42.24],[130.77,42.43],[130.74,42.63],[130.92,42.89],[130.65,43.08],[130.33,43.08],[126.47,42.82],[125.46,42.63],[124.61,42.17],[123.17,41.91],[123.6,41.72],[124,41.46],[124.76,41.13],[125.04,41.07],[125,40.74],[124.88,40.42],[124.57,40.29],[124.27,39.9],[124.51,39.64],[124.86,39.71],[124.87,39.58],[125.31,39.51],[125.39,39.38],[124.79,38.29],[124.76,38.09],[125.08,38.09],[125.39,37.64],[125.68,37.9],[125.84,37.77],[126.35,37.84],[126.25,37.64],[126.6,37.58],[127.6,37.84],[127.62,37.58],[127.88,37.19],[127.87,36.87],[127.99,36.8],[128.7,37.25],[129.21,37.19],[129.35,37.32]]]},"properties":{"NAME":"Goguryeo","C":11,"name":"Goguryeo","start_year":395,"end_year":401,"capital":"国内城（今集安）","type":"dynasty","region":"korea","event":"","source":"Cliopatria / Seshat Global History Databank (CC BY 4.0)","wikipedia":"Goguryeo","wikidata":"Q28370","_a":49,"_c":[127.03,39.94],"_nz":"高句丽","_sz":""}},
{"type":"Feature","geometry":{"type":"Polygon","coordinates":[[[126.6,37.58],[126.7,37.32],[126.65,37.06],[126.3,37],[126.05,36.8],[126.26,36.61],[126.45,36.67],[126.43,36.16],[126.68,36.03],[126.3,35.26],[126.2,34.87],[126.48,34.81],[126.12,34.36],[126.42,34.36],[126.63,34.29],[127.13,34.55],[127.22,34.42],[127.55,34.61],[127.45,34.74],[127.57,35],[127.45,35.07],[127.63,35.45],[127.93,35.9],[128.09,36.22],[127.97,36.29],[127.99,36.8],[127.87,36.87],[127.88,37.19],[127.62,37.58],[127.6,37.84],[126.6,37.58]]]},"properties":{"NAME":"Baekje","C":8,"name":"Baekje","start_year":395,"end_year":475,"capital":"汉城","type":"dynasty","region":"korea","event":"","source":"Cliopatria / Seshat Global History Databank (CC BY 4.0)","wikipedia":"Baekje","wikidata":"Q28428","_a":7,"_c":[127.07,36.07],"_nz":"百济","_sz":""}},
{"type":"Feature","geometry":{"type":"Polygon","coordinates":[[[124.27,39.9],[124.57,40.29],[124.88,40.42],[125,40.74],[125.04,41.07],[124.76,41.13],[124,41.46],[123.6,41.72],[123.17,41.91],[122.93,41.91],[121.02,41.26],[119.39,41.33],[118.83,41.46],[117.76,41.39],[116.35,40.87],[115.56,40.16],[115,39.84],[114.91,39.51],[114.59,39.19],[114.19,39.19],[114.05,38.74],[114.3,38.61],[114.5,38.22],[113.94,37.19],[114.01,36.67],[113.57,36.03],[114.6,35.71],[114.89,35.32],[115.54,35.39],[115.98,35.32],[116.2,34.94],[116.48,34.87],[116.81,34.94],[117,35.19],[117.31,35.19],[117.54,35],[117.53,34.81],[117.84,34.81],[118.12,34.74],[118.28,34.94],[118.44,34.94],[118.58,34.74],[119.27,35.26],[119.5,35.26],[119.62,35.52],[119.99,35.64],[120.32,36.03],[120.66,36.1],[120.73,36.42],[120.96,36.42],[120.98,36.61],[121.21,36.61],[121.91,36.93],[122.16,36.8],[122.5,36.87],[122.44,37.06],[122.71,37.45],[122.12,37.51],[121.5,37.51],[121.48,37.64],[121.17,37.64],[121.11,37.84],[120.75,37.9],[120.19,37.71],[120.2,37.58],[119.83,37.45],[119.7,37.19],[119.16,37.19],[118.98,37.32],[119.24,37.84],[119.46,37.96],[118.77,38.16],[118.58,38.09],[118.07,38.16],[118.05,38.29],[117.77,38.35],[117.6,38.48],[117.58,38.74],[117.78,39.13],[118.06,39.06],[118.45,39.06],[118.99,39.19],[119.22,39.32],[119.38,39.77],[120.5,40.23],[120.65,40.48],[121,40.68],[121.11,40.87],[121.82,40.87],[121.83,40.74],[122.11,40.68],[122.23,40.48],[121.78,39.97],[121.5,39.9],[121.44,39.64],[121.21,39.51],[121.3,39.38],[121.69,39.38],[121.52,39.06],[121.2,39.06],[121.03,38.74],[121.42,38.74],[121.72,39],[121.95,39],[122.17,39.26],[122.94,39.64],[123.6,39.84],[124.23,39.84],[124.27,39.9]]]},"properties":{"NAME":"Later Yan","C":10,"name":"Later Yan","start_year":395,"end_year":401,"capital":"","type":"polity","region":"","event":"","source":"Cliopatria / Seshat Global History Databank (CC BY 4.0)","wikipedia":"Later Yan","wikidata":"Q1534482","_a":689,"_c":[103.97,42.9],"_nz":"后燕","_sz":""}},
{"type":"Feature","geometry":{"type":"Polygon","coordinates":[[[8.18,49.85],[8.27,49.85],[8.43,50.31],[8.76,50.51],[8.42,50.58],[7.74,51.11],[7.65,51.31],[7.39,51.45],[7.3,51.71],[7.13,51.85],[6.79,51.92],[6.95,52.12],[6.94,52.72],[7.11,52.79],[6.67,53.19],[6.24,53.06],[6.25,52.79],[5.74,52.65],[5.56,52.92],[4.89,52.65],[4.81,52.38],[4.56,52.32],[4.57,52.05],[5.93,51.98],[6.63,51.51],[6.89,51.38],[7.06,50.98],[7.24,50.91],[7.24,50.71],[7.41,50.65],[7.75,50.31],[7.68,49.91],[8.18,49.85]]]},"properties":{"NAME":"Ripuarian Franks","C":0,"name":"Ripuarian Franks","start_year":396,"end_year":406,"capital":"","type":"polity","region":"","event":"","source":"Cliopatria / Seshat Global History Databank (CC BY 4.0)","wikipedia":"Ripuarian Franks","wikidata":"Q316860","_a":14,"_c":[6.66,51.52],"_nz":"里普利安法兰克人","_sz":""}},
{"type":"Feature","geometry":{"type":"MultiPolygon","coordinates":[[[[11.08,35.39],[11.08,35.58],[10.7,35.71],[10.46,35.9],[10.54,36.35],[10.46,36.42],[11.01,36.8],[10.85,37],[10.54,36.74],[10.23,36.8],[10.31,37.06],[10.23,37.25],[9.99,37.19],[9.6,37.32],[9.06,37.06],[8.9,37.13],[8.52,36.87],[7.74,36.87],[7.5,37.06],[7.35,37.06],[7.19,36.87],[6.8,36.87],[6.33,37.06],[6.1,36.93],[6.11,36.8],[5.64,36.8],[5.56,36.67],[5.1,36.67],[4.86,36.87],[4.47,36.93],[3.85,36.8],[3.46,36.87],[3.23,36.74],[2.84,36.74],[2.69,36.61],[2.38,36.67],[1.53,36.48],[1.22,36.55],[0.91,36.35],[0.38,36.22],[0.08,35.84],[-0.46,35.84],[-0.53,35.71],[-0.92,35.71],[-1.36,35.26],[-1.59,35.26],[-1.89,35.07],[-2.66,35.07],[-2.98,35.26],[-3.13,35.19],[-4.75,35.19],[-5.24,35.52],[-5.34,35.84],[-5.88,35.77],[-6,35.32],[-6.29,35.07],[-6.33,34.55],[-6.61,34.16],[-6.9,33.91],[-7.13,33.84],[-7.88,33.52],[-7.47,33.26],[-7.18,33.52],[-6.73,33.59],[-6.81,33.71],[-6.59,33.84],[-6.6,33.97],[-6.31,34.23],[-6.11,34.61],[-5.81,34.81],[-5.28,34.94],[-2.81,34.94],[-1.88,34.81],[-1.81,34.94],[-1.35,35],[-1.2,35.13],[-1.04,35.07],[-0.29,35.58],[0.48,35.64],[0.77,36.03],[1.01,36.03],[1.15,36.16],[2.01,36.16],[2.32,36.22],[2.77,36.42],[5.65,36.35],[5.88,36.48],[6.35,36.42],[6.42,36.55],[6.89,36.48],[6.96,36.61],[7.59,36.61],[7.9,36.22],[7.91,35.52],[7.99,35.52],[7.99,35.07],[8.23,34.81],[8.46,34.87],[8.85,34.74],[8.93,34.36],[8.93,34.04],[9.08,34.04],[9.32,33.59],[9.62,33.46],[9.55,33.33],[9.63,33.14],[10.08,33.14],[10.01,33.01],[10.39,33.01],[11.16,32.69],[11.31,32.49],[11.77,32.43],[11.77,32.3],[12.46,32.36],[13.07,32.3],[13.83,32.11],[14.59,31.66],[14.58,31.53],[15.19,31.08],[15.18,30.89],[15.49,30.95],[16.7,30.69],[18.28,30.05],[18.81,29.99],[18.9,30.37],[18.59,30.37],[18,30.89],[17.47,31.08],[16.18,31.21],[15.65,31.4],[15.58,31.59],[15.42,31.66],[15.21,32.36],[14.75,32.43],[14.67,32.56],[14.44,32.49],[14.07,32.75],[13.45,32.81],[13.3,32.94],[12.84,32.88],[12.84,32.75],[12.23,32.81],[11.46,33.2],[11.16,33.2],[11.08,33.59],[10.7,33.52],[10.54,33.71],[10.24,33.71],[10.01,33.91],[10.08,34.23],[10,34.29],[10.54,34.55],[10.85,34.81],[10.85,34.94],[11.08,35],[11.08,35.39]]],[[[1.66,39],[1.65,39.13],[1.26,39.13],[1.18,39.06],[1.27,38.8],[1.43,38.8],[1.66,39]]],[[[3.2,39.84],[3.19,39.97],[2.88,39.97],[2.34,39.64],[2.35,39.45],[2.66,39.51],[2.82,39.32],[3.3,39.32],[3.52,39.77],[3.2,39.84]]],[[[3.83,39.9],[4.3,39.84],[4.22,40.1],[3.74,40.1],[3.83,39.9]]],[[[9.82,40.36],[9.82,40.74],[9.5,41.2],[9.02,41.26],[8.55,40.87],[8.15,40.94],[8.16,40.55],[8.32,40.48],[8.4,40.29],[8.32,39.97],[8.48,39.9],[8.33,39.51],[8.34,39],[8.73,38.87],[8.97,38.87],[9.12,39.19],[9.59,39.13],[9.67,39.64],[9.75,39.64],[9.67,40.29],[9.82,40.36]]],[[[9.49,42.76],[9.49,43.02],[9.25,43.02],[9.17,42.76],[8.77,42.69],[8.53,42.5],[8.54,42.11],[8.78,41.72],[8.78,41.52],[9.1,41.33],[9.26,41.39],[9.58,41.98],[9.57,42.76],[9.49,42.76]]],[[[10.46,42.69],[10.46,42.89],[10.13,42.89],[10.21,42.69],[10.46,42.69]]],[[[8.18,49.85],[7.68,49.91],[7.75,50.31],[7.41,50.65],[7.24,50.71],[7.24,50.91],[7.06,50.98],[6.89,51.38],[6.63,51.51],[5.93,51.98],[4.57,52.05],[3.98,51.92],[3.4,51.65],[3.41,51.45],[2.74,51.31],[2.58,51.18],[1.66,51.05],[1.42,50.71],[1.45,50.25],[1.05,49.98],[0.22,49.85],[-0.01,49.65],[0.01,49.38],[-1.25,49.45],[-1.36,49.78],[-2.03,49.78],[-1.91,49.38],[-1.65,49.25],[-1.72,49.05],[-1.6,48.65],[-2.52,48.72],[-2.76,48.59],[-3.12,48.92],[-3.46,48.92],[-3.85,48.72],[-4.6,48.72],[-4.91,48.52],[-4.89,48.32],[-4.64,48.32],[-4.69,47.99],[-4.42,47.8],[-3.93,47.86],[-3.76,47.73],[-3.34,47.73],[-3.16,47.47],[-2.58,47.47],[-2.56,47.27],[-2.23,47.27],[-2.14,47.14],[-2.19,46.81],[-1.67,46.35],[-1.25,46.28],[-1.21,45.76],[-1.05,45.69],[-1.03,45.5],[-1.19,45.43],[-1.25,45.17],[-1.21,44.52],[-1.35,44.25],[-1.39,43.67],[-1.69,43.34],[-3.3,43.34],[-3.47,43.47],[-4.99,43.41],[-5.73,43.6],[-7.18,43.54],[-7.28,43.73],[-8.24,43.73],[-8.39,43.6],[-8.37,43.41],[-8.85,43.41],[-9.3,43.15],[-9.28,42.89],[-9.1,42.76],[-9.08,42.56],[-8.66,42.37],[-8.96,42.17],[-8.73,40.74],[-8.87,40.61],[-9.03,39.77],[-9.16,39.51],[-9.39,39.45],[-9.43,39.06],[-9.57,38.93],[-9.55,38.74],[-9.21,38.42],[-8.82,38.48],[-8.82,37.58],[-8.9,37.58],[-9,37],[-8.7,37.13],[-7.68,37],[-7.45,37.13],[-7.47,37.25],[-6.84,37.25],[-6.59,37],[-6.35,36.93],[-6.33,36.67],[-6.06,36.22],[-5.83,36.22],[-5.66,36.03],[-5.29,36.22],[-5.23,36.48],[-4.69,36.55],[-4.47,36.74],[-2.68,36.74],[-2.53,36.87],[-2.06,36.8],[-1.86,37.32],[-1.71,37.45],[-0.7,37.64],[-0.8,38.03],[-0.66,38.29],[0.1,38.74],[-0.31,39.13],[-0.35,39.71],[-0.13,40.03],[0.18,40.16],[0.25,40.42],[0.71,40.68],[0.7,40.94],[1.24,41.2],[2.11,41.33],[2.33,41.59],[2.57,41.59],[3.12,41.91],[3.18,42.37],[3.01,42.56],[2.98,43.15],[3.14,43.28],[3.62,43.41],[3.85,43.6],[4.17,43.6],[4.18,43.47],[5.06,43.47],[5.39,43.41],[5.8,43.15],[6.28,43.15],[6.52,43.21],[6.67,43.47],[6.99,43.54],[7.15,43.73],[8.03,43.93],[8.43,44.39],[9.16,44.45],[9.89,43.99],[10.21,43.99],[10.54,43.08],[11.02,42.82],[11.26,42.43],[11.65,42.37],[11.81,42.11],[12.13,42.04],[12.13,41.91],[12.6,41.52],[12.92,41.46],[13,41.33],[13.71,41.26],[13.95,41.13],[14.1,40.87],[14.42,40.87],[14.42,40.68],[14.89,40.68],[15.04,40.23],[15.2,40.23],[15.43,40.03],[15.9,39.77],[16.12,39.06],[16.27,38.93],[16.27,38.74],[15.95,38.67],[15.86,38.29],[14.06,37.96],[13.67,37.96],[13.35,38.16],[13.12,38.16],[13.04,38.03],[12.65,38.09],[12.49,37.9],[12.49,37.71],[13.19,37.58],[13.58,37.25],[14.28,37.13],[14.66,36.74],[15.05,36.74],[15.21,37.19],[15.06,37.25],[15.07,37.64],[15.39,38.16],[15.62,38.16],[15.7,37.96],[15.93,37.96],[16.49,38.42],[16.5,38.8],[17.14,39.06],[17.07,39.38],[16.92,39.51],[16.45,39.64],[16.46,39.97],[16.7,40.1],[17.03,40.55],[17.35,40.55],[17.42,40.36],[17.81,40.36],[18.11,39.9],[18.35,39.9],[18.44,40.16],[17.98,40.61],[17.51,40.74],[17.2,41],[15.94,41.39],[15.87,41.72],[16.11,41.78],[16.12,41.91],[15.24,41.91],[15.17,42.04],[14.92,41.98],[14.61,42.11],[14.06,42.5],[13.9,42.76],[13.99,42.95],[13.75,43.08],[13.67,43.41],[13.36,43.67],[12.87,43.8],[12.31,44.19],[12.15,44.45],[12.16,44.84],[12.4,44.78],[12.4,45.04],[12.16,45.17],[12.16,45.5],[12.65,45.56],[12.82,45.69],[13.06,45.63],[13.14,45.82],[13.71,45.76],[13.71,45.5],[13.54,45.3],[13.95,45.04],[14.19,45.04],[14.2,45.37],[14.6,45.37],[14.52,45.1],[14.92,44.97],[14.91,44.58],[15.15,44.39],[15.22,44.06],[15.86,43.8],[16.01,43.6],[15.93,43.47],[16.58,43.6],[16.73,43.54],[16.73,43.34],[17.05,43.41],[17.12,43.15],[17.37,43.21],[17.36,42.95],[17.83,42.89],[18.14,42.63],[18.85,42.37],[19.01,42.24],[19.17,42.3],[19.11,42.82],[19.46,43.28],[19.3,43.41],[19.47,43.6],[19.41,43.93],[19.66,44.06],[19.67,44.25],[19.84,44.32],[19.94,44.71],[20.29,45.17],[20.06,45.37],[19.89,45.24],[19.24,45.24],[19,45.37],[19,45.5],[18.93,45.56],[18.86,45.89],[19.05,46.41],[18.81,46.61],[18.84,47.07],[19.17,47.2],[19.19,47.47],[18.87,47.8],[17.71,47.73],[17.06,47.99],[16.66,48.32],[16.08,48.19],[15.5,48.19],[15.17,48.32],[14.26,48.26],[13.76,48.46],[13.68,48.59],[12.94,48.72],[12.61,48.99],[11.86,49.18],[11.19,48.79],[9.12,48.19],[8.96,48.06],[8.88,47.8],[8.55,47.73],[8.47,47.6],[7.64,47.53],[7.63,47.99],[7.79,48.65],[8.12,48.85],[8.11,49.05],[8.28,49.18],[8.35,49.65],[8.18,49.85]],[[4.78,51.05],[4.27,51.18],[4.33,51.71],[5.52,51.78],[5.86,51.58],[5.78,51.38],[5.54,51.18],[5.2,51.05],[4.78,51.05]]],[[[14.26,44.58],[14.5,44.52],[14.51,44.91],[14.27,44.97],[14.26,44.58]]],[[[0.32,53.12],[0.3,53.39],[0.12,53.46],[0,53.8],[-0.18,53.94],[-0.2,54.21],[-0.67,54.61],[-1.29,54.68],[-1.61,55.36],[-2.38,55.16],[-2.82,55.23],[-2.89,55.09],[-3.32,55.02],[-3.21,54.82],[-2.1,55.02],[-1.95,54.41],[-1.67,54.21],[-1.62,53.6],[-1.77,53.39],[-1.74,53.12],[-2.3,52.65],[-2.47,52.65],[-2.93,52.18],[-3.35,52.05],[-3.88,51.51],[-3.7,51.38],[-3.11,51.38],[-3.26,51.18],[-2.9,50.98],[-2.96,50.71],[-2.61,50.58],[-2.1,50.58],[-2.03,50.71],[-1.52,50.71],[-1.51,50.58],[-1.1,50.65],[-1.11,50.78],[0.49,50.78],[1.31,51.11],[1.38,51.38],[0.86,51.51],[0.84,51.78],[1.18,51.78],[1.17,51.98],[1.43,51.98],[1.74,52.38],[1.72,52.72],[1.53,52.92],[1.09,53.06],[0.49,53.06],[0.34,52.86],[0.07,52.99],[0.32,53.12]]]]},"properties":{"NAME":"Western Roman Empire","C":9,"name":"Western Roman Empire","start_year":396,"end_year":401,"capital":"","type":"polity","region":"","event":"","source":"Cliopatria / Seshat Global History Databank (CC BY 4.0)","wikipedia":"Western Roman Empire","wikidata":"Q42834","_a":758,"_c":[5.36,42.68],"_nz":"西罗马帝国","_sz":""}},
{"type":"Feature","geometry":{"type":"Polygon","coordinates":[[[114.89,35.32],[114.6,35.71],[113.57,36.03],[113.24,35.97],[112.82,35.71],[112.09,35.64],[111.36,35.19],[110.59,35],[110.62,35.45],[110.73,35.9],[111.02,36.22],[110.89,36.29],[110.93,36.55],[110.75,36.67],[110.81,37],[110.8,37.32],[111,37.77],[111.34,38.16],[111.27,38.35],[111.55,38.61],[110.86,38.48],[110.4,38.16],[109.61,37.96],[109.53,37.96],[109.08,37.84],[107.91,37.84],[107.25,37.58],[106.25,37.45],[106.02,37.45],[105.68,37.38],[105.6,37.19],[106.92,37],[106.96,36.55],[107.12,36.35],[107.45,36.22],[107.45,36.03],[107.32,35.9],[106.93,35.9],[106.88,35.58],[106.5,35],[106.28,34.42],[106.39,34.1],[106.19,33.78],[106.37,33.65],[106.03,33.33],[107.13,33.2],[107.25,33.33],[107.48,33.33],[107.67,33.2],[107.65,32.94],[107.88,32.94],[108.1,33.14],[108.24,32.88],[109.16,32.88],[109.5,32.56],[109.88,32.56],[109.91,32.43],[110.17,32.3],[111.24,32.3],[111.62,32.49],[113.44,32.88],[114.41,34.16],[114.54,34.49],[114.44,34.61],[114.89,35.32]]]},"properties":{"NAME":"Later Qin","C":10,"name":"Later Qin","start_year":397,"end_year":401,"capital":"","type":"polity","region":"","event":"","source":"Cliopatria / Seshat Global History Databank (CC BY 4.0)","wikipedia":"Later Qin","wikidata":"Q1730130","_a":59,"_c":[110.25,35.46],"_nz":"后秦","_sz":""}},
{"type":"Feature","geometry":{"type":"Polygon","coordinates":[[[42.5,43.15],[42.53,43.28],[41.95,43.21],[40.74,43.6],[40.17,43.6],[40.22,43.41],[40.42,43.15],[40.82,43.15],[41.12,43.02],[41.61,42.63],[41.48,42.37],[41.7,42.24],[41.78,41.78],[41.59,41.59],[41.91,41.59],[41.97,41.46],[42.44,41.46],[42.62,41.59],[42.93,42.43],[42.72,42.56],[42.5,43.15]]]},"properties":{"NAME":"Lazica","C":2,"name":"Lazica","start_year":397,"end_year":401,"capital":"","type":"polity","region":"","event":"","source":"Cliopatria / Seshat Global History Databank (CC BY 4.0)","wikipedia":"Lazica","wikidata":"Q136884","_a":6,"_c":[41.46,42.53],"_nz":"拉齐卡","_sz":""}},
{"type":"Feature","geometry":{"type":"MultiPolygon","coordinates":[[[[24.16,35.52],[23.62,35.52],[23.68,35.26],[24.45,35.19],[24.76,35.19],[24.82,35],[26.14,35.07],[25.68,35.13],[25.69,35.32],[24.3,35.32],[24.16,35.52]]],[[[22.89,36.42],[22.87,36.16],[23.11,36.16],[23.12,36.35],[22.89,36.42]]],[[[24.99,37.71],[25.05,37.51],[25.29,37.51],[25.22,37.71],[24.99,37.71]]],[[[20.62,37.9],[20.61,37.71],[20.92,37.64],[20.93,37.9],[20.62,37.9]]],[[[24.69,38.03],[24.68,37.84],[24.83,37.71],[25.07,37.77],[24.69,38.03]]],[[[22.66,37.96],[22.59,38.16],[22.29,38.35],[21.74,38.42],[21.73,38.16],[21.42,38.16],[21.24,37.84],[21.47,37.77],[21.55,37.77],[21.88,38.09],[22.66,37.96]]],[[[20.33,38.35],[20.32,38.16],[20.79,38.09],[20.8,38.29],[20.57,38.42],[20.33,38.35]]],[[[23.56,38.74],[23.63,38.48],[24.09,38.35],[24.18,38.55],[23.8,38.74],[23.56,38.74]]],[[[20.67,38.87],[20.5,38.61],[20.73,38.61],[20.67,38.87]]],[[[24.36,39],[24.36,38.87],[24.66,38.74],[24.67,38.93],[24.36,39]]],[[[24.49,40.81],[24.55,40.55],[24.79,40.61],[24.81,40.81],[24.49,40.81]]],[[[40.1,34.29],[40.62,34.74],[40.77,34.74],[41.11,35],[41.12,35.71],[41.09,36.03],[41.58,36.22],[41.68,36.42],[41.27,36.87],[41.23,37.13],[40.44,37.06],[39.54,36.67],[38.61,36.74],[38.52,36.61],[36.87,36.42],[36.46,36.22],[36.27,35.9],[35.96,35.9],[35.84,35.58],[35.99,35.52],[35.93,34.87],[36.07,34.74],[36.05,34.55],[35.79,34.29],[35.68,33.97],[35.45,33.91],[35.5,33.65],[35.35,33.65],[35.4,33.39],[35.22,33.07],[35.06,33.01],[35.02,32.62],[34.77,32.36],[34.81,31.98],[34.57,31.85],[34.63,31.66],[34.31,31.4],[34.3,31.27],[33.98,31.14],[32.83,31.01],[32.77,31.14],[32.53,31.08],[32,31.08],[31.88,31.46],[31.27,31.46],[30.97,31.53],[30.81,31.46],[30.35,31.46],[30.34,31.27],[29.88,31.27],[29.87,31.08],[29.4,30.82],[28.87,30.82],[28.5,31.01],[27.51,31.14],[27.3,31.34],[26.85,31.46],[25.25,31.46],[25.1,31.59],[25.11,31.79],[24.89,31.98],[24.13,31.98],[23.68,32.17],[23.3,32.17],[23.08,32.36],[23.09,32.62],[21.88,32.94],[21.41,32.75],[21.11,32.81],[20.87,32.62],[20.33,32.49],[20.25,32.24],[20.09,32.11],[20,31.59],[20.21,31.27],[20.13,31.14],[20.2,30.89],[19.97,30.69],[19.96,30.56],[19.66,30.37],[18.82,30.24],[18.81,30.05],[19.19,30.05],[20.95,30.56],[21.94,30.56],[22.54,30.44],[22.92,30.31],[23.51,29.99],[24.26,29.79],[24.33,29.67],[24.78,29.54],[25.15,29.28],[25.37,29.28],[25.59,28.96],[27.14,28.25],[28.15,27.35],[28.27,26.58],[28.35,26.58],[28.24,25.94],[28.29,25.16],[28.57,24.65],[29.67,24.2],[30.1,23.75],[30.4,23.56],[30.54,23.36],[31.67,23.75],[32.04,23.69],[33.39,23.81],[33.68,23.69],[35.11,23.88],[35.55,23.81],[35.56,23.94],[35.85,23.88],[35.86,24.01],[35.15,24.65],[34.61,25.81],[34.46,25.87],[34.2,26.52],[34.05,26.58],[34.07,26.97],[33.93,27.03],[33.8,27.42],[33.59,27.61],[33.61,27.99],[33.11,28.38],[32.84,28.89],[32.69,28.96],[32.44,29.79],[32.59,29.73],[32.86,29.22],[33.15,29.02],[33.19,28.51],[33.4,28.32],[33.55,28.32],[33.62,28.12],[34.12,27.74],[34.35,27.74],[34.36,27.93],[34.52,28.06],[34.75,29.28],[34.91,29.41],[34.85,28.57],[34.61,28.25],[34.59,28.06],[35.2,28.06],[35.48,28.89],[35.81,29.22],[35.77,29.73],[35.85,29.73],[36.16,30.76],[36.4,30.95],[36.39,31.66],[36.75,32.3],[36.72,32.75],[37.07,33.26],[37.99,33.97],[39.12,34.49],[39.51,34.49],[40.1,34.29]]],[[[34.09,35],[33.96,35.26],[34.53,35.58],[34.31,35.71],[33.74,35.39],[32.89,35.39],[32.88,35.26],[32.55,35.13],[32.25,35.13],[32.23,34.94],[32.37,34.74],[33.04,34.55],[33.13,34.68],[33.52,34.74],[33.7,34.94],[34.09,35]]],[[[27.69,36.29],[27.74,35.9],[28.14,36.03],[28.25,36.48],[28.02,36.48],[27.69,36.29]]],[[[38.91,37.25],[38.67,37.25],[38.65,37.06],[38.88,37.06],[38.91,37.25]]],[[[25.9,38.48],[25.88,38.16],[26.11,38.16],[26.22,38.55],[25.91,38.67],[25.9,38.48]]],[[[26.09,39],[26.25,38.93],[26.64,39],[26.51,39.32],[26.04,39.38],[25.79,39.19],[26.1,39.13],[26.09,39]]],[[[25.07,40.03],[24.97,39.84],[25.45,39.84],[25.46,40.03],[25.07,40.03]]],[[[25.72,40.29],[25.7,40.1],[26.02,40.16],[26.04,40.29],[25.72,40.29]]],[[[23.49,38.8],[23.34,39],[23.11,39],[22.82,39.38],[23.14,39.45],[22.61,39.9],[22.54,40.1],[22.65,40.61],[23.27,40.29],[23.74,40.23],[23.84,40.55],[23.68,40.61],[23.7,40.81],[24.01,40.74],[24.35,41],[25.85,40.94],[26.08,40.87],[26.14,40.61],[26.55,40.74],[27.02,40.68],[27.53,41.07],[29.12,41.07],[29.1,40.94],[29.39,40.68],[28.91,40.61],[29.05,40.36],[27.94,40.36],[27.7,40.29],[27.47,40.42],[26.67,40.36],[26.6,40.48],[26.27,40.29],[26.13,39.51],[26.85,39.58],[26.74,39.26],[26.96,39],[26.85,38.61],[27.08,38.55],[27.06,38.35],[26.59,38.35],[26.54,38.61],[26.38,38.67],[26.43,38.22],[26.82,38.22],[26.89,38.09],[27.28,38.03],[27.16,37.58],[27.54,37.38],[27.6,37.13],[28.07,37.13],[28.14,37.06],[28.03,36.67],[28.19,36.67],[28.36,36.87],[28.59,36.87],[28.74,36.74],[29.12,36.74],[29.24,36.22],[29.94,36.22],[30.03,36.35],[30.49,36.35],[30.62,36.93],[31.09,36.93],[32.07,36.61],[32.71,36.03],[33.27,36.22],[33.98,36.29],[34.25,36.67],[34.58,36.87],[34.89,36.87],[35.33,36.61],[35.49,36.61],[35.83,36.93],[35.98,36.87],[36.02,37.19],[36.37,37.51],[36.33,37.84],[36.5,37.96],[36.55,38.42],[36.83,38.74],[36.78,39],[36.92,39.45],[38.27,40.16],[38.93,40.29],[39.78,40.74],[40.1,40.74],[40.21,40.94],[39.74,40.94],[39.05,41.13],[38.78,40.94],[38.3,40.87],[38.16,41],[37.83,40.94],[37.77,41.07],[37.21,41.07],[36.77,41.33],[36.21,41.26],[35.95,41.72],[35.16,41.72],[35.12,42.04],[34.88,42.04],[34.78,41.91],[32.63,41.91],[32.69,41.78],[32.03,41.52],[31.53,41.39],[31.18,41.07],[30.62,41.07],[30.48,41.2],[28.96,41.13],[28.98,41.26],[28.51,41.33],[28.28,41.46],[28.22,41.65],[27.98,41.65],[27.94,42.04],[27.49,42.43],[27.51,42.63],[27.85,42.76],[27.8,43.15],[27.9,43.28],[28.23,43.34],[28.48,43.47],[28.62,43.99],[28.58,44.39],[28.84,44.58],[28.8,44.97],[29.05,44.97],[29.11,44.78],[29.53,44.91],[29.66,45.37],[29.58,45.43],[29.1,45.43],[28.67,45.24],[28.35,45.3],[28.28,45.43],[27.87,45.37],[27.85,45.17],[28,45.04],[27.97,44.78],[27.8,44.71],[27.94,44.52],[27.83,44.19],[27.49,44.06],[26.28,44.06],[25.85,43.73],[25.43,43.6],[24.88,43.73],[24.15,43.67],[23.6,43.86],[22.95,43.8],[22.89,44.12],[22.5,44.32],[22.52,44.52],[21.95,44.52],[21.88,44.65],[21.41,44.84],[20.75,44.71],[20.52,44.91],[20.53,45.1],[20.29,45.17],[19.94,44.71],[19.84,44.32],[19.67,44.25],[19.66,44.06],[19.41,43.93],[19.47,43.6],[19.3,43.41],[19.46,43.28],[19.11,42.82],[19.17,42.3],[19.01,42.24],[19,42.17],[19.54,41.78],[19.45,41.52],[19.5,40.87],[19.33,40.74],[19.73,40.81],[20.19,40.42],[20.43,40.42],[20.49,40.16],[20.81,40.1],[21.09,39.51],[21.47,39.26],[21.53,38.93],[22.94,38.87],[23.18,38.93],[23.49,38.8]]]]},"properties":{"NAME":"Eastern Roman Empire","C":11,"name":"Eastern Roman Empire","start_year":397,"end_year":401,"capital":"","type":"polity","region":"","event":"","source":"Cliopatria / Seshat Global History Databank (CC BY 4.0)","wikipedia":"Byzantine Empire","wikidata":"Q12544","_a":603,"_c":[28.01,34.39],"_nz":"东罗马帝国","_sz":""}},
{"type":"Feature","geometry":{"type":"MultiPolygon","coordinates":[[[[44.24,41.26],[43.34,41.13],[42.86,41.59],[42.62,41.59],[42.44,41.46],[41.97,41.46],[41.91,41.59],[41.59,41.59],[41.31,41.33],[40.54,41],[40.39,41.07],[40.21,40.94],[40.1,40.74],[39.78,40.74],[38.93,40.29],[38.27,40.16],[36.92,39.45],[36.78,39],[36.83,38.74],[36.55,38.42],[36.5,37.96],[36.33,37.84],[36.37,37.51],[36.02,37.19],[35.98,36.87],[36.14,36.93],[36.29,36.8],[36.26,36.61],[35.85,36.35],[35.99,36.22],[35.96,35.9],[36.27,35.9],[36.46,36.22],[36.87,36.42],[38.52,36.61],[38.61,36.74],[39.54,36.67],[40.44,37.06],[41.23,37.13],[41.12,38.03],[41.67,38.03],[41.97,37.96],[42.03,37.84],[42.51,37.9],[42.8,37.77],[44.03,37.64],[44.05,37.77],[44.31,37.9],[44.36,38.22],[44.7,38.42],[44.72,39],[44.99,39.26],[45.23,39.26],[45.29,39.13],[45.87,38.87],[46.34,38.87],[46.51,38.93],[46.56,39.19],[47.12,39.71],[47.05,39.77],[46.77,39.97],[46.46,39.97],[46.2,40.29],[45.59,40.42],[45.46,40.55],[45.6,40.87],[45.3,41],[45.11,41.26],[44.24,41.26]],[[38.91,37.25],[38.88,37.06],[38.65,37.06],[38.67,37.25],[38.91,37.25]]],[[[35.02,45.3],[34.99,45.63],[34.74,45.63],[34.54,45.96],[34.15,46.09],[33.74,46.02],[33.71,45.82],[33.04,45.69],[32.92,45.43],[33.61,45.1],[33.52,44.45],[33.93,44.45],[34.38,44.78],[35.3,44.97],[35.41,45.17],[35.73,45.17],[35.88,45.04],[36.37,45.1],[36.42,45.43],[35.02,45.3]]],[[[29.58,45.43],[29.61,45.69],[29.86,45.69],[30.04,45.89],[30.3,45.96],[30.88,46.68],[31.61,46.61],[31.79,46.74],[32.19,46.68],[32.06,46.35],[32.68,46.09],[32.95,46.22],[33.59,46.15],[33.61,46.28],[34.02,46.28],[34.08,46.15],[34.74,46.15],[34.76,46.28],[35.25,46.28],[35.63,46.68],[36.8,46.81],[36.91,46.94],[37.52,47.14],[38.68,47.2],[39.2,47.33],[39.27,47.27],[39.13,46.94],[38.89,47.01],[38.62,46.87],[38.49,46.61],[37.84,46.61],[37.9,46.48],[38.37,46.35],[38.33,46.15],[37.89,45.96],[37.7,45.3],[36.97,45.3],[36.78,45.1],[37.26,45.04],[37.53,44.71],[38.01,44.71],[38.22,44.45],[38.61,44.39],[38.75,44.25],[39.6,44.52],[40.32,44.45],[41.01,44.71],[41.33,44.65],[42.57,44.78],[43.15,44.45],[43.13,44.32],[43.4,44.06],[43.38,43.93],[44.08,43.8],[44.13,43.67],[44.79,43.73],[45.08,43.6],[45.61,43.8],[46.27,43.86],[46.75,43.86],[46.95,43.67],[46.92,43.54],[47.41,43.54],[47.34,43.99],[47.01,44.32],[46.63,44.45],[46.69,44.71],[47.04,44.84],[47.1,45.1],[47.48,45.37],[47.57,45.76],[48.06,45.76],[48.35,45.96],[48.59,45.96],[48.64,46.15],[49.06,46.22],[49.3,46.55],[49.99,46.68],[50.3,46.94],[50.84,47.14],[51.58,47.14],[51.86,46.94],[53.11,47.01],[53.24,46.87],[53.25,45.96],[53.07,45.89],[53.06,45.56],[53.42,45.37],[53.67,45.37],[53.88,45.56],[54.29,45.56],[54.56,46.28],[54.52,46.74],[53.68,47.6],[53.24,47.8],[52.02,47.86],[49.97,47.6],[49.58,47.33],[49.41,47.33],[48.71,46.81],[48.38,46.81],[47.7,46.35],[47.46,46.35],[46.93,46.94],[46.77,46.94],[46.43,47.27],[46.64,47.47],[46.34,47.6],[45.73,48.19],[44.96,48.46],[43.22,48.46],[43,48.59],[42.42,48.59],[42.45,48.72],[39.51,48.59],[38.77,49.05],[38.79,49.18],[38.5,49.38],[38.35,49.91],[38.39,50.11],[38.13,50.11],[37.73,50.65],[37.41,50.71],[37.05,51.05],[36.88,51.05],[36.77,51.31],[35.68,51.38],[35.3,51.18],[34.52,51.05],[34.32,50.85],[33.96,50.71],[33.63,50.78],[33.42,50.51],[32.2,50.25],[31.44,50.25],[30.42,50.71],[29.76,50.85],[29.24,50.78],[27.91,50.91],[27.51,51.05],[25.48,51.05],[24.36,50.85],[24.01,50.71],[23.99,50.51],[23.65,50.45],[22.66,49.71],[22.62,49.25],[22.78,49.18],[22.83,48.79],[22.99,48.65],[22.95,48.19],[22.6,47.86],[22.67,47.73],[22.48,47.47],[22.31,47.4],[22.29,47.07],[22.03,46.81],[22.01,46.55],[21.74,46.15],[21.49,46.09],[20.75,46.09],[20.59,46.22],[20.19,46.22],[20,45.82],[20.06,45.37],[20.29,45.17],[20.53,45.1],[20.52,44.91],[20.75,44.71],[21.41,44.84],[21.88,44.65],[21.95,44.52],[22.52,44.52],[22.5,44.32],[22.89,44.12],[22.95,43.8],[23.6,43.86],[24.15,43.67],[24.88,43.73],[25.43,43.6],[25.85,43.73],[26.28,44.06],[27.49,44.06],[27.83,44.19],[27.94,44.52],[27.8,44.71],[27.97,44.78],[28,45.04],[27.85,45.17],[27.87,45.37],[28.28,45.43],[28.35,45.3],[28.67,45.24],[29.1,45.43],[29.58,45.43]]]]},"properties":{"NAME":"Huns","C":6,"name":"Huns","start_year":397,"end_year":406,"capital":"","type":"polity","region":"","event":"","source":"Cliopatria / Seshat Global History Databank (CC BY 4.0)","wikipedia":"Huns","wikidata":"Q45813","_a":535,"_c":[37.28,43.64],"_nz":"匈人","_sz":""}},
{"type":"Feature","geometry":{"type":"Polygon","coordinates":[[[77.8,41.52],[76.98,41.46],[76.65,41.65],[76.8,41.85],[76.24,41.85],[76.21,42.43],[75.76,42.5],[75.88,42.82],[75.74,42.89],[75.04,42.95],[74.3,43.34],[74.01,43.21],[72.5,43.02],[71.46,43.02],[70.99,42.82],[70.49,42.3],[69.73,42.17],[69.53,42.04],[68.17,42.04],[66.39,42.24],[66.03,42.37],[62.76,42.37],[62.36,42.11],[62.29,41.85],[62.45,41.59],[62.34,41.46],[62.6,41.26],[62.56,41.13],[62.76,41],[62.77,40.74],[63.02,40.48],[62.95,40.23],[62.58,40.03],[62.61,39.84],[63.05,39.71],[63.7,39.19],[64.26,38.93],[64.5,38.93],[65.11,38.55],[65.3,38.67],[67.27,39],[69.48,39.06],[71.84,39.32],[72.37,39.26],[72.49,39.38],[73.1,39.32],[73.3,39.45],[73.69,39.45],[73.77,39.45],[76.6,38.93],[77.16,38.74],[77.47,38.48],[78.03,38.74],[78.34,39.45],[78.26,39.45],[78.36,40.23],[78.39,40.74],[78.24,41],[78.05,41.13],[78.04,41.33],[77.8,41.52]]]},"properties":{"NAME":"Xionites","C":1,"name":"Xionites","start_year":397,"end_year":401,"capital":"","type":"polity","region":"","event":"","source":"Cliopatria / Seshat Global History Databank (CC BY 4.0)","wikipedia":"Xionites","wikidata":"Q26264","_a":78,"_c":[70.34,40.91],"_nz":"匈尼特人","_sz":""}},
{"type":"Feature","geometry":{"type":"Polygon","coordinates":[[[102.26,39.77],[100.89,39.71],[100.56,39.84],[100.54,39.97],[100.12,40.1],[99.38,40.03],[99.28,40.16],[98.95,40.29],[98.5,40.36],[98.22,40.61],[97.91,40.61],[97.89,40.74],[97.63,40.87],[96.9,41],[96.93,41.07],[95.23,41],[93.92,40.74],[93.85,40.74],[93.57,40.48],[93.36,40.55],[93.28,40.16],[93.09,39.9],[93.27,39.77],[93.3,39.45],[93.51,39.38],[93.88,39.51],[94.58,39.51],[95.06,39.32],[95.32,39.38],[95.55,39.19],[95.81,38.87],[96.36,38.67],[96.7,38.74],[96.76,39.45],[97.21,39.38],[97.91,39],[98.22,39],[98.38,39.19],[98.91,39.13],[99.2,39.26],[99.81,38.48],[100.23,38.35],[100.41,38.61],[100.54,38.35],[100.7,38.35],[101.29,39],[102.01,39.38],[102.26,39.77]]]},"properties":{"NAME":"Northern Liang","C":1,"name":"Northern Liang","start_year":397,"end_year":401,"capital":"","type":"polity","region":"","event":"","source":"Cliopatria / Seshat Global History Databank (CC BY 4.0)","wikipedia":"Northern Liang","wikidata":"Q1539360","_a":25,"_c":[97.68,39.71],"_nz":"北凉","_sz":""}},
{"type":"Feature","geometry":{"type":"Polygon","coordinates":[[[103.36,34.23],[103.74,35.45],[103.7,35.77],[104.35,36.61],[102.87,36.61],[102.92,36.35],[102.8,36.03],[102.62,35.97],[102.57,35.64],[102.24,35.58],[102.03,35.45],[102.14,35.32],[101.99,35.13],[101.61,34.94],[102.1,34.81],[101.93,34.55],[102.22,34.49],[103.06,34.49],[103.02,34.36],[103.36,34.23]]]},"properties":{"NAME":"Southern Liang","C":1,"name":"Southern Liang","start_year":397,"end_year":409,"capital":"","type":"polity","region":"","event":"","source":"Cliopatria / Seshat Global History Databank (CC BY 4.0)","wikipedia":"Liang dynasty","wikidata":"Q1069868","_a":7,"_c":[102.98,35.42],"_nz":"南凉","_sz":""}},
{"type":"Feature","geometry":{"type":"Polygon","coordinates":[[[45.7,42.24],[45.68,42.56],[45.44,42.56],[45.16,42.76],[44.69,42.82],[43.78,42.69],[43.74,42.89],[43.2,43.02],[42.92,43.21],[42.5,43.15],[42.72,42.56],[42.93,42.43],[42.62,41.59],[42.86,41.59],[43.34,41.13],[44.24,41.26],[44.35,41.46],[44.77,41.59],[45.07,41.91],[45.31,41.91],[45.54,42.24],[45.7,42.24]]]},"properties":{"NAME":"Caucasian Iberia","C":6,"name":"Caucasian Iberia","start_year":397,"end_year":401,"capital":"","type":"polity","region":"","event":"","source":"Cliopatria / Seshat Global History Databank (CC BY 4.0)","wikipedia":"Kingdom of Iberia","wikidata":"Q19083","_a":7,"_c":[44.1,42.17],"_nz":"高加索伊比利亚","_sz":""}},
{"type":"Feature","geometry":{"type":"MultiPolygon","coordinates":[[[[50.65,25.87],[50.69,26.26],[50.46,26.26],[50.43,25.94],[50.65,25.87]]],[[[62.58,40.03],[62.5,40.03],[61.2,39.58],[60.71,39.51],[60.68,39.71],[60.05,39.71],[59.77,39.84],[59.77,40.16],[58.98,40.16],[58.85,40.29],[58.54,40.29],[58.33,40.42],[57.35,40.29],[57.24,40.16],[56.99,40.42],[56.65,40.36],[54.54,40.81],[53.4,40.68],[52.94,40.74],[52.79,40.42],[52.72,40.1],[53.5,40.03],[53.52,39.38],[53.99,39],[53.83,37.84],[53.91,37.45],[54.09,37.19],[54.03,36.87],[53.09,36.8],[52.19,36.55],[51.64,36.55],[50.82,36.74],[50.32,37],[50,37.38],[49.09,37.51],[48.83,37.84],[48.84,38.35],[48.77,38.8],[48.92,39.19],[48.67,39.58],[48.3,39.71],[47.12,39.71],[46.56,39.19],[46.51,38.93],[46.34,38.87],[45.87,38.87],[45.29,39.13],[45.23,39.26],[44.99,39.26],[44.72,39],[44.7,38.42],[44.36,38.22],[44.31,37.9],[44.05,37.77],[44.03,37.64],[42.8,37.77],[42.51,37.9],[42.03,37.84],[41.97,37.96],[41.67,38.03],[41.12,38.03],[41.23,37.13],[41.27,36.87],[41.68,36.42],[41.58,36.22],[41.09,36.03],[41.12,35.71],[41.11,35],[40.77,34.74],[40.62,34.74],[40.1,34.29],[40.7,34.16],[40.91,33.97],[41.21,33.91],[41.49,33.65],[42,33.46],[42.21,33.26],[42.58,33.14],[42.71,32.94],[43.15,32.81],[43.35,32.56],[43.7,32.24],[43.92,32.17],[43.9,32.04],[44.73,31.98],[44.86,31.72],[44.81,31.34],[45.1,31.21],[45.08,31.08],[45.77,30.44],[46.45,30.37],[46.66,30.24],[46.7,29.92],[47.65,29.67],[47.53,29.28],[48.21,28.57],[48.25,28.19],[48.53,27.99],[48.55,27.48],[49.06,27.29],[49.27,27.09],[49.25,26.97],[49.88,26.45],[49.67,25.87],[50.03,25.68],[50.34,24.97],[50.62,24.65],[50.92,24.71],[51.12,25.29],[50.98,25.42],[51.23,25.68],[51.35,25.36],[51.29,24.71],[51.1,24.2],[51.17,24.07],[51.82,23.88],[51.88,23.69],[54.27,23.75],[54.81,23.94],[55.62,24.65],[55.84,24.59],[55.86,24.78],[56.09,24.84],[56.29,24.59],[56.27,24.39],[56.49,24.33],[56.54,24.07],[56.82,23.88],[56.81,23.75],[57.83,23.49],[57.96,23.3],[58.33,23.3],[58.61,23.04],[58.91,23.04],[58.9,22.91],[59.27,22.91],[59.28,23.04],[59.07,23.17],[59.08,23.3],[58.81,23.62],[57.49,23.88],[56.79,24.33],[56.54,24.91],[56.4,24.97],[56.46,25.55],[56.39,25.55],[56.54,26.32],[56.48,26.39],[56.17,26.32],[55.97,25.87],[55.41,25.55],[55.14,25.1],[54.74,24.84],[54.56,24.46],[54.32,24.26],[54.1,24.33],[54.08,24.14],[53.11,24.14],[52.6,24.26],[52.28,24.01],[51.91,24.01],[51.85,24.26],[51.41,24.33],[51.52,24.78],[51.69,24.97],[51.72,25.29],[51.57,25.36],[51.7,25.87],[51.42,26.13],[51.12,26.13],[50.95,25.94],[50.92,25.62],[50.61,25.42],[50.33,25.62],[50.21,26],[50.25,26.45],[50.12,26.58],[50.13,26.77],[49.36,27.29],[49.24,27.61],[48.87,27.67],[48.97,27.93],[48.56,28.32],[48.46,28.77],[48.19,29.09],[48.22,29.28],[47.87,29.54],[48.4,29.6],[48.37,29.92],[48.99,30.05],[48.94,30.31],[49.59,29.99],[50.06,30.18],[50.24,29.73],[50.65,29.41],[50.62,29.15],[50.92,29.09],[50.81,28.83],[51.03,28.77],[51.07,28.44],[51.33,28.12],[51.32,27.99],[51.6,27.8],[52.05,27.8],[52.48,27.61],[52.74,27.22],[53.46,26.97],[53.66,26.71],[54.26,26.71],[54.46,26.52],[54.83,26.45],[55.24,26.77],[55.29,26.52],[55.6,26.64],[56.06,26.71],[56.31,26.9],[56.19,27.16],[56.71,27.16],[57.05,26.84],[57.18,25.94],[57.38,25.74],[57.68,25.74],[57.74,25.62],[57.96,25.55],[58.78,25.55],[59.06,25.36],[60.63,25.36],[60.62,25.23],[60.92,25.23],[61.13,25.1],[61.66,25.16],[61.72,25.04],[62.02,25.04],[62.18,25.16],[62.47,25.1],[62.56,25.23],[63.54,25.23],[63.63,25.36],[64.23,25.36],[64.28,25.23],[64.8,25.16],[64.82,25.29],[66.02,25.36],[66.35,25.55],[66.62,25.36],[66.64,24.91],[67.11,25.1],[67.21,25.29],[67.5,25.81],[67.2,26.32],[67.17,27.22],[67.06,27.48],[67.01,28.57],[66.93,28.57],[67.21,29.79],[67.52,30.24],[67.96,30.56],[68.29,31.08],[69,31.59],[69.02,31.72],[68.94,32.04],[68.61,32.3],[68.64,32.43],[68.38,32.69],[68.09,32.75],[68.12,32.88],[67.42,33.2],[67.22,33.33],[66.99,33.33],[66.88,33.52],[66.52,33.65],[66.41,33.84],[66.25,33.84],[66.02,34.16],[65.86,34.16],[65.75,34.36],[65.46,34.42],[65.14,34.74],[65.17,34.87],[64.9,35.07],[64.9,35.39],[64.77,35.52],[64.76,36.16],[65.11,38.55],[64.5,38.93],[64.26,38.93],[63.7,39.19],[63.05,39.71],[62.61,39.84],[62.58,40.03]]]]},"properties":{"NAME":"Sasanian Empire","C":8,"name":"Sasanian Empire","start_year":397,"end_year":401,"capital":"","type":"polity","region":"","event":"","source":"Cliopatria / Seshat Global History Databank (CC BY 4.0)","wikipedia":"Sasanian Empire","wikidata":"Q1661685","_a":519,"_c":[54.56,31.89],"_nz":"萨珊帝国","_sz":""}},
{"type":"Feature","geometry":{"type":"Polygon","coordinates":[[[106.03,33.33],[106.37,33.65],[106.19,33.78],[106.39,34.1],[106.28,34.42],[106.5,35],[106.88,35.58],[106.93,35.9],[107.32,35.9],[107.45,36.03],[107.45,36.22],[107.12,36.35],[106.96,36.55],[106.92,37],[105.6,37.19],[104.74,37],[104.35,36.61],[103.7,35.77],[103.74,35.45],[103.36,34.23],[103.49,33.97],[103.21,33.39],[104.7,33.26],[105.17,33.07],[105.7,33.07],[106.03,33.33]]]},"properties":{"NAME":"Western Qin","C":0,"name":"Western Qin","start_year":397,"end_year":401,"capital":"","type":"polity","region":"","event":"","source":"Cliopatria / Seshat Global History Databank (CC BY 4.0)","wikipedia":"Western Qin","wikidata":"Q1668970","_a":17,"_c":[105.33,35.13],"_nz":"西秦","_sz":""}},
{"type":"Feature","geometry":{"type":"Polygon","coordinates":[[[122.93,41.91],[123.29,42.5],[123.63,43.15],[123.56,43.41],[123.4,43.54],[120.67,43.54],[119.37,43.28],[117.89,43.21],[115.69,42.76],[113.82,42.17],[113.04,41.78],[112.52,41.26],[111.57,40.68],[110.14,40.23],[107.96,39.97],[107.23,39.77],[107.52,39.38],[107.1,38.48],[106.25,37.45],[107.25,37.58],[107.91,37.84],[109.08,37.84],[109.53,37.96],[109.61,37.96],[110.4,38.16],[110.86,38.48],[111.55,38.61],[111.27,38.35],[111.34,38.16],[111,37.77],[110.8,37.32],[110.81,37],[110.75,36.67],[110.93,36.55],[110.89,36.29],[111.02,36.22],[110.73,35.9],[110.62,35.45],[110.59,35],[111.36,35.19],[112.09,35.64],[112.82,35.71],[113.24,35.97],[113.57,36.03],[114.01,36.67],[113.94,37.19],[114.5,38.22],[114.3,38.61],[114.05,38.74],[114.19,39.19],[114.59,39.19],[114.91,39.51],[115,39.84],[115.56,40.16],[116.35,40.87],[117.76,41.39],[118.83,41.46],[119.39,41.33],[121.02,41.26],[122.93,41.91]]]},"properties":{"NAME":"Northern Wei","C":3,"name":"Northern Wei","start_year":397,"end_year":401,"capital":"","type":"polity","region":"","event":"","source":"Cliopatria / Seshat Global History Databank (CC BY 4.0)","wikipedia":"Northern Wei","wikidata":"Q875305","_a":149,"_c":[114.95,39.27],"_nz":"北魏","_sz":""}},
{"type":"Feature","geometry":{"type":"Polygon","coordinates":[[[100.7,38.35],[100.54,38.35],[100.41,38.61],[100.23,38.35],[99.81,38.48],[99.2,39.26],[98.91,39.13],[98.38,39.19],[98.22,39],[97.91,39],[97.21,39.38],[96.76,39.45],[96.7,38.74],[96.36,38.67],[95.81,38.87],[95.55,39.19],[95.32,39.38],[95.06,39.32],[94.58,39.51],[93.88,39.51],[93.51,39.38],[93.3,39.45],[93.01,39.32],[92.25,39.38],[91.54,39.19],[90.49,39.13],[88.72,38.8],[88.96,38.61],[89.6,38.42],[89.71,38.29],[89.94,38.29],[90.05,38.16],[90.28,38.16],[90.39,38.03],[92.6,37.64],[94.7,37],[95.5,36.87],[95.9,36.67],[96.21,36.67],[96.4,36.55],[100.01,35.84],[101.69,35.77],[102.26,35.64],[102.24,35.58],[102.57,35.64],[102.62,35.97],[102.8,36.03],[102.92,36.35],[102.87,36.61],[102.61,36.93],[102.69,37.13],[102.53,37.32],[102.25,37.38],[102.09,37.58],[102.1,37.77],[101.7,37.58],[101.55,37.77],[101.26,37.84],[101.24,37.96],[100.87,38.03],[100.7,38.35]]]},"properties":{"NAME":"Tuyuhun","C":8,"name":"Tuyuhun","start_year":397,"end_year":401,"capital":"无固定都城（游牧）","type":"polity","region":"tibet","event":"","source":"Cliopatria / Seshat Global History Databank (CC BY 4.0)","wikipedia":"Tuyuhun","wikidata":"Q1196201","_a":56,"_c":[95.82,37.55],"_nz":"吐谷浑","_sz":""}},
{"type":"Feature","geometry":{"type":"Polygon","coordinates":[[[106.02,37.45],[105.74,37.71],[105.35,37.71],[105.33,37.84],[104.41,37.71],[104.31,37.84],[103.71,37.9],[103.75,38.16],[103.96,38.29],[103.78,38.42],[104.11,38.8],[103.61,38.74],[103.94,39.13],[104.48,39.45],[104.73,39.64],[104.61,39.9],[102.26,39.77],[102.01,39.38],[101.29,39],[100.7,38.35],[100.87,38.03],[101.24,37.96],[101.26,37.84],[101.55,37.77],[101.7,37.58],[102.1,37.77],[102.09,37.58],[102.25,37.38],[102.53,37.32],[102.69,37.13],[102.61,36.93],[102.87,36.61],[104.35,36.61],[104.74,37],[105.6,37.19],[105.68,37.38],[106.02,37.45]]]},"properties":{"NAME":"Later Liang","C":9,"name":"Later Liang","start_year":397,"end_year":401,"capital":"","type":"polity","region":"","event":"","source":"Cliopatria / Seshat Global History Databank (CC BY 4.0)","wikipedia":"Later Liang (Sixteen Kingdoms)","wikidata":"Q2314869","_a":18,"_c":[103.38,38.25],"_nz":"后梁","_sz":""}},
{"type":"Feature","geometry":{"type":"Polygon","coordinates":[[[21.47,37.77],[21.7,37.51],[21.68,37.19],[21.91,37.06],[22.22,37.06],[22.36,36.67],[22.51,36.67],[22.6,36.87],[22.83,36.87],[22.85,37.25],[22.7,37.32],[22.71,37.58],[22.95,37.58],[23.4,37.32],[23.34,37.64],[23.11,37.64],[23.04,37.9],[23.21,38.03],[23.44,38.03],[23.98,37.84],[24.08,38.29],[23.7,38.48],[23.31,38.48],[22.94,38.8],[22.94,38.87],[21.53,38.93],[21.47,39.26],[21.09,39.51],[20.81,40.1],[20.49,40.16],[20.43,40.42],[20.19,40.42],[19.73,40.81],[19.33,40.74],[19.49,40.61],[19.47,40.29],[19.63,40.29],[20.01,39.97],[19.92,39.71],[20.15,39.71],[20.3,39.38],[20.91,39.06],[20.74,38.8],[20.97,38.74],[21.19,38.42],[22.6,38.42],[22.99,38.29],[23.06,38.16],[22.97,37.96],[22.66,37.96],[21.88,38.09],[21.55,37.77],[21.47,37.77]]]},"properties":{"NAME":"Visigoths","C":10,"name":"Visigoths","start_year":397,"end_year":401,"capital":"","type":"polity","region":"","event":"","source":"Cliopatria / Seshat Global History Databank (CC BY 4.0)","wikipedia":"Visigoths","wikidata":"Q23693","_a":20,"_c":[21.67,38.74],"_nz":"西哥特人","_sz":""}}
]}