{"type":"FeatureCollection", "features": [
{"type":"Feature","geometry":{"type":"Polygon","coordinates":[[[48.06,32.3],[48.22,31.79],[48.52,31.79],[48.54,31.91],[48.86,32.04],[48.9,32.3],[48.32,32.56],[48.06,32.3]]]},"properties":{"NAME":"Elam","C":11,"name":"Elam","start_year":-3200,"end_year":-2701,"capital":"","type":"polity","region":"","event":"","source":"Cliopatria / Seshat Global History Databank (CC BY 4.0)","wikipedia":"Elam","wikidata":"Q128904","_a":1,"_c":[48.43,32.17],"_nz":"埃兰","_sz":""}},
{"type":"Feature","geometry":{"type":"Polygon","coordinates":[[[46.54,31.79],[46.45,32.3],[46.61,32.94],[46.16,33.01],[46.15,33.46],[45.74,33.26],[45.55,33.01],[45.02,33.07],[44.75,33.33],[44.43,33.2],[44.16,32.94],[44.19,32.56],[44.32,32.36],[44.71,32.43],[44.83,32.17],[45.06,32.17],[45.2,32.04],[45.81,30.76],[46.44,30.31],[46.59,30.31],[46.7,30.56],[47.24,30.63],[47.3,31.14],[46.84,31.14],[46.53,31.72],[46.54,31.79]]]},"properties":{"NAME":"Sumerian City-States","C":10,"name":"Sumerian City-States","start_year":-3000,"end_year":-2701,"capital":"","type":"polity","region":"","event":"","source":"Cliopatria / Seshat Global History Databank (CC BY 4.0)","wikipedia":"History of Sumer","wikidata":"Q2345840","_a":10,"_c":[45.73,31.89],"_nz":"苏美尔城邦","_sz":""}},
{"type":"Feature","geometry":{"type":"Polygon","coordinates":[[[31.1,31.6],[30.36,31.5],[30.29,31.24],[30.06,31.32],[29.5,30.95],[29.5,30.5],[30.12,30.07],[30.38,29.72],[30.39,29.42],[30.03,29.19],[29.95,28.92],[30.05,28.77],[30.45,28.71],[30.75,27.23],[31.62,26.43],[31.85,25.94],[32.54,25.89],[32.35,25.73],[32.24,25.31],[32.64,25.01],[32.76,24.71],[32.75,24],[33.13,24],[33.11,25.04],[32.9,25.17],[32.69,25.49],[32.95,25.89],[32.9,26.19],[32.17,26.41],[31.52,27],[31.38,27.27],[30.98,27.42],[30.93,28.03],[31,28.51],[31.37,29.31],[31.87,29.27],[32.54,29.41],[32.34,29.59],[32.48,29.94],[32.85,30.16],[32.73,30.56],[32.76,30.87],[32.69,31.04],[32.33,31.27],[32.14,31.07],[31.78,31.28],[31.91,31.53],[31.56,31.44],[31.1,31.6]]]},"properties":{"NAME":"Early Dynastic Period of Egypt","C":5,"name":"Early Dynastic Period of Egypt","start_year":-3000,"end_year":-2701,"capital":"","type":"polity","region":"","event":"","source":"Cliopatria / Seshat Global History Databank (CC BY 4.0)","wikipedia":"Early Dynastic Period (Egypt)","wikidata":"Q187979","_a":28,"_c":[31.32,27.8],"_nz":"早王朝时期埃及","_sz":""}},
{"type":"Feature","geometry":{"type":"Polygon","coordinates":[[[68.05,27.03],[68.2,26.52],[68.5,26.52],[68.52,26.64],[68.84,26.77],[68.87,27.03],[68.59,27.16],[68.61,27.29],[68.31,27.29],[68.05,27.03]]]},"properties":{"NAME":"Indus Valley Civilization","C":11,"name":"Indus Valley Civilization","start_year":-3000,"end_year":-2701,"capital":"","type":"polity","region":"","event":"","source":"Cliopatria / Seshat Global History Databank (CC BY 4.0)","wikipedia":"Indus Valley Civilisation","wikidata":"Q42534","_a":1,"_c":[68.41,26.91],"_nz":"印度河流域文明","_sz":""}}
]}