{"type":"FeatureCollection","features":[{"type":"Feature","properties":{"NAME":"Hadhramaut","C":11,"name":"Hadhramaut","start_year":-700,"end_year":-351,"capital":"","type":"polity","region":"","event":"","source":"Cliopatria / Seshat Global History Databank (CC BY 4.0)","wikipedia":"Hadhramaut","wikidata":"Q1517159","_a":12,"_c":[49.05,15.68],"_nz":"哈德拉毛","_sz":""},"geometry":{"type":"MultiPolygon","coordinates":[[[[51.07,15.46],[50.85,15.33],[50.75,15.01],[49.41,14.69],[47.52,15.07],[47.53,15.2],[46.51,15.33],[46.22,15.52],[46.15,15.52],[46.38,15.71],[46.47,15.97],[46.47,16.04],[46.55,16.16],[46.7,16.1],[48.12,16.42],[49.59,16.49],[50.12,16.61],[50.48,16.55],[51.08,16.68],[51.89,16.61],[51.95,16.49],[51.86,16.23],[51.24,15.78],[51.08,15.52],[51.07,15.46]]],[[[46.7,16.16],[46.63,16.16],[46.63,16.23],[46.71,16.23],[46.7,16.16]]]]}},{"type":"Feature","properties":{"NAME":"Olmec Civilization","C":11,"name":"Olmec Civilization","start_year":-650,"end_year":-367,"capital":"","type":"polity","region":"","event":"","source":"Cliopatria / Seshat Global History Databank (CC BY 4.0)","wikipedia":"Olmecs","wikidata":"Q135364","_a":4,"_c":[-94.32,18.19],"_nz":"奥尔梅克文明","_sz":""},"geometry":{"type":"Polygon","coordinates":[[[-94.05,18.29],[-94.57,18.29],[-94.7,18.16],[-94.92,18.16],[-95.34,18.48],[-95.49,18.48],[-95.51,18.61],[-95.37,18.67],[-95.47,18.8],[-95.84,18.8],[-95.95,18.61],[-95.93,18.48],[-95.46,18.29],[-95.11,17.96],[-94.23,17.58],[-93.66,17.71],[-93.68,17.84],[-92.79,18.22],[-92.69,18.54],[-93.49,18.48],[-93.98,18.29],[-94.05,18.29]]]}},{"type":"Feature","properties":{"NAME":"Kingdom of Kush","C":3,"name":"Kingdom of Kush","start_year":-630,"end_year":337,"capital":"","type":"polity","region":"","event":"","source":"Cliopatria / Seshat Global History Databank (CC BY 4.0)","wikipedia":"Kingdom of Kush","wikidata":"Q241790","_a":48,"_c":[33.29,19.51],"_nz":"库施王国","_sz":""},"geometry":{"type":"Polygon","coordinates":[[[33.84,22.08],[33.76,22.08],[33.84,22.01],[33.75,21.63],[33.82,21.63],[34.26,19.64],[34.47,19.38],[34.6,18.93],[34.88,18.61],[34.94,18.29],[35.3,18.09],[35.5,17.64],[36,17.32],[36.05,16.81],[35.67,16.49],[34.71,16.49],[34.56,16.23],[34.68,15.78],[34.1,15.84],[33.86,15.46],[32.53,15.2],[32.53,15.33],[32.09,15.39],[31.73,15.59],[31.53,15.97],[31.54,16.23],[31.39,16.36],[31.48,16.61],[31.34,16.81],[31.22,17.64],[31.15,17.64],[30.88,20.34],[30.8,20.34],[30.82,20.79],[30.74,20.79],[30.76,21.31],[30.69,21.31],[30.64,21.95],[30.56,21.95],[30.72,22.27],[30.74,22.85],[30.53,23.3],[30.54,23.36],[31.67,23.75],[32.04,23.69],[33.39,23.81],[33.68,23.69],[33.68,23.62],[33.82,23.49],[33.81,23.17],[33.88,23.17],[33.84,22.14],[33.84,22.08]]]}},{"type":"Feature","properties":{"NAME":"Janapada of Aśmaka","C":5,"name":"Janapada of Aśmaka","start_year":-550,"end_year":-367,"capital":"","type":"polity","region":"","event":"","source":"Cliopatria / Seshat Global History Databank (CC BY 4.0)","wikipedia":"Asmaka","wikidata":"Q1194906","_a":1,"_c":[78.3,19.86],"_nz":"阿湿波迦国","_sz":""},"geometry":{"type":"Polygon","coordinates":[[[77.83,19.89],[77.8,19.7],[77.95,19.7],[77.93,19.51],[78.37,19.51],[78.53,19.57],[78.54,19.7],[78.69,19.7],[78.8,19.96],[78.44,20.09],[78.46,20.21],[78.16,20.21],[78.15,20.09],[77.83,19.96],[77.83,19.89]]]}},{"type":"Feature","properties":{"NAME":"Zapotec Civilization","C":5,"name":"Zapotec Civilization","start_year":-500,"end_year":-292,"capital":"","type":"polity","region":"","event":"","source":"Cliopatria / Seshat Global History Databank (CC BY 4.0)","wikipedia":"Zapotec civilization","wikidata":"Q844750","_a":1,"_c":[-96.83,17.23],"_nz":"萨波特克文明","_sz":""},"geometry":{"type":"Polygon","coordinates":[[[-97.18,17.13],[-96.9,16.74],[-96.54,16.81],[-96.56,16.94],[-96.26,16.94],[-96.31,17.19],[-96.86,17.45],[-96.91,17.71],[-96.96,17.58],[-97.41,17.64],[-97.23,17.45],[-97.37,17.39],[-97.35,17.26],[-97.19,17.19],[-97.18,17.13]]]}},{"type":"Feature","properties":{"NAME":"Roman Republic","C":3,"name":"Roman Republic","start_year":-480,"end_year":-338,"capital":"","type":"polity","region":"","event":"","source":"Cliopatria / Seshat Global History Databank (CC BY 4.0)","wikipedia":"Roman Republic","wikidata":"Q175881","_a":0,"_c":[12.21,41.95],"_nz":"罗马共和国","_sz":""},"geometry":{"type":"Polygon","coordinates":[[[12.13,41.91],[12.13,41.98],[12.13,42.04],[12.05,42.04],[11.97,42.04],[11.97,42.11],[12.45,42.11],[12.45,42.04],[12.45,41.78],[12.29,41.78],[12.21,41.91],[12.13,41.91]]]}},{"type":"Feature","properties":{"NAME":"Sabaeans","C":6,"name":"Sabaeans","start_year":-450,"end_year":-384,"capital":"","type":"polity","region":"","event":"","source":"Cliopatria / Seshat Global History Databank (CC BY 4.0)","wikipedia":"Sabaeans","wikidata":"Q940785","_a":10,"_c":[44.47,16.45],"_nz":"萨巴人","_sz":""},"geometry":{"type":"MultiPolygon","coordinates":[[[[45.92,15.33],[45.84,15.33],[45.85,15.39],[45.92,15.39],[45.92,15.33]]],[[[45.23,16.1],[45.21,15.91],[45.37,15.97],[45.58,15.84],[46.02,15.84],[46.18,15.97],[46.4,15.97],[46.47,15.97],[46.38,15.71],[46.15,15.52],[46.08,15.52],[45.86,15.52],[45.85,15.39],[45.4,15.33],[45.32,15.2],[45.18,15.26],[45.02,15.14],[42.75,15.14],[42.71,15.84],[42.78,15.84],[42.82,16.61],[42.48,17],[42.49,17.19],[42.63,17.19],[43.02,17.51],[43.03,17.71],[43.25,17.64],[43.55,17.77],[43.9,17.39],[43.82,17.26],[43.96,17.13],[43.95,16.94],[44.09,16.81],[44.31,16.87],[44.3,16.74],[44.81,16.61],[44.81,16.55],[45.23,16.1]]]]}},{"type":"Feature","properties":{"NAME":"Etruscans","C":4,"name":"Etruscans","start_year":-450,"end_year":-384,"capital":"","type":"polity","region":"","event":"","source":"Cliopatria / Seshat Global History Databank (CC BY 4.0)","wikipedia":"Etruscan civilization","wikidata":"Q17161","_a":17,"_c":[10.49,43.55],"_nz":"伊特鲁里亚人","_sz":""},"geometry":{"type":"MultiPolygon","coordinates":[[[[9.49,43.02],[9.49,42.76],[9.57,42.76],[9.58,41.98],[9.5,41.98],[9.5,41.78],[9.26,41.39],[9.1,41.33],[8.78,41.52],[8.78,41.72],[8.62,41.72],[8.7,41.91],[8.54,42.11],[8.53,42.5],[8.77,42.69],[9.17,42.76],[9.25,43.02],[9.33,43.02],[9.49,43.02]]],[[[10.46,42.76],[10.13,42.76],[10.13,42.89],[10.37,42.95],[10.46,42.95],[10.46,42.76]]],[[[12.4,45.04],[12.4,44.78],[12.16,44.84],[12.15,44.45],[12.31,44.19],[11.99,44.06],[11.91,43.73],[12.31,43.54],[12.37,42.24],[12.45,42.17],[12.45,42.11],[11.97,42.11],[11.89,42.11],[11.73,42.17],[11.65,42.37],[11.26,42.43],[11.18,42.63],[11.02,42.63],[11.02,42.82],[10.54,43.08],[10.54,43.28],[10.45,43.28],[10.13,44.12],[10.29,44.19],[10.29,44.32],[10.54,44.39],[10.62,44.71],[10.05,44.97],[10.05,45.1],[9.88,45.1],[9.72,45.3],[9.56,45.3],[9.39,45.63],[9.72,45.76],[10.29,45.63],[10.53,45.69],[10.53,45.56],[12.16,45.37],[12.16,45.17],[12.24,45.17],[12.4,45.04]]],[[[10.05,43.99],[9.89,43.99],[9.89,44.06],[10.05,44.12],[10.05,43.99]]],[[[9.64,45.24],[9.72,45.24],[9.72,45.17],[9.64,45.17],[9.64,45.24]]]]}},{"type":"Feature","properties":{"NAME":"Scythia","C":9,"name":"Scythia","start_year":-404,"end_year":-351,"capital":"","type":"polity","region":"","event":"","source":"Cliopatria / Seshat Global History Databank (CC BY 4.0)","wikipedia":"Scythians","wikidata":"Q131802","_a":140,"_c":[36.22,48.86],"_nz":"斯基泰","_sz":""},"geometry":{"type":"MultiPolygon","coordinates":[[[[32.15,46.15],[31.56,46.26],[31.51,46.37],[32.01,46.2],[32.15,46.15]]],[[[37.54,47.07],[36.79,46.71],[35.83,46.62],[35.13,46.13],[35.01,46.11],[35.28,46.28],[35.23,46.44],[34.85,46.19],[34.91,45.88],[35.24,45.47],[35.05,45.3],[34.46,45.11],[33.26,45.17],[32.92,45.35],[32.61,45.33],[32.51,45.4],[33.66,45.95],[33.59,46.1],[33.43,46.06],[33.2,46.18],[32.48,46.08],[31.83,46.28],[32.01,46.43],[31.55,46.55],[32.36,46.47],[32.58,46.62],[32.29,46.57],[32.86,46.93],[32.34,47.26],[31.83,47.35],[30.85,47.2],[29.39,47.15],[27.61,48.01],[27.21,48.4],[26.92,49.03],[26.92,50.25],[27.4,50.71],[28.25,50.99],[33.53,52.16],[39.29,52.6],[41.33,52.62],[42.52,52.47],[44.09,51.97],[44.52,51.54],[45.34,50.03],[45.52,49.43],[45.44,48.61],[44.67,47.96],[42.87,47.19],[39.03,46.2],[39.38,46.57],[40.14,47.09],[40.21,47.58],[39.96,47.95],[39.05,48],[38.2,47.64],[37.52,47.49],[37.55,47.08],[37.54,47.07]]]]}},{"type":"Feature","properties":{"NAME":"Yuezhi","C":2,"name":"Yuezhi","start_year":-404,"end_year":-384,"capital":"","type":"polity","region":"","event":"","source":"Cliopatria / Seshat Global History Databank (CC BY 4.0)","wikipedia":"Yuezhi","wikidata":"Q467985","_a":214,"_c":[82.73,41.58],"_nz":"月氏","_sz":""},"geometry":{"type":"Polygon","coordinates":[[[78.57,45.17],[78.35,45.43],[78,45.56],[78.02,45.82],[77.83,45.96],[77.88,46.09],[77.75,46.15],[77.75,46.35],[77.36,46.41],[77.39,46.48],[75.45,46.55],[75.32,46.41],[74.88,46.35],[74.75,46.02],[74.32,45.96],[74.12,45.43],[74.25,45.37],[74.13,45.04],[73.97,45.04],[73.97,44.84],[74.25,44.71],[74.28,44.58],[74.44,44.58],[74.56,44.25],[75,44.12],[74.79,43.8],[75.2,43.6],[75.14,43.21],[75.39,43.02],[75.77,42.95],[75.88,42.82],[75.7,42.56],[75.81,42.43],[76.16,42.5],[76.14,42.24],[76.28,42.17],[76.21,41.98],[76,41.85],[73.34,41.07],[73,40.74],[72.48,40.61],[72.34,40.42],[72.1,40.42],[71.98,40.29],[72.26,40.16],[72.2,39.97],[72.43,39.97],[72.67,39.71],[73.42,39.58],[73.38,39.45],[74.75,39.32],[77.03,38.8],[77.26,38.55],[77.41,38.55],[77.51,38.35],[77.67,38.35],[77.84,38.16],[77.8,38.03],[78.09,37.71],[78.39,37.64],[78.42,37.51],[79.15,37.32],[79.4,37.13],[80.37,37],[81.03,36.61],[81.26,36.61],[81.71,36.8],[82.1,36.8],[85.11,37.45],[85.36,37.71],[85.81,37.9],[86.08,38.22],[86.44,38.35],[87.66,38.48],[88.75,38.87],[90.47,39.06],[92.14,39.51],[93.17,39.9],[93.17,40.1],[93.39,40.42],[93.31,40.42],[93.47,40.61],[93.23,40.61],[92.61,41],[92.45,41],[92.48,41.07],[92.32,41.07],[92.35,41.13],[91.27,41.39],[90.78,41.72],[90.54,41.72],[90.43,41.85],[90.19,41.85],[90.22,41.91],[89.61,41.98],[89.64,42.04],[88.82,42.17],[88.85,42.24],[88.08,42.3],[88.11,42.37],[85.76,42.69],[85.79,42.76],[84.11,42.76],[82.56,42.3],[81.12,42.3],[81.12,42.5],[81.04,42.5],[81.09,42.82],[80.79,43.08],[80.87,43.28],[80.74,43.34],[80.76,43.6],[80.38,44.06],[80.41,44.52],[80.33,44.52],[80.49,44.71],[80.38,44.84],[80.06,44.84],[79.95,44.97],[79.52,44.91],[79.54,44.97],[78.65,45.17],[78.57,45.17]]]}},{"type":"Feature","properties":{"NAME":"Zhao","C":0,"name":"Zhao","start_year":-404,"end_year":-367,"capital":"","type":"polity","region":"","event":"","source":"Cliopatria / Seshat Global History Databank (CC BY 4.0)","wikipedia":"Zhao (state)","wikidata":"Q1574107","_a":29,"_c":[114.09,37.75],"_nz":"赵","_sz":""},"geometry":{"type":"MultiPolygon","coordinates":[[[[114.16,36.48],[114.32,36.48],[114.38,36.29],[114.7,36.29],[114.61,36.1],[114.55,35.97],[114.75,35.71],[114.3,35.39],[114.07,35.39],[114.24,35.97],[113.62,35.97],[113.45,35.39],[112.32,35.45],[111.08,35.45],[111.16,35.64],[111.06,35.77],[111.23,36.35],[111.41,36.42],[112.17,37.25],[112.2,37.32],[112.28,37.32],[112.31,37.38],[112.39,37.38],[112.46,37.38],[112.49,37.45],[112.57,37.45],[113.05,37.13],[113.28,37.13],[113.76,36.8],[113.99,36.8],[113.94,36.67],[114.09,36.67],[114.19,36.55],[114.16,36.48]]],[[[116.85,38.55],[116.15,38.55],[116.4,38.74],[116.16,38.74],[116.26,38.93],[116.09,39.06],[116.1,39.38],[115.86,39.38],[116.1,39.84],[116.14,39.9],[116.45,39.9],[116.95,40.1],[117.03,40.1],[116.93,39.9],[117.01,39.77],[116.8,39.51],[116.93,39.32],[116.7,38.87],[116.9,38.8],[116.87,38.74],[117.11,38.74],[117.12,38.61],[117.04,38.61],[117.01,38.55],[116.93,38.55],[116.85,38.55]]]]}},{"type":"Feature","properties":{"NAME":"Song","C":5,"name":"Song","start_year":-404,"end_year":-384,"capital":"","type":"polity","region":"","event":"","source":"Cliopatria / Seshat Global History Databank (CC BY 4.0)","wikipedia":"Song (state)","wikidata":"Q7462","_a":7,"_c":[116.16,35.13],"_nz":"宋","_sz":""},"geometry":{"type":"Polygon","coordinates":[[[117.41,35.07],[117.02,34.87],[116.76,35],[116.74,35.13],[116.59,35.13],[116.52,35.32],[116.29,35.32],[116.21,35.52],[116.06,35.52],[115.96,35.64],[116.05,35.84],[115.76,35.9],[115.8,36.16],[115.65,36.16],[114.83,35.71],[114.98,35.71],[115.23,35.39],[114.47,34.87],[114.34,34.74],[114.65,34.55],[115.49,34.55],[115.59,34.42],[116.11,34.36],[116.62,34.1],[117.23,34.1],[117.52,34.23],[117.72,34.36],[117.97,34.74],[117.53,34.81],[117.54,35],[117.41,35.07]]]}},{"type":"Feature","properties":{"NAME":"Qi","C":0,"name":"Qi","start_year":-404,"end_year":-351,"capital":"","type":"polity","region":"","event":"","source":"Cliopatria / Seshat Global History Databank (CC BY 4.0)","wikipedia":"Qi (state)","wikidata":"Q1143524","_a":28,"_c":[119.15,36.71],"_nz":"齐","_sz":""},"geometry":{"type":"Polygon","coordinates":[[[119.13,38.09],[118.77,38.16],[118.8,38.22],[118.65,38.22],[118.58,38.09],[118.07,38.16],[118.05,38.29],[117.6,38.48],[117.62,38.67],[117.23,38.67],[117.2,38.61],[116.61,37.25],[115.61,36.42],[115.58,36.35],[115.66,36.35],[115.63,36.29],[115.6,36.22],[115.68,36.22],[116.23,36.42],[116.2,36.35],[116.48,36.29],[116.5,36.16],[116.91,36.03],[116.85,35.9],[117.02,35.77],[116.97,35.64],[117.07,35.52],[117.21,35.32],[117.16,35.19],[117.31,35.19],[117.41,35.07],[117.54,35],[117.53,34.81],[117.97,34.74],[119.01,35.71],[119.53,35.84],[120.05,35.77],[120.07,35.84],[120.32,36.03],[120.66,36.1],[120.73,36.42],[120.96,36.42],[120.98,36.61],[121.21,36.61],[121.91,36.93],[122.15,36.93],[122.16,36.8],[122.5,36.87],[122.57,37],[122.44,37.06],[122.71,37.45],[122.12,37.51],[122.15,37.58],[121.5,37.51],[121.48,37.64],[121.17,37.64],[121.11,37.84],[120.75,37.9],[120.19,37.71],[120.2,37.58],[119.83,37.45],[119.7,37.19],[119.16,37.19],[119.14,37.32],[118.98,37.32],[119.24,37.84],[119.39,37.84],[119.46,37.96],[119.18,38.03],[119.21,38.09],[119.13,38.09]]]}},{"type":"Feature","properties":{"NAME":"Magadha - Shaishunaga dynasty","C":0,"name":"Magadha - Shaishunaga dynasty","start_year":-404,"end_year":-351,"capital":"","type":"polity","region":"","event":"","source":"Cliopatria / Seshat Global History Databank (CC BY 4.0)","wikipedia":"Shaishunaga dynasty","wikidata":"Q972165","_a":132,"_c":[83.01,23.85],"_nz":"摩揭陀-希苏那伽王朝","_sz":""},"geometry":{"type":"Polygon","coordinates":[[[75.65,24.73],[74.88,24.22],[74.36,23.24],[74.99,22.85],[81.01,22.27],[81.29,22.14],[81.45,22.21],[81.65,22.08],[83.41,21.89],[83.54,21.76],[83.92,21.82],[85.36,21.5],[86.02,20.86],[86.19,20.47],[86.15,20.15],[86.28,20.02],[86.5,20.02],[86.83,20.28],[86.78,20.47],[87.02,20.6],[86.95,21.18],[86.88,21.18],[87.06,21.44],[87.75,21.63],[88.09,21.95],[88.17,21.95],[88.12,21.63],[88.34,21.57],[88.36,21.69],[88.5,21.69],[88.63,22.08],[88.71,22.08],[88.72,21.63],[89.09,21.63],[89.11,21.76],[89.7,21.76],[89.86,21.82],[89.88,22.02],[90.22,21.76],[90.41,22.08],[90.64,22.08],[90.62,21.95],[90.85,22.02],[90.92,22.53],[91.23,22.59],[91.48,22.79],[91.51,22.98],[91.66,22.98],[91.47,23.24],[91.26,23.3],[91.29,23.49],[91.22,23.49],[91.41,24.27],[91.26,24.27],[91.39,24.59],[91.32,24.59],[91.24,25.04],[91.11,25.1],[91.2,25.23],[90.98,25.23],[90.79,25.42],[90.21,25.55],[90.09,25.68],[89.93,25.62],[89.88,25.74],[89.71,25.68],[89.51,25.81],[89.21,25.81],[88.36,26.07],[88.24,26.19],[88.07,26.13],[88.1,26.26],[87.86,26.19],[87.29,26.32],[87.39,26.45],[87.16,26.45],[87.03,26.58],[86.72,26.52],[86.61,26.71],[86.4,26.77],[86.42,26.9],[86.18,26.84],[86.08,27.09],[85.49,27.16],[85.52,27.29],[85.28,27.22],[84.71,27.35],[84.73,27.48],[84.59,27.54],[84.29,27.54],[84.32,27.67],[83.55,27.61],[82.72,27.22],[80.79,27],[77.5,25.42],[76.55,25.18],[75.65,24.73]]]}},{"type":"Feature","properties":{"NAME":"Achaemenid Empire","C":5,"name":"Achaemenid Empire","start_year":-404,"end_year":-384,"capital":"","type":"polity","region":"","event":"","source":"Cliopatria / Seshat Global History Databank (CC BY 4.0)","wikipedia":"Achaemenid Empire","wikidata":"Q389688","_a":1099,"_c":[45.78,33.52],"_nz":"阿契美尼德帝国","_sz":""},"geometry":{"type":"MultiPolygon","coordinates":[[[[62.04,43.21],[62.54,43.28],[62.49,43.08],[62.63,43.02],[62.87,43.02],[63.85,42.56],[64.45,42.43],[64.86,42.17],[65.09,42.17],[66.21,41.65],[66.45,41.39],[66.63,41.46],[66.59,41.33],[67.03,41.2],[66.91,41.07],[67.29,40.74],[68.32,41],[68.36,41.13],[68.86,41.2],[68.88,41],[69.13,40.81],[69.13,40.55],[69.31,40.61],[69.27,40.48],[69.43,40.48],[69.65,40.16],[70.14,40.23],[70.02,40.1],[70.32,39.77],[70.48,39.77],[70.64,39.51],[71.53,39.32],[71.88,38.93],[72.06,39],[72,38.8],[72.08,38.8],[72.08,38.55],[72.28,38.16],[72.33,37.19],[72.41,37.19],[72.37,37.06],[72.53,37.06],[72.4,36.87],[72.55,36.87],[72.4,36.61],[72.66,36.1],[72.61,35.9],[72.82,35.84],[72.69,35.64],[72.82,35.52],[72.46,34.1],[72.05,33.97],[72,33.78],[71.85,33.78],[71.7,33.46],[71.53,33.39],[71.5,33.26],[71.62,33.14],[71.55,32.81],[71.22,32.69],[71.17,32.49],[70.88,32.56],[70.6,32.3],[70.46,32.36],[70.26,32.17],[69.71,32.11],[69.62,32.04],[69.67,31.91],[69.2,31.85],[69.18,31.72],[67.93,30.82],[67.78,30.82],[67.15,30.31],[66.5,30.05],[66.07,29.73],[65.2,29.54],[64.61,29.6],[64.29,29.54],[64.2,29.41],[62.23,29.41],[61.73,29.6],[59.89,28.96],[59.77,28.64],[59.63,28.7],[59.53,28.51],[59.57,28.25],[59.41,28.25],[59.39,28.06],[59.15,27.99],[59,27.42],[58.93,27.42],[58.99,27.29],[58.87,26.97],[58.93,26.84],[59.16,26.84],[59.04,26.52],[59.18,26.39],[58.98,26],[59.45,25.49],[59.36,25.36],[59.06,25.36],[58.78,25.55],[57.96,25.55],[57.74,25.62],[57.68,25.74],[57.38,25.74],[57.11,26.07],[57.05,26.84],[56.71,27.16],[56.19,27.16],[56.1,27.03],[56.32,27.03],[56.31,26.9],[56.06,26.71],[55.29,26.52],[55.31,26.71],[55.54,26.77],[55.24,26.77],[54.99,26.52],[54.68,26.45],[54.26,26.71],[53.66,26.71],[53.46,26.97],[52.74,27.22],[52.48,27.61],[52.05,27.8],[51.45,27.87],[51.07,28.44],[51.03,28.77],[50.81,28.83],[50.92,29.09],[50.62,29.15],[50.65,29.41],[50.24,29.73],[50.06,30.18],[49.59,29.99],[48.94,30.31],[48.99,30.05],[48.37,29.92],[48.4,29.6],[48.09,29.54],[47.65,29.6],[47.29,29.79],[46.98,29.73],[46.99,29.86],[46.85,29.92],[46.62,29.86],[46.59,30.31],[45.77,30.44],[44.95,31.27],[44.58,31.34],[44.46,31.59],[43.15,32.81],[42.71,32.94],[42.58,33.14],[42.06,33.33],[42,33.46],[41.49,33.65],[41.43,33.78],[41.27,33.78],[41.21,33.91],[40.91,33.97],[40.7,34.16],[40.31,34.1],[40.4,34.23],[40.26,34.29],[39.12,34.49],[37.99,33.97],[37.74,33.78],[37.73,33.65],[37.57,33.65],[37.07,33.26],[37.05,33.07],[36.9,33.07],[36.72,32.75],[36.75,32.3],[36.52,32.24],[36.66,32.17],[36.39,31.66],[36.42,31.21],[36.27,31.21],[36.4,30.95],[36.07,30.63],[35.85,29.79],[35.77,29.79],[35.81,29.22],[35.43,29.22],[34.84,29.41],[34.71,28.7],[34.55,28.51],[34.52,28.06],[34.36,27.93],[34.35,27.74],[33.9,27.87],[33.55,28.32],[33.4,28.32],[33.19,28.51],[33.15,29.02],[32.86,29.22],[32.59,29.73],[32.6,29.92],[32.44,29.79],[32.69,28.96],[32.84,28.89],[33.11,28.38],[33.61,27.99],[33.59,27.61],[33.8,27.42],[33.93,27.03],[34.07,26.97],[34.05,26.58],[34.2,26.52],[34.46,25.87],[34.61,25.81],[35.15,24.65],[35.79,24.07],[35.71,23.94],[35.56,23.94],[35.55,23.81],[35.11,23.88],[33.76,23.69],[33.68,23.69],[33.39,23.81],[32.04,23.69],[31.67,23.75],[30.54,23.36],[30.46,23.36],[30.4,23.56],[30.1,23.75],[30.11,23.88],[29.96,23.88],[29.67,24.2],[28.42,24.71],[28.29,25.16],[28.14,25.29],[28.15,25.49],[27.73,26.26],[27.58,26.32],[27.45,26.71],[27.3,26.77],[27.24,27.03],[26.73,27.54],[26.58,27.54],[26.66,27.67],[26.08,28.19],[25.87,28.57],[25.29,29.09],[25.3,29.22],[25.08,29.41],[24.92,29.34],[24.93,29.54],[24.34,29.92],[23.08,30.5],[22.16,30.5],[21.03,30.76],[20.96,30.89],[20.58,30.89],[19.96,30.31],[19.65,30.24],[19.57,30.12],[18.73,29.99],[18.89,30.31],[19.27,30.24],[19.66,30.37],[19.96,30.56],[19.97,30.69],[20.2,30.89],[20.13,31.14],[20.21,31.27],[20,31.59],[20.09,32.11],[20.02,32.24],[20.25,32.24],[20.33,32.49],[20.48,32.43],[20.56,32.56],[20.72,32.56],[20.64,32.69],[20.87,32.62],[21.11,32.81],[21.41,32.75],[21.88,32.94],[23.09,32.62],[23.08,32.43],[23.23,32.36],[23.15,32.24],[23.3,32.17],[23.68,32.17],[24.13,31.98],[24.89,31.98],[25.11,31.79],[25.1,31.59],[25.25,31.46],[26.85,31.46],[27.3,31.34],[27.51,31.14],[28.5,31.01],[28.87,30.82],[29.4,30.82],[29.49,31.01],[29.63,30.95],[29.87,31.08],[29.8,31.21],[29.88,31.27],[30.34,31.27],[30.27,31.4],[30.35,31.46],[30.81,31.46],[30.97,31.53],[30.97,31.66],[31.2,31.66],[31.12,31.53],[31.27,31.46],[31.88,31.46],[31.78,31.21],[31.94,31.27],[32,31.08],[32.3,31.08],[32.24,31.21],[32.39,31.21],[32.53,31.08],[32.77,31.14],[32.83,31.01],[33.98,31.14],[34.3,31.27],[34.31,31.4],[34.55,31.53],[34.64,31.72],[34.57,31.85],[34.81,31.98],[34.77,32.36],[35.02,32.62],[35.06,33.01],[35.22,33.07],[35.4,33.39],[35.35,33.65],[35.5,33.65],[35.45,33.91],[35.68,33.97],[35.64,34.36],[35.79,34.29],[36.05,34.55],[36.07,34.74],[35.93,34.87],[35.96,35.19],[35.88,35.19],[35.99,35.52],[35.84,35.58],[35.99,36.22],[35.84,36.29],[36.26,36.61],[36.29,36.8],[36.14,36.93],[35.83,36.93],[35.49,36.61],[35.11,36.74],[34.95,36.67],[34.89,36.87],[34.58,36.87],[34.25,36.67],[33.98,36.29],[33.27,36.22],[32.71,36.03],[32.56,36.03],[32.5,36.22],[32.07,36.61],[31.09,36.93],[30.62,36.93],[30.49,36.35],[30.03,36.35],[29.94,36.22],[29.24,36.22],[29.12,36.74],[28.74,36.74],[28.59,36.87],[28.51,36.87],[28.24,37.38],[27.85,37.38],[27.86,37.45],[27.48,37.58],[27.29,38.22],[26.91,38.35],[26.99,38.35],[27.06,38.35],[27.07,38.42],[27.07,38.48],[27.08,38.55],[27,38.55],[27.02,38.8],[27.35,38.93],[27.44,39.19],[27.3,39.38],[27.07,39.38],[26.99,39.38],[26.74,39.26],[26.84,39.45],[26.84,39.51],[27.17,39.64],[27.02,39.77],[26.7,39.77],[26.65,40.03],[26.74,40.16],[26.82,40.16],[27.37,40.23],[27.46,40.36],[27.54,40.36],[27.54,40.29],[27.62,40.29],[27.7,40.29],[27.77,40.29],[27.85,40.29],[27.85,40.23],[29.11,40.23],[29.21,40.42],[29.05,40.42],[28.97,40.42],[28.91,40.61],[29.48,40.74],[29.49,40.87],[29.25,40.81],[29.37,41.2],[30.48,41.2],[30.62,41.07],[31.18,41.07],[31.35,41.2],[31.59,41.2],[31.7,41.46],[32.03,41.52],[32.04,41.65],[32.19,41.59],[32.69,41.78],[32.63,41.91],[34.94,41.91],[35.31,41.65],[35.95,41.72],[36.1,41.59],[36.14,41.33],[36.45,41.26],[36.53,41.26],[36.51,41.13],[37.36,40.94],[37.87,40.68],[38.82,40.68],[39,40.81],[39.4,40.81],[39.62,40.68],[40.41,40.68],[40.58,40.74],[40.6,40.87],[40.46,41],[40.54,41],[41.05,41.2],[41.16,41.39],[41.31,41.33],[41.41,41.46],[41.57,41.46],[41.6,41.65],[41.78,41.78],[41.72,41.91],[42.12,41.91],[42.42,41.78],[42.76,41.91],[43.23,41.85],[43.66,42.04],[43.72,41.91],[43.95,41.85],[43.82,41.59],[44.03,41.46],[44.04,41.07],[44.25,40.87],[44.41,40.87],[44.45,40.68],[44.93,40.68],[44.89,40.48],[45.01,40.29],[45.4,40.23],[45.52,40.03],[45.83,39.97],[46.16,39.64],[46.87,39.64],[46.85,39.51],[47.09,39.51],[47.11,39.64],[47.49,39.58],[47.75,39.71],[48.38,39.71],[49.38,39.97],[49.15,39.19],[48.92,39.19],[48.8,39],[48.76,38.35],[48.84,38.35],[48.88,37.71],[49.09,37.51],[50,37.38],[50.32,37],[50.57,37.06],[50.63,37],[50.53,36.87],[50.82,36.74],[51.64,36.55],[52.19,36.55],[53.09,36.8],[54.03,36.87],[54.09,37.19],[53.91,37.45],[53.91,37.84],[53.83,37.84],[53.97,38.93],[55.09,39.38],[56.4,40.29],[57.07,41.07],[58.3,42.17],[58.68,42.95],[58.51,43.21],[58.54,43.34],[58.4,43.41],[58.44,43.54],[58.71,43.67],[59.12,43.41],[60.93,43.54],[61.38,43.41],[61.46,43.41],[62.04,43.21]],[[29.95,40.68],[29.96,40.81],[29.88,40.81],[29.79,40.68],[29.95,40.68]]],[[[34.54,35.71],[34.53,35.58],[33.96,35.26],[34.09,35],[33.7,34.94],[33.52,34.74],[33.13,34.68],[33.04,34.55],[32.37,34.74],[32.23,34.94],[32.25,35.13],[32.55,35.13],[32.88,35.26],[32.89,35.39],[33.74,35.39],[34.31,35.71],[34.39,35.71],[34.54,35.71]]],[[[40.47,41.07],[40.46,41],[40.38,41],[40.39,41.07],[40.47,41.07]]],[[[58.44,42.69],[58.52,42.69],[58.51,42.63],[58.43,42.63],[58.44,42.69]]],[[[62.08,43.34],[62.16,43.34],[62.14,43.28],[62.06,43.28],[62.08,43.34]]]]}},{"type":"Feature","properties":{"NAME":"Qin","C":2,"name":"Qin","start_year":-404,"end_year":-367,"capital":"","type":"polity","region":"","event":"","source":"Cliopatria / Seshat Global History Databank (CC BY 4.0)","wikipedia":"Qin (state)","wikidata":"Q1471995","_a":11,"_c":[110.17,35.93],"_nz":"秦","_sz":""},"geometry":{"type":"Polygon","coordinates":[[[111.08,35.45],[111.16,35.64],[111.06,35.77],[111.23,36.35],[111.41,36.42],[112.17,37.25],[112.09,37.25],[109.65,36.48],[108.79,35.71],[108.22,35.64],[108.17,35.52],[108.35,35.39],[108.3,35.26],[108.45,35.26],[108.25,34.94],[109.23,34.87],[109.25,34.74],[109.51,34.61],[109.59,34.61],[110.59,34.81],[111.08,35.45]]]}},{"type":"Feature","properties":{"NAME":"Cimmerian Bosporus","C":0,"name":"Cimmerian Bosporus","start_year":-404,"end_year":-384,"capital":"","type":"polity","region":"","event":"","source":"Cliopatria / Seshat Global History Databank (CC BY 4.0)","wikipedia":"Bosporan Kingdom","wikidata":"Q321371","_a":0,"_c":[36.63,45.24],"_nz":"辛梅里安博斯普鲁斯王国","_sz":""},"geometry":{"type":"MultiPolygon","coordinates":[[[[36.04,45.04],[36.07,45.24],[36.26,45.43],[36.34,45.43],[36.42,45.43],[36.37,45.1],[36.12,45.04],[36.04,45.04]]],[[[36.79,45.17],[36.75,45.43],[37.22,45.3],[37.1,45.1],[36.78,45.1],[36.79,45.17]]]]}},{"type":"Feature","properties":{"NAME":"Wei","C":11,"name":"Wei","start_year":-404,"end_year":-367,"capital":"","type":"polity","region":"","event":"","source":"Cliopatria / Seshat Global History Databank (CC BY 4.0)","wikipedia":"Wei (state)","wikidata":"Q320930","_a":18,"_c":[114.89,38],"_nz":"魏","_sz":""},"geometry":{"type":"Polygon","coordinates":[[[116.85,38.55],[116.15,38.55],[116.4,38.74],[116.16,38.74],[116.26,38.93],[116.09,39.06],[116.1,39.38],[115.86,39.38],[116.1,39.84],[116.02,39.84],[115.9,39.9],[115.83,39.77],[115.45,39.64],[114.36,38.74],[114.09,38.67],[114.11,38.55],[113.27,37.77],[112.65,37.45],[112.57,37.45],[113.05,37.13],[113.28,37.13],[113.76,36.8],[113.99,36.8],[113.94,36.67],[114.09,36.67],[114.19,36.55],[114.16,36.48],[114.32,36.48],[114.38,36.29],[114.7,36.29],[114.61,36.1],[115.36,36.74],[115.61,36.42],[116.61,37.25],[117.2,38.61],[117.12,38.61],[117.04,38.61],[117.01,38.55],[116.93,38.55],[116.85,38.55]]]}},{"type":"Feature","properties":{"NAME":"Macedonian Empire","C":11,"name":"Macedonian Empire","start_year":-404,"end_year":-367,"capital":"","type":"polity","region":"","event":"","source":"Cliopatria / Seshat Global History Databank (CC BY 4.0)","wikipedia":"Macedonia (ancient kingdom)","wikidata":"Q83958","_a":5,"_c":[22.41,40.68],"_nz":"马其顿帝国","_sz":""},"geometry":{"type":"Polygon","coordinates":[[[22.81,40.61],[22.57,40.55],[22.54,40.1],[22.7,40.1],[22.7,40.03],[22.21,39.84],[21.92,40.16],[21.83,39.97],[21.51,39.97],[21.43,39.97],[21.35,39.97],[21.45,40.29],[21.38,40.42],[21.14,40.48],[21.07,40.61],[20.91,40.55],[20.85,40.94],[20.77,40.94],[20.94,41.07],[20.86,41.2],[21.11,41.26],[21.28,41.52],[21.51,41.39],[21.83,41.39],[21.84,41.52],[22.94,41.39],[23.5,41.46],[23.58,41.46],[23.81,41.33],[23.8,41.2],[24.04,41.13],[23.63,40.94],[23.53,40.61],[22.89,40.61],[22.81,40.61]]]}},{"type":"Feature","properties":{"NAME":"Chu","C":0,"name":"Chu","start_year":-404,"end_year":-384,"capital":"","type":"polity","region":"","event":"","source":"Cliopatria / Seshat Global History Databank (CC BY 4.0)","wikipedia":"Chu (state)","wikidata":"Q504759","_a":70,"_c":[114.68,32.59],"_nz":"楚","_sz":""},"geometry":{"type":"Polygon","coordinates":[[[116.04,30.37],[114.11,30.5],[113.95,30.24],[113.58,30.05],[113.27,29.54],[112.9,29.34],[112,29.34],[111.81,29.47],[111.3,29.54],[110.66,29.92],[110.23,29.99],[110.41,30.31],[109.92,30.44],[109.48,30.95],[109.49,31.21],[109.36,31.27],[109.48,31.4],[109.31,31.59],[109.63,32.49],[109.55,32.49],[109.82,33.01],[109.71,33.14],[109.78,33.33],[110.21,33.46],[110.21,33.65],[110.49,33.78],[110.54,33.91],[110.39,33.91],[110.51,34.04],[110.23,34.1],[110.02,34.36],[109.66,34.42],[109.71,34.55],[109.56,34.55],[109.59,34.61],[110.59,34.81],[111.36,34.61],[113.29,34.61],[113.36,34.61],[113.44,34.61],[113.47,34.68],[113.49,34.74],[113.57,34.74],[114.47,34.87],[114.34,34.74],[114.65,34.55],[115.49,34.55],[115.59,34.42],[116.11,34.36],[116.62,34.1],[117.23,34.1],[117.52,34.23],[117.72,34.36],[117.97,34.74],[119.01,35.71],[119.53,35.84],[120.05,35.77],[120.02,35.71],[119.99,35.64],[119.91,35.64],[119.88,35.58],[119.8,35.58],[119.77,35.52],[119.7,35.52],[119.62,35.52],[119.31,35.52],[118.93,35.19],[118.35,33.65],[118.43,33.65],[118.42,33.26],[118.57,33.07],[118.86,33.01],[118.85,32.81],[117.11,31.66],[116.84,30.69],[116.12,30.37],[116.04,30.37]]]}},{"type":"Feature","properties":{"NAME":"Odrysian Kingdom","C":10,"name":"Odrysian Kingdom","start_year":-404,"end_year":-367,"capital":"","type":"polity","region":"","event":"","source":"Cliopatria / Seshat Global History Databank (CC BY 4.0)","wikipedia":"Odrysian kingdom","wikidata":"Q870517","_a":21,"_c":[25.9,43.02],"_nz":"奥德里西亚王国","_sz":""},"geometry":{"type":"MultiPolygon","coordinates":[[[[28.21,41.59],[28.13,41.59],[28.14,41.65],[28.22,41.65],[28.21,41.59]]],[[[27.92,41.91],[28,41.91],[28.05,41.59],[28.13,41.59],[27.81,41.52],[27.63,41.33],[27.09,41.46],[26.98,41.2],[26.5,41.07],[25.16,41.26],[24.04,41.13],[23.8,41.2],[23.81,41.33],[23.58,41.46],[23.59,41.52],[23.29,41.78],[23.15,42.11],[23.32,42.17],[23.25,42.3],[23.57,42.43],[23.58,42.56],[23.43,42.69],[23.69,42.95],[23.71,43.15],[23.95,43.21],[23.89,43.47],[24.14,43.54],[24.08,43.73],[24.81,43.8],[25.52,43.67],[26.37,44.12],[27.75,44.19],[27.93,44.39],[27.85,44.39],[27.87,44.58],[27.71,44.58],[27.73,44.78],[28.56,44.97],[28.64,44.97],[28.46,44.84],[28.3,44.06],[28.02,43.67],[27.99,43.41],[27.66,43.28],[27.45,42.82],[27.19,42.63],[27.17,42.43],[27.33,42.37],[27.32,42.24],[27.61,41.98],[27.93,41.98],[27.92,41.91]]]]}},{"type":"Feature","properties":{"NAME":"Yue","C":1,"name":"Yue","start_year":-404,"end_year":-338,"capital":"","type":"polity","region":"","event":"","source":"Cliopatria / Seshat Global History Databank (CC BY 4.0)","wikipedia":"Yue (state)","wikidata":"Q1936158","_a":36,"_c":[119.07,32.5],"_nz":"越","_sz":""},"geometry":{"type":"Polygon","coordinates":[[[117.96,29.54],[117.88,29.54],[117.91,29.6],[117.53,29.6],[117.19,29.73],[116.74,29.73],[116.27,29.92],[116.1,30.31],[116.12,30.37],[116.84,30.69],[117.11,31.66],[118.85,32.81],[118.86,33.01],[118.57,33.07],[118.42,33.26],[118.43,33.65],[118.35,33.65],[118.93,35.19],[119.31,35.52],[119.62,35.52],[119.59,35.45],[119.23,34.81],[119.46,34.81],[119.43,34.74],[119.71,34.68],[119.73,34.55],[120.39,34.29],[120.36,34.23],[120.49,34.16],[120.55,33.59],[120.93,33.2],[120.92,32.62],[121.4,32.49],[121.5,32.17],[121.78,32.11],[121.99,31.85],[121.84,31.66],[121.68,31.66],[121.58,31.79],[120.92,31.85],[121.45,31.66],[121.48,31.53],[121.63,31.53],[121.58,31.4],[121.74,31.4],[122,31.08],[121.9,30.82],[121.52,30.82],[121.2,30.56],[121.05,30.56],[120.68,30.18],[120.81,30.12],[121.1,30.31],[121.48,30.31],[121.62,30.05],[122.03,29.92],[121.82,29.54],[121.42,29.47],[121.31,29.6],[120.24,29.79],[119.78,29.99],[119.23,29.92],[118.36,29.6],[117.98,29.6],[117.96,29.54]]]}},{"type":"Feature","properties":{"NAME":"Greek City-States","C":4,"name":"Greek City-States","start_year":-404,"end_year":-384,"capital":"","type":"polity","region":"","event":"","source":"Cliopatria / Seshat Global History Databank (CC BY 4.0)","wikipedia":"Polis","wikidata":"Q148837","_a":529,"_c":[20.43,41.3],"_nz":"希腊城邦","_sz":""},"geometry":{"type":"MultiPolygon","coordinates":[[[[22.89,36.42],[22.96,36.42],[23.12,36.35],[23.11,36.16],[22.87,36.16],[22.89,36.42]]],[[[24.28,37.71],[24.36,37.71],[24.43,37.58],[24.27,37.51],[24.2,37.64],[24.28,37.71]]],[[[22.71,37.58],[22.71,37.51],[22.71,37.45],[22.63,37.45],[22.55,37.45],[22.55,37.51],[22.57,37.77],[22.8,37.77],[22.79,37.58],[22.71,37.58]]],[[[20.7,37.9],[20.93,37.9],[20.92,37.64],[20.61,37.71],[20.62,37.9],[20.7,37.9]]],[[[20.49,38.42],[20.57,38.42],[20.8,38.29],[20.79,38.09],[20.32,38.16],[20.33,38.35],[20.49,38.42]]],[[[23.63,38.48],[23.56,38.74],[23.72,38.74],[23.8,38.74],[24.18,38.55],[24.16,38.22],[24.09,38.35],[23.63,38.48]]],[[[23.57,38.8],[23.56,38.74],[23.48,38.74],[23.49,38.8],[23.57,38.8]]],[[[17.5,40.55],[17.98,40.61],[18.36,40.29],[18.44,40.1],[18.36,40.1],[18.35,39.9],[18.11,39.9],[17.81,40.36],[17.42,40.36],[17.35,40.55],[17.03,40.55],[16.87,40.48],[16.95,40.42],[16.86,40.29],[16.62,40.29],[16.7,40.1],[16.46,39.97],[16.45,39.64],[16.92,39.51],[17.07,39.38],[17.14,39.06],[16.5,38.8],[16.49,38.42],[15.93,37.96],[15.7,37.96],[15.62,38.16],[15.39,38.16],[15.07,37.64],[15.06,37.25],[15.21,37.19],[15.21,37],[15.05,36.74],[14.74,36.74],[14.82,37.06],[14.98,37.06],[14.75,37.51],[14.83,37.77],[15.15,38.03],[15.15,38.16],[15.94,38.35],[15.95,38.67],[16.27,38.74],[16.27,38.93],[16.12,39.06],[15.9,39.77],[15.67,39.9],[15.75,40.03],[15.43,40.03],[15.2,40.23],[15.04,40.23],[14.97,40.61],[14.66,40.68],[14.66,40.81],[15.13,40.81],[15.36,40.36],[15.52,40.23],[16.15,40.16],[16.14,39.97],[16.38,40.03],[16.31,40.23],[16.39,40.23],[16.39,40.29],[16.88,40.74],[17.19,40.74],[17.51,40.68],[17.5,40.55]]],[[[24.44,39],[24.67,38.93],[24.66,38.74],[24.36,38.87],[24.36,39],[24.44,39]]],[[[22.94,38.8],[22.62,38.67],[22.45,38.42],[22.37,38.42],[22.29,38.42],[22.37,38.35],[22.28,38.22],[22.59,38.16],[22.66,38.03],[22.66,37.96],[22.26,37.9],[22.12,38.09],[21.96,38.09],[21.95,37.96],[21.33,38.03],[21.33,38.09],[21.73,38.16],[21.74,38.35],[21.19,38.42],[20.97,38.74],[20.74,38.8],[20.91,39.06],[20.68,39.13],[20.68,39.26],[21.08,39.38],[21.09,39.51],[21.64,39.51],[21.51,39.9],[21.51,39.97],[21.83,39.97],[21.92,40.16],[22.21,39.84],[22.7,40.03],[22.69,39.97],[22.61,39.9],[22.76,39.84],[22.76,39.71],[23.14,39.45],[22.82,39.38],[22.8,39.06],[22.96,39.13],[23.11,39],[23.34,39],[23.49,38.8],[23.18,38.87],[23.18,38.93],[23.1,38.93],[23.03,38.93],[23.02,38.87],[22.94,38.87],[22.94,38.8]]],[[[-0.31,39.13],[0.1,38.8],[-0.13,38.55],[-0.54,38.93],[-0.57,39.45],[-0.57,39.51],[-0.51,39.9],[-0.2,39.97],[-0.35,39.71],[-0.31,39.13]]],[[[19.92,39.77],[19.92,39.71],[19.91,39.58],[19.76,39.64],[19.76,39.77],[19.92,39.77]]],[[[19.75,41.13],[19.9,41.07],[19.9,40.87],[19.73,40.74],[19.79,40.36],[19.47,40.29],[19.49,40.61],[19.25,40.61],[19.25,40.74],[19.33,40.74],[19.5,40.87],[19.44,41.33],[19.69,41.46],[19.75,41.13]]],[[[5.06,43.47],[4.18,43.47],[4.17,43.6],[3.85,43.6],[2.98,43.15],[3.01,42.56],[3.18,42.37],[3.04,41.85],[2.7,42.37],[2.78,42.43],[2.67,43.02],[2.75,43.02],[2.74,43.21],[3.45,43.67],[4.73,43.86],[5.87,43.41],[6.59,43.41],[6.6,43.28],[6.28,43.15],[6.2,43.15],[5.8,43.15],[5.63,43.28],[5.39,43.28],[5.39,43.41],[5.06,43.47]]],[[[24.3,35.32],[25.69,35.32],[25.68,35.13],[26.23,35.19],[26.14,35.07],[24.82,35],[24.76,35.19],[24.53,35.19],[24.45,35.19],[23.68,35.26],[23.62,35.52],[24.16,35.52],[24.15,35.39],[24.3,35.32]]],[[[27.12,36.93],[27.19,36.8],[26.87,36.67],[27.04,36.93],[27.12,36.93]]],[[[25.34,37.13],[25.42,37.13],[25.57,37.13],[25.56,37],[25.33,37],[25.34,37.13]]],[[[24.99,37.71],[25.06,37.71],[25.22,37.71],[25.29,37.51],[25.05,37.51],[24.99,37.71]]],[[[26.16,37.71],[26.31,37.71],[26.3,37.58],[25.99,37.51],[26.08,37.71],[26.16,37.71]]],[[[24.77,38.03],[25.07,37.77],[24.83,37.71],[24.68,37.84],[24.69,38.03],[24.77,38.03]]],[[[25.9,38.48],[25.82,38.48],[25.91,38.67],[25.99,38.67],[26.22,38.55],[26.11,38.16],[25.88,38.16],[25.9,38.48]]],[[[27.02,38.8],[27,38.55],[26.92,38.55],[26.87,38.87],[26.96,39],[26.82,39.19],[26.83,39.32],[26.99,39.38],[27.07,39.38],[27.3,39.38],[27.44,39.19],[27.35,38.93],[27.02,38.8]]],[[[26.09,39],[26.1,39.13],[25.79,39.19],[26.04,39.38],[26.12,39.38],[26.51,39.32],[26.64,39],[26.25,38.93],[26.09,39]]],[[[25.15,40.03],[25.46,40.03],[25.45,39.84],[24.97,39.84],[25.07,40.03],[25.15,40.03]]],[[[26.84,39.51],[26.85,39.58],[26.13,39.51],[26.27,40.29],[26.6,40.48],[26.68,40.48],[26.67,40.36],[27.47,40.42],[27.46,40.36],[27.37,40.23],[26.82,40.16],[26.74,40.16],[26.65,40.03],[26.7,39.77],[27.02,39.77],[27.17,39.64],[26.84,39.51]]],[[[25.72,40.29],[25.8,40.29],[26.04,40.29],[26.02,40.16],[25.7,40.1],[25.72,40.29]]],[[[24.49,40.81],[24.57,40.81],[24.81,40.81],[24.79,40.61],[24.55,40.55],[24.49,40.81]]],[[[27.53,41.07],[26.84,40.48],[26.78,40.68],[26.63,40.74],[26.14,40.61],[26.08,40.87],[25.85,40.94],[24.35,41],[24.01,40.74],[23.7,40.81],[23.68,40.61],[23.84,40.55],[23.74,40.23],[23.27,40.29],[22.89,40.55],[22.89,40.61],[23.53,40.61],[23.63,40.94],[24.04,41.13],[25.16,41.26],[26.5,41.07],[26.98,41.2],[27.09,41.46],[27.63,41.33],[27.81,41.52],[28.13,41.59],[28.21,41.59],[28.35,41.39],[28.98,41.26],[28.96,41.13],[29.37,41.2],[29.26,40.87],[29.1,40.94],[29.12,41.07],[28.71,41],[28.63,41],[28.41,41.13],[28.17,41.13],[28.08,41],[27.53,41.07]]],[[[28.02,36.48],[28.09,36.48],[28.25,36.48],[28.14,36.03],[27.74,35.9],[27.69,36.29],[28.02,36.48]]],[[[28.14,37.06],[28.07,37.13],[27.6,37.13],[27.54,37.38],[27.22,37.32],[27.31,37.45],[27.16,37.58],[27.26,37.77],[27.18,37.77],[27.28,38.03],[26.89,38.09],[26.82,38.22],[26.43,38.22],[26.38,38.67],[26.54,38.61],[26.59,38.35],[26.83,38.35],[26.91,38.35],[27.29,38.22],[27.48,37.58],[27.86,37.45],[27.85,37.38],[28.24,37.38],[28.51,36.87],[28.43,36.87],[28.03,36.67],[28.14,37.06]]],[[[27.94,40.36],[29.05,40.36],[29.05,40.42],[29.21,40.42],[29.11,40.23],[27.85,40.23],[27.85,40.29],[27.7,40.29],[27.79,40.48],[27.95,40.48],[27.94,40.36]]],[[[29.96,40.81],[29.95,40.68],[29.79,40.68],[29.88,40.81],[29.96,40.81]]],[[[40.46,41],[40.6,40.87],[40.58,40.74],[40.41,40.68],[39.62,40.68],[39.4,40.81],[39,40.81],[38.82,40.68],[37.87,40.68],[37.36,40.94],[36.51,41.13],[36.53,41.26],[36.61,41.26],[36.77,41.33],[37.07,41.13],[37.23,41.2],[37.21,41.07],[37.77,41.07],[37.83,40.94],[38.16,41],[38.3,40.87],[38.95,41],[38.96,41.07],[39.21,41.13],[39.74,40.94],[40.38,41],[40.46,41]]],[[[31.36,41.26],[31.69,41.39],[31.59,41.2],[31.51,41.2],[31.36,41.26]]],[[[35.02,41.85],[34.79,41.98],[35.12,42.04],[35.09,41.78],[35.01,41.78],[35.02,41.85]]],[[[40.42,43.15],[40.22,43.41],[39.98,43.41],[39.63,43.73],[40.41,43.6],[40.32,43.54],[40.38,43.41],[41.15,43.21],[41.21,43.08],[41.44,43.02],[41.41,42.89],[41.33,42.89],[41.17,42.89],[41.12,43.02],[40.82,43.15],[40.42,43.15]]],[[[27.61,41.98],[27.32,42.24],[27.33,42.37],[27.17,42.43],[27.19,42.63],[27.45,42.82],[27.66,43.28],[27.99,43.41],[28.02,43.67],[28.3,44.06],[28.46,44.84],[28.64,44.97],[28.72,44.97],[28.8,44.97],[28.84,44.58],[28.58,44.39],[28.54,43.99],[28.62,43.99],[28.48,43.47],[28.16,43.47],[28.23,43.34],[27.9,43.28],[27.8,43.15],[27.85,42.82],[27.85,42.76],[27.51,42.63],[27.49,42.43],[27.94,42.04],[27.93,41.98],[27.61,41.98]]],[[[39.95,43.73],[39.96,43.8],[40.04,43.8],[40.03,43.73],[39.95,43.73]]],[[[36.26,45.43],[36.07,45.24],[36.04,45.04],[35.96,45.04],[35.73,45.17],[35.41,45.17],[35.3,44.97],[34.38,44.78],[33.93,44.45],[33.52,44.45],[33.47,44.65],[33.55,44.65],[33.61,45.1],[33.54,45.16],[33.78,45.16],[33.77,45.1],[33.92,44.97],[35.05,45.3],[35.75,45.3],[36.18,45.43],[36.26,45.43]]],[[[31.53,46.68],[30.88,46.68],[30.3,45.96],[30.04,45.89],[29.86,45.69],[29.61,45.69],[29.64,45.96],[30.19,46.41],[30.27,46.41],[30.46,46.61],[31.07,46.87],[31.08,47.01],[31.57,46.94],[31.53,46.68]]],[[[39.08,47.6],[39.14,47.47],[39.13,47.4],[39.2,47.33],[38.35,47.2],[38.38,47.4],[38.67,47.6],[39.08,47.6]]]]}},{"type":"Feature","properties":{"NAME":"Xu","C":1,"name":"Xu","start_year":-404,"end_year":-292,"capital":"","type":"polity","region":"","event":"","source":"Cliopatria / Seshat Global History Databank (CC BY 4.0)","wikipedia":"Xu (state)","wikidata":"Q2650109","_a":1,"_c":[116.97,35.2],"_nz":"徐","_sz":""},"geometry":{"type":"Polygon","coordinates":[[[117.21,35.32],[117.16,35.19],[117.31,35.19],[117.41,35.07],[117.02,34.87],[116.76,35],[116.74,35.13],[116.59,35.13],[116.52,35.32],[117.07,35.52],[117.21,35.32]]]}},{"type":"Feature","properties":{"NAME":"Yan","C":2,"name":"Yan","start_year":-404,"end_year":-292,"capital":"","type":"polity","region":"","event":"","source":"Cliopatria / Seshat Global History Databank (CC BY 4.0)","wikipedia":"Yan (state)","wikidata":"Q1472004","_a":11,"_c":[118.97,39.78],"_nz":"燕","_sz":""},"geometry":{"type":"Polygon","coordinates":[[[119.32,39.51],[119.38,39.77],[120.5,40.23],[120.65,40.48],[121.23,40.94],[119.34,40.42],[117.57,40.36],[117.07,40.16],[117.03,40.1],[116.93,39.9],[117.01,39.77],[116.8,39.51],[116.93,39.32],[116.7,38.87],[116.9,38.8],[116.87,38.74],[117.11,38.74],[117.12,38.61],[117.2,38.61],[117.62,38.67],[117.68,38.93],[117.89,39.19],[118.05,39.19],[118.06,39.06],[118.45,39.06],[118.99,39.19],[119.28,39.45],[119.32,39.51]]]}},{"type":"Feature","properties":{"NAME":"Later Zhou","C":0,"name":"Later Zhou","start_year":-404,"end_year":-367,"capital":"","type":"polity","region":"","event":"","source":"Cliopatria / Seshat Global History Databank (CC BY 4.0)","wikipedia":"Later Zhou","wikidata":"Q1154556","_a":1,"_c":[112.82,35.2],"_nz":"后周","_sz":""},"geometry":{"type":"Polygon","coordinates":[[[112.32,35.45],[112.11,34.94],[113.26,34.94],[113.53,35.39],[113.45,35.39],[112.32,35.45]]]}},{"type":"Feature","properties":{"NAME":"Lu","C":1,"name":"Lu","start_year":-404,"end_year":-285,"capital":"","type":"polity","region":"","event":"","source":"Cliopatria / Seshat Global History Databank (CC BY 4.0)","wikipedia":"Lu (state)","wikidata":"Q555994","_a":2,"_c":[116.36,35.87],"_nz":"鲁","_sz":""},"geometry":{"type":"Polygon","coordinates":[[[116.97,35.64],[117.02,35.77],[116.85,35.9],[116.91,36.03],[116.5,36.16],[116.48,36.29],[116.2,36.35],[116.23,36.42],[115.68,36.22],[115.65,36.16],[115.8,36.16],[115.76,35.9],[116.05,35.84],[115.96,35.64],[116.06,35.52],[116.21,35.52],[116.29,35.32],[116.52,35.32],[117.07,35.52],[116.97,35.64]]]}},{"type":"Feature","properties":{"NAME":"Peloponnesian League","C":6,"name":"Peloponnesian League","start_year":-404,"end_year":-384,"capital":"","type":"polity","region":"","event":"","source":"Cliopatria / Seshat Global History Databank (CC BY 4.0)","wikipedia":"Peloponnesian League","wikidata":"Q208742","_a":6,"_c":[22.66,37.74],"_nz":"伯罗奔尼撒同盟","_sz":""},"geometry":{"type":"Polygon","coordinates":[[[23.36,38.03],[23.04,37.9],[23.04,37.77],[23.11,37.64],[23.34,37.64],[23.4,37.32],[23.17,37.32],[23.1,37.51],[22.87,37.58],[22.79,37.58],[22.8,37.77],[22.57,37.77],[22.55,37.51],[22.55,37.45],[22.71,37.45],[22.7,37.32],[22.85,37.25],[23.06,36.67],[22.83,36.87],[22.6,36.87],[22.51,36.67],[22.36,36.67],[22.22,37.06],[21.91,37.06],[21.9,36.87],[21.74,36.87],[21.68,37.19],[21.6,37.19],[21.7,37.51],[21.24,37.84],[21.33,37.96],[21.33,38.03],[21.95,37.96],[21.96,38.09],[22.12,38.09],[22.26,37.9],[22.66,37.96],[22.74,37.96],[22.97,37.96],[23.06,38.16],[22.75,38.22],[22.84,38.35],[22.52,38.29],[22.6,38.42],[22.53,38.42],[22.45,38.42],[22.62,38.67],[22.94,38.8],[22.94,38.74],[23.17,38.67],[23.31,38.48],[23.7,38.48],[24.08,38.29],[23.98,37.84],[23.44,38.03],[23.36,38.03]]]}},{"type":"Feature","properties":{"NAME":"Carthage","C":7,"name":"Carthage","start_year":-404,"end_year":-384,"capital":"","type":"polity","region":"","event":"","source":"Cliopatria / Seshat Global History Databank (CC BY 4.0)","wikipedia":"Ancient Carthage","wikidata":"Q2429397","_a":298,"_c":[5.51,35.69],"_nz":"迦太基","_sz":""},"geometry":{"type":"MultiPolygon","coordinates":[[[[11.08,35.58],[11.08,35.39],[11.01,35.39],[11.08,35],[10.85,34.94],[10.85,34.81],[10.54,34.55],[10,34.29],[10.08,34.23],[10.01,33.91],[10.24,33.71],[10.54,33.71],[10.7,33.52],[11.08,33.59],[11.16,33.2],[11.46,33.2],[12.23,32.81],[12.61,32.88],[12.53,32.75],[12.84,32.75],[12.84,32.88],[13.3,32.94],[13.45,32.81],[13.76,32.88],[13.76,32.75],[14.07,32.75],[14.44,32.49],[14.67,32.56],[14.75,32.43],[15.06,32.43],[15.28,32.3],[15.42,31.66],[15.58,31.59],[15.65,31.4],[16.18,31.21],[16.86,31.21],[17.85,30.95],[18.22,30.76],[18.59,30.37],[18.9,30.37],[18.81,30.12],[18.59,30.12],[18.22,30.5],[17.16,30.89],[15.57,31.14],[15.19,31.46],[15.05,32.11],[14.9,32.24],[14.52,32.17],[14.44,32.36],[13.76,32.62],[12,32.62],[12.08,32.75],[11.62,32.94],[11.08,32.88],[10.7,33.14],[10.47,33.14],[10.47,33.26],[9.85,33.39],[9.62,33.33],[9.55,33.52],[9.32,33.59],[9.08,34.04],[8.93,34.04],[9,34.36],[8.93,34.36],[8.85,34.74],[8.46,34.87],[8.23,34.81],[8.07,34.94],[7.91,35.97],[7.83,35.97],[7.9,36.22],[7.59,36.61],[6.96,36.61],[6.89,36.48],[6.42,36.55],[6.35,36.42],[5.88,36.48],[5.65,36.35],[2.77,36.42],[2.32,36.22],[2,36.29],[2.01,36.16],[1.15,36.16],[1.01,36.03],[0.77,36.03],[0.48,35.64],[-0.29,35.58],[-1.04,35.07],[-1.2,35.13],[-1.35,35],[-1.81,34.94],[-1.88,34.81],[-2.81,34.94],[-4.73,34.87],[-4.74,35],[-5.21,35.13],[-5.39,35.45],[-5.63,35.52],[-5.9,35],[-5.81,34.87],[-5.97,34.87],[-6.24,34.36],[-6.16,34.23],[-6.31,34.23],[-6.6,33.97],[-6.59,33.84],[-6.81,33.71],[-6.73,33.59],[-7.18,33.52],[-7.47,33.26],[-7.88,33.52],[-7.13,33.84],[-7.06,33.97],[-6.9,33.91],[-6.61,34.16],[-6.7,34.29],[-6.47,34.36],[-6.48,34.49],[-6.26,34.68],[-6.2,34.94],[-6.29,35.07],[-6.13,35],[-5.95,35.71],[-5.57,35.84],[-5.34,35.84],[-5.24,35.52],[-4.75,35.19],[-3.13,35.19],[-2.98,35.26],[-2.99,35.45],[-2.84,35.45],[-2.82,35.13],[-2.66,35.07],[-1.89,35.07],[-1.59,35.26],[-1.36,35.26],[-1.14,35.45],[-1.22,35.64],[-1.07,35.58],[-0.92,35.71],[-0.53,35.71],[-0.46,35.84],[0.08,35.84],[0.38,36.22],[0.68,36.29],[0.68,36.42],[0.91,36.35],[1.22,36.55],[1.53,36.48],[2.38,36.67],[2.69,36.61],[2.84,36.74],[3.23,36.74],[3.46,36.87],[3.85,36.8],[4.24,36.93],[4.86,36.87],[5.1,36.67],[5.56,36.67],[5.64,36.8],[6.11,36.8],[6.1,36.93],[6.33,37.06],[6.8,36.87],[7.19,36.87],[7.35,37.06],[7.5,37.06],[7.74,36.87],[8.52,36.87],[8.9,37.13],[9.06,37.06],[9.37,37.25],[9.76,37.32],[9.99,37.19],[10.23,37.25],[10.23,37.06],[10.31,37.06],[10.23,36.8],[10.46,36.74],[11.01,37],[11.01,36.8],[10.46,36.42],[10.54,36.35],[10.46,35.9],[10.85,35.71],[10.85,35.64],[11.08,35.58]]],[[[14.57,35.77],[14.34,35.84],[14.34,36.03],[14.42,36.03],[14.57,35.97],[14.57,35.77]]],[[[-3.85,36.8],[-4.47,36.74],[-4.69,36.55],[-5.23,36.48],[-5.29,36.22],[-5.52,36.16],[-5.58,36.03],[-5.83,36.22],[-6.06,36.22],[-6.25,36.61],[-5.92,36.35],[-5.45,36.35],[-5.31,36.48],[-5.31,36.55],[-4.56,36.87],[-3.85,36.8]]],[[[14.82,37.06],[14.74,36.74],[14.28,37.13],[13.58,37.25],[13.19,37.58],[12.49,37.71],[12.49,37.9],[12.65,38.09],[12.81,38.09],[12.73,37.84],[12.96,37.84],[13.5,37.58],[13.58,37.58],[14.75,37.13],[14.82,37.06]]],[[[13.04,37.96],[13.12,38.16],[13.51,38.09],[13.51,38.03],[13.67,37.96],[13.04,37.96]]],[[[1.66,39],[1.43,38.8],[1.27,38.8],[1.18,39.06],[1.26,39.13],[1.34,39.13],[1.65,39.13],[1.66,39]]],[[[9.82,40.74],[9.82,40.36],[9.67,40.29],[9.75,39.64],[9.67,39.64],[9.59,39.13],[9.12,39.19],[8.97,38.87],[8.73,38.87],[8.34,39],[8.41,39.26],[8.33,39.26],[8.33,39.51],[8.41,39.51],[8.48,39.9],[8.32,39.97],[8.4,40.29],[8.32,40.29],[8.32,40.48],[8.16,40.55],[8.15,40.94],[8.55,40.87],[9.02,41.26],[9.1,41.26],[9.5,41.2],[9.82,40.74]]]]}},{"type":"Feature","properties":{"NAME":"Han","C":9,"name":"Han","start_year":-404,"end_year":-367,"capital":"","type":"polity","region":"","event":"","source":"Cliopatria / Seshat Global History Databank (CC BY 4.0)","wikipedia":"Han (state)","wikidata":"Q1968654","_a":5,"_c":[112.42,35.29],"_nz":"汉","_sz":""},"geometry":{"type":"MultiPolygon","coordinates":[[[[113.13,34.81],[113.21,34.81],[113.29,34.81],[113.26,34.74],[113.34,34.74],[113.31,34.68],[113.29,34.61],[111.36,34.61],[110.59,34.81],[111.08,35.45],[112.32,35.45],[112.11,34.94],[113.26,34.94],[113.24,34.87],[113.16,34.87],[113.13,34.81]]],[[[114.07,35.39],[113.53,35.39],[113.45,35.39],[113.62,35.97],[114.24,35.97],[114.07,35.39]]]]}},{"type":"Feature","properties":{"NAME":"Zheng","C":4,"name":"Zheng","start_year":-404,"end_year":-384,"capital":"","type":"polity","region":"","event":"","source":"Cliopatria / Seshat Global History Databank (CC BY 4.0)","wikipedia":"Zheng (state)","wikidata":"Q197598","_a":2,"_c":[114.18,35.16],"_nz":"郑","_sz":""},"geometry":{"type":"Polygon","coordinates":[[[113.57,34.74],[114.47,34.87],[115.23,35.39],[114.98,35.71],[114.83,35.71],[114.75,35.71],[114.3,35.39],[114.07,35.39],[113.53,35.39],[113.26,34.94],[113.24,34.87],[113.13,34.81],[113.29,34.81],[113.29,34.61],[113.44,34.61],[113.49,34.74],[113.57,34.74]]]}},{"type":"Feature","properties":{"NAME":"Wey","C":3,"name":"Wey","start_year":-404,"end_year":-367,"capital":"","type":"polity","region":"","event":"","source":"Cliopatria / Seshat Global History Databank (CC BY 4.0)","wikipedia":"Wey (state)","wikidata":"Q1147897","_a":1,"_c":[115.12,36.23],"_nz":"卫","_sz":""},"geometry":{"type":"Polygon","coordinates":[[[114.61,36.1],[114.55,35.97],[114.75,35.71],[114.83,35.71],[115.65,36.16],[115.68,36.22],[115.6,36.22],[115.63,36.29],[115.66,36.35],[115.58,36.35],[115.61,36.42],[115.36,36.74],[114.61,36.1]]]}}]}