{"type":"FeatureCollection", "features": [
{"type":"Feature","geometry":{"type":"Polygon","coordinates":[[[117.64,38.87],[117.78,39.13],[118.08,39.26],[117.87,39.45],[117.71,39.45],[117.72,39.77],[117.6,39.84],[117.66,40.1],[117.29,40.29],[117.03,40.1],[116.18,39.84],[114.92,39.84],[114.54,39.71],[113.54,39],[112.28,37.32],[111.04,36.1],[110.81,36.1],[110.6,35.77],[109.38,35.84],[109,36.03],[107.73,35.97],[107.4,35.9],[106.98,35.26],[107.35,35],[107.37,34.87],[108.2,34.61],[110.67,34.61],[110.72,34.36],[111.08,34.1],[111,33.91],[111.21,33.65],[111.6,33.46],[111.68,33.26],[112.75,33.07],[112.93,32.94],[113.49,33.01],[113.75,32.88],[114.03,33.01],[114.01,32.75],[114.14,32.49],[114.39,32.56],[114.65,32.43],[114.89,32.04],[115.09,31.98],[115.47,31.98],[115.68,31.91],[115.71,31.59],[116.08,31.34],[117.66,31.08],[118.44,31.14],[118.92,31.4],[119.35,31.34],[120.29,31.4],[120.75,31.21],[121.48,31.34],[121.63,31.53],[120.92,31.85],[121.3,31.85],[121.84,31.66],[121.96,31.98],[121.5,32.17],[121.4,32.49],[120.92,32.62],[120.93,33.2],[120.55,33.59],[120.49,34.16],[120.34,34.36],[119.73,34.55],[119.71,34.68],[119.23,34.81],[119.62,35.52],[119.99,35.64],[120.32,36.03],[120.66,36.1],[120.73,36.42],[120.96,36.42],[120.98,36.61],[121.21,36.61],[121.91,36.93],[122.39,36.8],[122.57,37],[122.47,37.13],[122.71,37.45],[122.12,37.51],[121.5,37.51],[121.48,37.64],[121.17,37.64],[121.11,37.84],[120.75,37.9],[120.19,37.71],[120.2,37.58],[119.83,37.45],[119.7,37.19],[119.16,37.19],[118.98,37.32],[119.24,37.84],[119.46,37.96],[118.77,38.16],[118.58,38.09],[118.07,38.16],[118.05,38.29],[117.6,38.48],[117.64,38.87]]]},"properties":{"NAME":"Zhou Dynasty","C":0,"name":"Zhou Dynasty","start_year":-1000,"end_year":-801,"capital":"","type":"polity","region":"","event":"","source":"Cliopatria / Seshat Global History Databank (CC BY 4.0)","wikipedia":"Zhou dynasty","wikidata":"Q35216","_a":145,"_c":[114.85,35.69],"_nz":"周","_sz":""}},
{"type":"Feature","geometry":{"type":"Polygon","coordinates":[[[45.87,31.91],[45.82,32.11],[45.61,32.3],[45.46,32.3],[45.19,32.62],[44.68,32.75],[44.58,33.2],[44.43,33.2],[43.83,32.69],[43.44,32.62],[43.42,32.49],[44.46,31.59],[44.58,31.34],[44.81,31.34],[45.02,31.14],[45.18,31.21],[45.15,31.66],[45.98,31.53],[45.87,31.91]]]},"properties":{"NAME":"Babylonia","C":5,"name":"Babylonia","start_year":-1000,"end_year":-901,"capital":"","type":"polity","region":"","event":"","source":"Cliopatria / Seshat Global History Databank (CC BY 4.0)","wikipedia":"Babylonia","wikidata":"Q47690","_a":5,"_c":[44.7,32.17],"_nz":"巴比伦尼亚","_sz":""}},
{"type":"Feature","geometry":{"type":"Polygon","coordinates":[[[33.46,23.81],[33.32,24.01],[33.27,24.59],[33.2,24.59],[33.2,26.07],[33.12,26.07],[33.08,26.64],[32.86,26.84],[32.53,27.54],[32.6,28.7],[32.76,28.96],[32.43,29.6],[32.44,29.79],[32.6,29.92],[32.56,30.37],[32.81,30.69],[32.75,30.95],[32.84,31.08],[32,31.08],[31.88,31.46],[31.27,31.46],[30.97,31.53],[30.81,31.46],[30.35,31.46],[30.34,31.27],[29.88,31.27],[29.87,31.08],[29.4,30.82],[28.87,30.82],[28.64,30.95],[28.91,30.37],[28.96,29.79],[29.03,29.79],[29,29.15],[28.92,29.15],[28.96,28.44],[28.8,28.32],[28.7,27.87],[28.55,27.74],[28.61,27.35],[28.36,26.84],[28.25,26.07],[28.29,25.16],[28.64,24.59],[29.67,24.2],[30.1,23.75],[30.4,23.56],[30.54,23.36],[31.67,23.75],[32.04,23.69],[33.46,23.81]]]},"properties":{"NAME":"New Kingdom of Egypt","C":7,"name":"New Kingdom of Egypt","start_year":-1000,"end_year":-901,"capital":"","type":"polity","region":"","event":"","source":"Cliopatria / Seshat Global History Databank (CC BY 4.0)","wikipedia":"New Kingdom of Egypt","wikidata":"Q180568","_a":43,"_c":[30.86,27.51],"_nz":"新王国时期埃及","_sz":""}},
{"type":"Feature","geometry":{"type":"Polygon","coordinates":[[[34.99,31.34],[35.38,31.46],[35.98,31.4],[36.07,31.53],[36.6,31.46],[36.77,31.72],[36.63,31.85],[36.26,31.91],[35.9,32.17],[35.91,32.3],[36.31,32.49],[36.18,32.69],[35.95,32.75],[36.08,33.26],[35.85,33.33],[35.7,33.33],[35.45,33.07],[35.24,32.49],[35.08,32.43],[35.14,32.24],[35.03,31.85],[34.87,31.72],[35,31.53],[34.99,31.34]]]},"properties":{"NAME":"Kingdom of Israel","C":0,"name":"Kingdom of Israel","start_year":-1000,"end_year":-901,"capital":"","type":"polity","region":"","event":"","source":"Cliopatria / Seshat Global History Databank (CC BY 4.0)","wikipedia":"Kingdom of Israel (united monarchy)","wikidata":"Q3185305","_a":4,"_c":[35.82,32.34],"_nz":"以色列王国","_sz":""}},
{"type":"Feature","geometry":{"type":"MultiPolygon","coordinates":[[[[34.53,35.58],[34.31,35.71],[33.74,35.39],[32.89,35.39],[32.88,35.26],[32.55,35.13],[32.25,35.13],[32.23,34.94],[32.37,34.74],[33.04,34.55],[33.13,34.68],[33.52,34.74],[33.7,34.94],[34.09,35],[33.96,35.26],[34.53,35.58]]],[[[23.62,35.52],[23.68,35.26],[24.45,35.19],[24.76,35.19],[24.82,35],[25.68,35.13],[25.69,35.32],[24.3,35.32],[24.16,35.52],[23.62,35.52]]],[[[28.14,36.03],[28.25,36.48],[28.02,36.48],[27.69,36.29],[27.74,35.9],[28.14,36.03]]],[[[26.87,36.67],[27.19,36.8],[27.04,36.93],[26.87,36.67]]],[[[27.67,37],[27.52,37.19],[27.21,37.13],[27.19,36.93],[27.67,37]]],[[[23.56,38.74],[23.63,38.48],[23.31,38.48],[22.94,38.87],[23.49,38.8],[23.12,39.13],[22.8,39.06],[22.82,39.38],[23.14,39.45],[22.53,39.9],[22.59,39.51],[22.34,39.38],[22.56,39.06],[22.55,38.87],[22.39,38.74],[21.91,38.67],[21.6,38.74],[21.28,38.55],[21.27,38.42],[21.74,38.35],[21.73,38.16],[21.42,38.16],[21.24,37.84],[21.7,37.51],[21.68,37.19],[21.91,37.06],[22.22,37.06],[22.36,36.67],[22.6,36.87],[22.83,36.87],[22.85,37.25],[22.7,37.32],[22.71,37.58],[22.95,37.58],[23.4,37.32],[23.34,37.64],[23.11,37.64],[23.04,37.9],[23.21,38.03],[23.44,38.03],[23.98,37.84],[24,38.22],[24.16,38.22],[24.18,38.55],[24.03,38.67],[23.56,38.74]]],[[[25.88,38.16],[26.11,38.16],[26.22,38.55],[25.91,38.67],[25.88,38.16]]]]},"properties":{"NAME":"Greek Dark Ages","C":2,"name":"Greek Dark Ages","start_year":-1000,"end_year":-901,"capital":"","type":"polity","region":"","event":"","source":"Cliopatria / Seshat Global History Databank (CC BY 4.0)","wikipedia":"Greek Dark Ages","wikidata":"Q210443","_a":74,"_c":[27.89,37.33],"_nz":"希腊黑暗时代","_sz":""}},
{"type":"Feature","geometry":{"type":"Polygon","coordinates":[[[48.82,31.72],[49.1,32.11],[49.28,32.81],[49.05,32.81],[48.99,32.94],[48.68,32.94],[48.55,33.07],[48.09,33.07],[47.79,32.56],[47.74,32.24],[47.64,32.04],[47.91,31.79],[47.79,31.4],[48.81,31.66],[48.82,31.72]]]},"properties":{"NAME":"Elam","C":11,"name":"Elam","start_year":-1000,"end_year":-901,"capital":"","type":"polity","region":"","event":"","source":"Cliopatria / Seshat Global History Databank (CC BY 4.0)","wikipedia":"Elam","wikidata":"Q128904","_a":3,"_c":[48.44,32.24],"_nz":"埃兰","_sz":""}},
{"type":"Feature","geometry":{"type":"Polygon","coordinates":[[[44.71,35.32],[44.83,35.64],[44.7,35.84],[45.01,35.84],[45.03,35.97],[44.6,36.22],[44.4,36.42],[44.28,36.67],[43.6,36.29],[43.41,36.03],[43.45,35.71],[42.96,35.52],[42.84,35.19],[42.89,35],[43.45,35.13],[43.87,34.87],[44.25,34.81],[44.52,34.49],[44.84,34.61],[44.97,35],[44.6,35.13],[44.71,35.32]]]},"properties":{"NAME":"Assyria","C":10,"name":"Assyria","start_year":-1000,"end_year":-901,"capital":"","type":"polity","region":"","event":"","source":"Cliopatria / Seshat Global History Databank (CC BY 4.0)","wikipedia":"Assyria","wikidata":"Q41137","_a":5,"_c":[43.94,35.58],"_nz":"亚述","_sz":""}},
{"type":"Feature","geometry":{"type":"Polygon","coordinates":[[[36.13,36.61],[35.79,36.31],[35.97,36.01],[36.39,35.9],[37.05,36.18],[37.66,36.63],[38.28,37.18],[38.6,37.64],[38.08,38.13],[37.62,37.62],[36.16,36.84],[36.13,36.61]]]},"properties":{"NAME":"Neo-Hittite states","C":6,"name":"Neo-Hittite states","start_year":-1000,"end_year":-901,"capital":"","type":"polity","region":"","event":"","source":"Cliopatria / Seshat Global History Databank (CC BY 4.0)","wikipedia":"Neo-Hittite states","wikidata":"Q770281","_a":6,"_c":[37.2,37.02],"_nz":"新赫梯诸国","_sz":""}},
{"type":"Feature","geometry":{"type":"Polygon","coordinates":[[[35.85,33.33],[36.11,33.59],[36.2,33.78],[36.15,34.04],[36.24,34.16],[36.38,34.74],[36.18,35.07],[36.34,35.13],[36.41,35.77],[36.19,35.9],[35.88,35.9],[35.84,35.58],[35.99,35.52],[35.93,34.87],[36.07,34.74],[36.05,34.55],[35.79,34.29],[35.68,33.97],[35.45,33.91],[35.35,33.65],[35.4,33.39],[35.23,33.2],[35.37,33.07],[35.45,33.07],[35.7,33.33],[35.85,33.33]]]},"properties":{"NAME":"Phoenicia","C":2,"name":"Phoenicia","start_year":-1000,"end_year":-901,"capital":"","type":"polity","region":"","event":"","source":"Cliopatria / Seshat Global History Databank (CC BY 4.0)","wikipedia":"Phoenicia","wikidata":"Q41642","_a":3,"_c":[35.82,34.49],"_nz":"腓尼基","_sz":""}},
{"type":"Feature","geometry":{"type":"Polygon","coordinates":[[[30.54,23.36],[30.74,22.85],[30.72,22.27],[30.64,21.95],[30.69,21.31],[30.76,21.31],[30.74,20.79],[30.82,20.79],[30.8,20.34],[30.88,20.34],[31.15,17.64],[31.22,17.64],[31.34,16.81],[31.48,16.61],[31.39,16.36],[31.54,16.23],[31.53,15.97],[31.73,15.59],[32.09,15.39],[32.53,15.33],[32.53,15.2],[33.86,15.46],[34.1,15.84],[34.68,15.78],[34.56,16.23],[34.71,16.49],[35.67,16.49],[36.05,16.81],[36,17.32],[35.5,17.64],[35.3,18.09],[34.94,18.29],[34.88,18.61],[34.6,18.93],[34.47,19.38],[34.26,19.64],[33.82,21.63],[33.88,23.17],[33.81,23.17],[33.75,23.62],[33.46,23.81],[32.04,23.69],[31.67,23.75],[30.54,23.36]]]},"properties":{"NAME":"Kingdom of Kush","C":3,"name":"Kingdom of Kush","start_year":-1000,"end_year":-801,"capital":"","type":"polity","region":"","event":"","source":"Cliopatria / Seshat Global History Databank (CC BY 4.0)","wikipedia":"Kingdom of Kush","wikidata":"Q241790","_a":48,"_c":[33.29,19.51],"_nz":"库施王国","_sz":""}},
{"type":"Feature","geometry":{"type":"Polygon","coordinates":[[[35.37,33.07],[35.06,33.01],[35.02,32.62],[34.77,32.36],[34.81,31.98],[34.57,31.85],[34.63,31.66],[34.31,31.4],[34.29,31.14],[34.43,31.01],[34.91,31.34],[34.99,31.34],[35,31.53],[34.87,31.72],[35.03,31.85],[35.14,32.24],[35.08,32.43],[35.24,32.49],[35.45,33.07],[35.37,33.07]]]},"properties":{"NAME":"Philistia","C":3,"name":"Philistia","start_year":-1000,"end_year":-901,"capital":"","type":"polity","region":"","event":"","source":"Cliopatria / Seshat Global History Databank (CC BY 4.0)","wikipedia":"Philistia","wikidata":"Q7185566","_a":2,"_c":[34.87,32.08],"_nz":"非利士","_sz":""}}
]}