{"type":"FeatureCollection","features":[{"type":"Feature","properties":{"NAME":"Jin","C":7,"name":"Jin","start_year":-750,"end_year":-551,"capital":"","type":"polity","region":"","event":"","source":"Cliopatria / Seshat Global History Databank (CC BY 4.0)","wikipedia":"Jin (Chinese state)","wikidata":"Q6201794","_a":37,"_c":[113.9,37.07],"_nz":"晋","_sz":""},"geometry":{"type":"Polygon","coordinates":[[[114.28,35.52],[114.31,35.77],[114.61,36.1],[115.44,36.74],[115.96,37.19],[116.22,37.58],[116.44,37.71],[116.6,38.03],[117.2,38.61],[116.15,38.55],[116.4,38.74],[116.16,38.74],[116.26,38.93],[116.09,39.06],[116.1,39.38],[115.86,39.38],[116.1,39.84],[116.02,39.84],[115.9,39.9],[115.83,39.77],[115.45,39.64],[114.36,38.74],[114.09,38.67],[114.11,38.55],[113.27,37.77],[112.2,37.32],[112.17,37.25],[111.41,36.42],[111.23,36.35],[111.06,35.77],[111.16,35.64],[111,35.26],[110.67,35],[110.59,34.81],[110.72,34.74],[110.69,34.49],[110.82,34.42],[110.82,34.23],[110.9,34.23],[112.15,34.49],[112.18,34.94],[112.11,34.94],[112.32,35.45],[113.53,35.39],[113.61,35.39],[113.68,35.39],[113.76,35.39],[114.23,35.39],[114.25,35.45],[114.28,35.52]]]}},{"type":"Feature","properties":{"NAME":"Qin","C":2,"name":"Qin","start_year":-750,"end_year":-451,"capital":"","type":"polity","region":"","event":"","source":"Cliopatria / Seshat Global History Databank (CC BY 4.0)","wikipedia":"Qin (state)","wikidata":"Q1471995","_a":13,"_c":[110.06,35.74],"_nz":"秦","_sz":""},"geometry":{"type":"Polygon","coordinates":[[[110.74,34.23],[110.36,34.23],[109.69,34.49],[107.94,34.55],[108.45,35.26],[108.3,35.26],[108.35,35.39],[108.17,35.52],[108.22,35.64],[108.79,35.71],[109.65,36.48],[112.09,37.25],[112.17,37.25],[111.41,36.42],[111.23,36.35],[111.06,35.77],[111.16,35.64],[111,35.26],[110.67,35],[110.59,34.81],[110.72,34.74],[110.69,34.49],[110.82,34.42],[110.82,34.23],[110.74,34.23]]]}},{"type":"Feature","properties":{"NAME":"Etruscans","C":4,"name":"Etruscans","start_year":-750,"end_year":-651,"capital":"","type":"polity","region":"","event":"","source":"Cliopatria / Seshat Global History Databank (CC BY 4.0)","wikipedia":"Etruscan civilization","wikidata":"Q17161","_a":10,"_c":[12.09,42.47],"_nz":"伊特鲁里亚人","_sz":""},"geometry":{"type":"MultiPolygon","coordinates":[[[[11.73,42.17],[11.65,42.37],[11.49,42.3],[11.42,42.43],[11.26,42.43],[11.18,42.63],[11.02,42.63],[11.02,42.82],[10.54,43.08],[10.29,43.8],[11.99,43.8],[12.55,43.41],[12.95,43.47],[13.18,42.82],[13.5,42.69],[13.42,42.56],[13.26,42.56],[13.33,42.17],[13.09,42.24],[13.01,42.11],[13.33,42.04],[13.33,41.91],[13.57,41.85],[13.81,41.91],[14.04,41.72],[14.03,41.39],[13.87,41.13],[13.71,41.26],[13,41.33],[12.37,41.72],[12.45,42.11],[11.97,42.11],[11.89,42.11],[11.73,42.17]]],[[[10.21,42.89],[10.46,42.89],[10.46,42.69],[10.21,42.69],[10.13,42.89],[10.21,42.89]]]]}},{"type":"Feature","properties":{"NAME":"Qi","C":0,"name":"Qi","start_year":-750,"end_year":-551,"capital":"","type":"polity","region":"","event":"","source":"Cliopatria / Seshat Global History Databank (CC BY 4.0)","wikipedia":"Qi (state)","wikidata":"Q1143524","_a":21,"_c":[119.07,37.26],"_nz":"齐","_sz":""},"geometry":{"type":"Polygon","coordinates":[[[119.13,38.09],[118.77,38.16],[118.8,38.22],[118.65,38.22],[118.58,38.09],[118.07,38.16],[118.05,38.29],[117.6,38.48],[117.62,38.67],[117.23,38.67],[117.2,38.61],[116.6,38.03],[116.44,37.71],[116.22,37.58],[115.96,37.19],[115.44,36.74],[115.64,36.48],[115.52,36.22],[115.6,36.22],[115.8,36.16],[115.76,35.9],[116.05,35.84],[117.35,36.16],[119.9,36.29],[120.53,36.48],[120.73,36.42],[120.81,36.42],[120.96,36.42],[120.98,36.61],[121.21,36.61],[121.91,36.93],[122.39,36.8],[122.57,37],[122.47,37.13],[122.71,37.45],[122.12,37.51],[122.15,37.58],[121.5,37.51],[121.48,37.64],[121.17,37.64],[121.11,37.84],[120.75,37.9],[120.19,37.71],[120.2,37.58],[119.83,37.45],[119.7,37.19],[119.16,37.19],[119.14,37.32],[118.98,37.32],[119.24,37.84],[119.39,37.84],[119.46,37.96],[119.18,38.03],[119.21,38.09],[119.13,38.09]]]}},{"type":"Feature","properties":{"NAME":"Song","C":5,"name":"Song","start_year":-750,"end_year":-481,"capital":"","type":"polity","region":"","event":"","source":"Cliopatria / Seshat Global History Databank (CC BY 4.0)","wikipedia":"Song (state)","wikidata":"Q7462","_a":5,"_c":[116.01,34.91],"_nz":"宋","_sz":""},"geometry":{"type":"Polygon","coordinates":[[[117.57,34.55],[116.73,34.55],[116.65,34.55],[116.68,34.61],[116.7,34.68],[116.51,34.94],[116.2,34.94],[116.1,35.07],[116.18,35.26],[116.26,35.26],[116.29,35.32],[115.99,35.71],[115.23,35.39],[114.5,34.94],[114.47,34.87],[114.34,34.74],[114.65,34.55],[115.49,34.55],[115.59,34.42],[116.11,34.36],[116.62,34.1],[117.23,34.1],[117.62,34.29],[117.67,34.42],[117.57,34.55]]]}},{"type":"Feature","properties":{"NAME":"Teng","C":2,"name":"Teng","start_year":-750,"end_year":-481,"capital":"","type":"polity","region":"","event":"","source":"Cliopatria / Seshat Global History Databank (CC BY 4.0)","wikipedia":"Teng (state)","wikidata":"Q1356151","_a":1,"_c":[116.64,35.07],"_nz":"滕","_sz":""},"geometry":{"type":"Polygon","coordinates":[[[116.18,35.26],[116.1,35.07],[116.2,34.94],[116.51,34.94],[116.7,34.68],[117.18,35.07],[116.93,35.19],[116.98,35.32],[116.9,35.32],[116.93,35.39],[116.96,35.45],[116.67,35.32],[116.29,35.32],[116.26,35.26],[116.18,35.26]]]}},{"type":"Feature","properties":{"NAME":"Chen","C":10,"name":"Chen","start_year":-750,"end_year":-481,"capital":"","type":"polity","region":"","event":"","source":"Cliopatria / Seshat Global History Databank (CC BY 4.0)","wikipedia":"Chen (state)","wikidata":"Q1069690","_a":1,"_c":[114.67,34.58],"_nz":"陈","_sz":""},"geometry":{"type":"Polygon","coordinates":[[[114.95,34.36],[115.59,34.42],[115.49,34.55],[114.65,34.55],[114.34,34.74],[114.47,34.87],[113.75,34.81],[113.95,34.55],[113.93,34.49],[114.16,34.29],[114.87,34.36],[114.95,34.36]]]}},{"type":"Feature","properties":{"NAME":"Wey","C":3,"name":"Wey","start_year":-750,"end_year":-551,"capital":"","type":"polity","region":"","event":"","source":"Cliopatria / Seshat Global History Databank (CC BY 4.0)","wikipedia":"Wey (state)","wikidata":"Q1147897","_a":2,"_c":[114.94,36.07],"_nz":"卫","_sz":""},"geometry":{"type":"Polygon","coordinates":[[[114.25,35.45],[114.23,35.39],[114.3,35.39],[114.33,35.45],[114.41,35.45],[114.86,35.77],[115.01,35.77],[115.04,35.84],[115.12,35.84],[115.6,36.22],[115.52,36.22],[115.64,36.48],[115.44,36.74],[114.61,36.1],[114.31,35.77],[114.28,35.52],[114.25,35.45]]]}},{"type":"Feature","properties":{"NAME":"Cao","C":5,"name":"Cao","start_year":-750,"end_year":-481,"capital":"","type":"polity","region":"","event":"","source":"Cliopatria / Seshat Global History Databank (CC BY 4.0)","wikipedia":"Cao (state)","wikidata":"Q204077","_a":1,"_c":[114.81,35.36],"_nz":"曹","_sz":""},"geometry":{"type":"Polygon","coordinates":[[[115.01,35.77],[114.86,35.77],[114.41,35.45],[114.38,35.19],[114.5,34.94],[115.23,35.39],[114.96,35.64],[115.01,35.77]]]}},{"type":"Feature","properties":{"NAME":"Lu","C":1,"name":"Lu","start_year":-750,"end_year":-481,"capital":"","type":"polity","region":"","event":"","source":"Cliopatria / Seshat Global History Databank (CC BY 4.0)","wikipedia":"Lu (state)","wikidata":"Q555994","_a":10,"_c":[117.85,35.61],"_nz":"鲁","_sz":""},"geometry":{"type":"Polygon","coordinates":[[[119.23,34.81],[118.43,34.74],[118.44,34.94],[118.28,34.94],[118.12,34.74],[117.97,34.74],[117.64,34.87],[117.77,35],[118.06,35.13],[118.3,35.52],[118.25,35.58],[117.59,35.64],[116.96,35.45],[116.67,35.32],[116.29,35.32],[115.99,35.71],[115.23,35.39],[114.96,35.64],[115.01,35.77],[115.04,35.84],[115.12,35.84],[115.6,36.22],[115.8,36.16],[115.76,35.9],[116.05,35.84],[117.35,36.16],[119.9,36.29],[120.53,36.48],[120.73,36.42],[120.7,36.35],[120.66,36.1],[120.32,36.03],[119.99,35.64],[119.62,35.52],[119.26,34.87],[119.23,34.81]]]}},{"type":"Feature","properties":{"NAME":"Zheng","C":4,"name":"Zheng","start_year":-750,"end_year":-451,"capital":"","type":"polity","region":"","event":"","source":"Cliopatria / Seshat Global History Databank (CC BY 4.0)","wikipedia":"Zheng (state)","wikidata":"Q197598","_a":1,"_c":[113.92,35.13],"_nz":"郑","_sz":""},"geometry":{"type":"Polygon","coordinates":[[[113.68,35.39],[113.61,35.39],[113.53,35.39],[113.34,34.94],[113.67,34.81],[113.75,34.81],[114.47,34.87],[114.5,34.94],[114.38,35.19],[114.41,35.45],[114.33,35.45],[114.3,35.39],[114.23,35.39],[113.76,35.39],[113.68,35.39]]]}},{"type":"Feature","properties":{"NAME":"Cai","C":11,"name":"Cai","start_year":-750,"end_year":-481,"capital":"","type":"polity","region":"","event":"","source":"Cliopatria / Seshat Global History Databank (CC BY 4.0)","wikipedia":"Cai (state)","wikidata":"Q1025803","_a":1,"_c":[113.49,34.58],"_nz":"蔡","_sz":""},"geometry":{"type":"Polygon","coordinates":[[[113.93,34.49],[113.59,34.23],[113.39,34.49],[113.03,34.55],[113.03,34.74],[113.06,34.81],[113.13,34.81],[113.16,34.87],[113.24,34.87],[113.26,34.94],[113.34,34.94],[113.67,34.81],[113.75,34.81],[113.95,34.55],[113.93,34.49]]]}},{"type":"Feature","properties":{"NAME":"Zhu","C":11,"name":"Zhu","start_year":-750,"end_year":-451,"capital":"","type":"polity","region":"","event":"","source":"Cliopatria / Seshat Global History Databank (CC BY 4.0)","wikipedia":"Zhu (state)","wikidata":"Q227007","_a":1,"_c":[117.6,35.32],"_nz":"邾","_sz":""},"geometry":{"type":"Polygon","coordinates":[[[116.98,35.32],[116.93,35.19],[117.18,35.07],[117.77,35],[118.06,35.13],[118.3,35.52],[118.25,35.58],[117.59,35.64],[116.96,35.45],[116.93,35.39],[116.9,35.32],[116.98,35.32]]]}},{"type":"Feature","properties":{"NAME":"Yan","C":2,"name":"Yan","start_year":-750,"end_year":-405,"capital":"","type":"polity","region":"","event":"","source":"Cliopatria / Seshat Global History Databank (CC BY 4.0)","wikipedia":"Yan (state)","wikidata":"Q1472004","_a":13,"_c":[118.55,39.74],"_nz":"燕","_sz":""},"geometry":{"type":"Polygon","coordinates":[[[119.32,39.51],[119.38,39.77],[120.5,40.23],[120.65,40.48],[121.23,40.94],[119.34,40.42],[117.57,40.36],[116.45,39.9],[116.14,39.9],[116.1,39.84],[115.86,39.38],[116.1,39.38],[116.09,39.06],[116.26,38.93],[116.16,38.74],[116.4,38.74],[116.15,38.55],[117.2,38.61],[117.23,38.67],[117.62,38.67],[117.68,38.93],[117.89,39.19],[118.05,39.19],[118.06,39.06],[118.45,39.06],[118.99,39.19],[119.28,39.45],[119.32,39.51]]]}},{"type":"Feature","properties":{"NAME":"Later Zhou","C":0,"name":"Later Zhou","start_year":-750,"end_year":-451,"capital":"","type":"polity","region":"","event":"","source":"Cliopatria / Seshat Global History Databank (CC BY 4.0)","wikipedia":"Later Zhou","wikidata":"Q1154556","_a":1,"_c":[112.82,34.97],"_nz":"后周","_sz":""},"geometry":{"type":"Polygon","coordinates":[[[112.39,34.49],[112.62,34.49],[113.03,34.74],[113.06,34.81],[113.13,34.81],[113.16,34.87],[113.24,34.87],[113.26,34.94],[113.34,34.94],[113.53,35.39],[112.32,35.45],[112.11,34.94],[112.18,34.94],[112.15,34.49],[112.23,34.49],[112.31,34.49],[112.39,34.49]]]}},{"type":"Feature","properties":{"NAME":"Xu","C":1,"name":"Xu","start_year":-750,"end_year":-451,"capital":"","type":"polity","region":"","event":"","source":"Cliopatria / Seshat Global History Databank (CC BY 4.0)","wikipedia":"Xu (state)","wikidata":"Q2650109","_a":1,"_c":[117.31,34.75],"_nz":"徐","_sz":""},"geometry":{"type":"Polygon","coordinates":[[[116.73,34.55],[117.57,34.55],[117.67,34.42],[117.97,34.74],[117.64,34.87],[117.77,35],[117.18,35.07],[116.7,34.68],[116.68,34.61],[116.65,34.55],[116.73,34.55]]]}},{"type":"Feature","properties":{"NAME":"Wu","C":6,"name":"Wu","start_year":-750,"end_year":-551,"capital":"","type":"polity","region":"","event":"","source":"Cliopatria / Seshat Global History Databank (CC BY 4.0)","wikipedia":"Wu (state)","wikidata":"Q274488","_a":32,"_c":[119.07,32.21],"_nz":"吴","_sz":""},"geometry":{"type":"Polygon","coordinates":[[[117.96,29.54],[117.88,29.54],[117.91,29.6],[117.53,29.6],[117.19,29.73],[116.74,29.73],[116.27,29.92],[116.1,30.31],[116.12,30.37],[116.84,30.69],[117.02,31.21],[117.11,31.66],[118.32,32.43],[118.91,32.94],[118.57,33.07],[118.45,33.33],[118.12,33.46],[118.04,33.65],[117.76,33.71],[117.74,33.84],[117.23,34.1],[117.62,34.29],[117.67,34.42],[117.97,34.74],[118.12,34.74],[118.28,34.94],[118.44,34.94],[118.43,34.74],[119.23,34.81],[119.3,34.81],[119.71,34.68],[119.73,34.55],[119.98,34.42],[120.34,34.36],[120.31,34.29],[120.49,34.16],[120.55,33.59],[120.93,33.2],[120.92,32.62],[121.4,32.49],[121.5,32.17],[121.78,32.11],[121.99,31.85],[121.84,31.66],[121.68,31.66],[121.58,31.79],[121,31.85],[120.92,31.85],[120.89,31.79],[120.97,31.79],[121.05,31.79],[121.63,31.53],[121.58,31.4],[121.74,31.4],[122,31.08],[121.9,30.82],[121.52,30.82],[121.2,30.56],[121.05,30.56],[120.68,30.18],[120.81,30.12],[121.1,30.31],[121.48,30.31],[121.62,30.05],[122.03,29.92],[121.82,29.54],[121.42,29.47],[121.31,29.6],[120.24,29.79],[119.78,29.99],[119.23,29.92],[118.36,29.6],[117.98,29.6],[117.96,29.54]]]}},{"type":"Feature","properties":{"NAME":"Phoenicia","C":2,"name":"Phoenicia","start_year":-750,"end_year":-676,"capital":"","type":"polity","region":"","event":"","source":"Cliopatria / Seshat Global History Databank (CC BY 4.0)","wikipedia":"Phoenicia","wikidata":"Q41642","_a":219,"_c":[15.06,34.75],"_nz":"腓尼基","_sz":""},"geometry":{"type":"MultiPolygon","coordinates":[[[[14.37,32.56],[14.67,32.56],[14.9,32.36],[14.82,32.36],[14.52,32.17],[14.37,32.56]]],[[[35.78,33.33],[35.45,33.07],[35.22,33.14],[35.23,33.2],[35.4,33.39],[35.35,33.65],[35.5,33.65],[35.45,33.91],[35.68,33.97],[35.64,34.36],[35.79,34.29],[36.05,34.55],[36.07,34.74],[35.93,34.87],[35.96,35.19],[35.88,35.19],[35.99,35.45],[35.99,35.52],[36.23,35.58],[36.37,35.45],[36.35,35.26],[36.18,35.13],[36.17,34.94],[36.31,34.87],[36.2,34.55],[36.28,34.55],[36.23,34.1],[36.05,33.78],[36.04,33.71],[36.02,33.52],[35.78,33.33]]],[[[33.86,35],[33.52,34.74],[33.37,34.74],[33.29,34.74],[33.24,35],[33.47,35],[33.81,35.32],[33.96,35.26],[33.95,35.19],[34.1,35.13],[34.09,35],[33.86,35]]],[[[10.54,35.52],[10.85,35.77],[10.85,35.64],[11.08,35.58],[11.08,35.39],[11.01,35.39],[11.01,35.45],[10.62,35.32],[10.54,35.52]]],[[[-3.85,36.8],[-4.47,36.74],[-4.69,36.55],[-5.23,36.48],[-5.29,36.22],[-5.52,36.16],[-5.58,36.03],[-5.83,36.22],[-6.06,36.22],[-6.25,36.61],[-5.92,36.35],[-5.45,36.35],[-5.31,36.48],[-5.31,36.55],[-4.56,36.87],[-3.85,36.8]]],[[[10.54,36.74],[10.85,37],[11.01,37],[11.01,36.8],[10.46,36.42],[10.54,36.22],[10.23,36.29],[10.23,36.42],[9.84,36.74],[9.92,36.74],[10.23,36.87],[10.54,36.74]]],[[[7.67,36.55],[7.27,36.87],[7.35,37.06],[7.66,37],[7.66,36.93],[7.97,36.93],[7.67,36.55]]],[[[10.31,36.93],[10.31,36.87],[10.23,36.87],[10.23,36.93],[10.31,36.93]]],[[[9.06,37.06],[9.6,37.32],[9.99,37.19],[10.23,37.25],[10.23,37.06],[10.07,37.13],[9.99,36.93],[9.68,37],[9.3,36.74],[8.98,36.87],[8.98,36.93],[8.83,37],[8.9,37.13],[9.06,37.06]]]]}},{"type":"Feature","properties":{"NAME":"Neo-Assyrian Empire","C":7,"name":"Neo-Assyrian Empire","start_year":-700,"end_year":-676,"capital":"","type":"polity","region":"","event":"","source":"Cliopatria / Seshat Global History Databank (CC BY 4.0)","wikipedia":"Neo-Assyrian Empire","wikidata":"Q10914393","_a":205,"_c":[40.76,35.24],"_nz":"新亚述帝国","_sz":""},"geometry":{"type":"MultiPolygon","coordinates":[[[[46.88,34.87],[46.89,34.94],[46.97,34.94],[46.96,34.87],[46.88,34.87]]],[[[34.54,35.71],[34.53,35.58],[33.96,35.26],[34.09,35],[33.7,34.94],[33.52,34.74],[33.13,34.68],[33.04,34.55],[32.37,34.74],[32.23,34.94],[32.25,35.13],[32.55,35.13],[32.88,35.26],[32.89,35.39],[33.74,35.39],[34.31,35.71],[34.39,35.71],[34.54,35.71]]],[[[45.09,40.29],[45.12,39.97],[45.53,40.1],[45.96,39.84],[45.76,39.58],[45.9,39.51],[45.88,39.38],[46.1,39.26],[46.06,39.06],[46.14,39.06],[46.11,38.87],[45.64,38.87],[45.3,38.74],[45.02,38.48],[44.98,38.22],[45.2,38.09],[45.13,37.64],[45.38,37.25],[45.27,37.06],[45.35,37.06],[45.35,36.55],[45.5,36.55],[45.78,36.29],[46.01,36.29],[45.99,36.16],[46.22,36.16],[46.8,35.9],[46.86,35.77],[47.16,35.71],[47.13,35.52],[47.21,35.52],[47.17,35.26],[46.89,34.94],[46.28,34.94],[46.18,34.81],[46.15,34.04],[46.38,34.04],[46.28,33.91],[46.79,33.65],[46.69,33.52],[46.75,33.39],[47.64,33.14],[47.9,32.81],[47.97,32.81],[47.93,32.49],[48.15,32.43],[48.25,31.46],[49.29,30.63],[49.27,30.5],[49.12,30.5],[49.04,30.5],[48.94,30.31],[48.99,30.05],[48.37,29.92],[48.4,29.6],[47.87,29.54],[47.29,29.79],[46.98,29.73],[46.99,29.86],[46.85,29.92],[46.62,29.86],[46.59,30.31],[45.77,30.44],[44.95,31.27],[44.58,31.34],[44.46,31.59],[43.15,32.81],[42.71,32.94],[42.58,33.14],[41.49,33.65],[41.21,33.91],[40.91,33.97],[40.85,34.1],[40.47,34.16],[40.42,34.36],[39.61,34.68],[39.55,34.81],[39.25,34.94],[39.09,34.87],[38.8,35.07],[38.42,35.07],[37.76,34.68],[37.74,34.55],[37.32,34.23],[37.39,34.1],[37.23,34.1],[37.05,33.84],[36.73,33.65],[36.7,33.33],[36.84,33.2],[36.51,32.94],[36.57,32.81],[36.48,32.62],[36.7,32.56],[36.75,32.3],[36.52,32.24],[36.66,32.11],[36.49,31.98],[36.46,31.66],[36.39,31.66],[36.42,31.21],[36.27,31.21],[36.4,30.95],[36.07,30.63],[35.95,30.12],[35.88,30.12],[35.77,29.73],[35.81,29.22],[34.91,29.34],[34.74,30.12],[34.6,30.24],[34.61,30.44],[34.47,30.56],[34.36,31.14],[34.29,31.14],[34.31,31.4],[34.63,31.66],[34.57,31.85],[34.81,31.98],[34.77,32.36],[35.02,32.62],[35.06,33.01],[35.22,33.07],[35.4,33.39],[35.35,33.65],[35.5,33.65],[35.45,33.91],[35.68,33.97],[35.64,34.36],[35.79,34.29],[36.05,34.55],[36.07,34.74],[35.93,34.87],[35.96,35.19],[35.88,35.19],[35.99,35.52],[35.84,35.58],[35.99,36.22],[35.84,36.29],[36.26,36.61],[36.29,36.8],[36.14,36.93],[35.83,36.93],[35.49,36.61],[35.11,36.74],[34.95,36.67],[34.89,36.87],[34.58,36.87],[34.34,36.74],[34.21,37.06],[33.91,37.19],[33.93,37.38],[33.71,37.45],[33.66,37.71],[33.34,37.71],[33.43,37.84],[33.16,38.22],[33.17,38.29],[33.35,38.55],[33.67,38.61],[33.71,38.93],[33.79,38.93],[34.4,38.8],[34.67,39.06],[34.61,39.26],[34.7,39.32],[35,39.26],[35.06,39.06],[35.37,39],[35.47,39.19],[35.81,39.38],[35.95,39.32],[36.13,39.45],[37.17,39.58],[38.01,39.97],[38.28,40.23],[38.93,40.29],[39.77,40.1],[40.12,40.36],[40.59,40.29],[40.78,40.55],[40.93,40.48],[41.56,40.94],[41.79,40.87],[41.91,41.13],[42.47,41.13],[42.59,40.94],[42.75,40.94],[42.86,41.13],[43.1,41.13],[43.2,41.26],[44.07,41.2],[44.04,41.07],[44.19,41],[44.07,40.74],[44.93,40.68],[44.96,40.42],[44.95,40.36],[45.09,40.29]]],[[[35.88,39.38],[35.89,39.45],[35.97,39.45],[35.96,39.38],[35.88,39.38]]]]}},{"type":"Feature","properties":{"NAME":"Kingdom of Kush","C":3,"name":"Kingdom of Kush","start_year":-700,"end_year":-676,"capital":"","type":"polity","region":"","event":"","source":"Cliopatria / Seshat Global History Databank (CC BY 4.0)","wikipedia":"Kingdom of Kush","wikidata":"Q241790","_a":129,"_c":[32.15,23.43],"_nz":"库施王国","_sz":""},"geometry":{"type":"Polygon","coordinates":[[[32.24,31.21],[32.3,31.08],[32,31.08],[31.94,31.27],[31.78,31.21],[31.88,31.46],[31.27,31.46],[31.12,31.53],[31.2,31.66],[30.97,31.66],[30.97,31.53],[30.81,31.46],[30.35,31.46],[30.27,31.4],[30.34,31.27],[29.88,31.27],[29.8,31.21],[29.87,31.08],[29.63,30.95],[29.49,31.01],[29.4,30.82],[29.09,30.82],[29.31,30.56],[29.29,30.37],[29.88,29.99],[29.79,29.79],[30.09,29.67],[30,29.54],[30.3,29.47],[30.06,29.22],[29.68,29.28],[29.57,28.51],[30.08,28.32],[30.08,28.19],[30.29,27.99],[30.28,27.8],[30.12,27.61],[29.9,27.61],[29.97,27.54],[29.89,27.42],[29.12,27.16],[28.35,26.64],[28.23,25.62],[28.31,25.62],[28.29,25.16],[28.57,24.65],[29.67,24.2],[29.96,23.88],[30.11,23.88],[30.1,23.75],[30.4,23.56],[30.39,23.43],[30.61,23.24],[30.6,23.04],[30.74,22.85],[30.72,22.27],[30.56,21.95],[30.64,21.95],[30.69,21.31],[30.76,21.31],[30.74,20.79],[30.82,20.79],[30.8,20.34],[30.88,20.34],[31.15,17.64],[31.22,17.64],[31.34,16.81],[31.48,16.61],[31.39,16.36],[31.54,16.23],[31.53,15.97],[31.8,15.52],[32.53,15.33],[32.53,15.2],[32.75,15.2],[33.86,15.46],[34.1,15.84],[34.68,15.78],[34.56,16.23],[34.71,16.49],[35.67,16.49],[36.06,16.87],[35.98,16.87],[36,17.32],[35.5,17.64],[35.3,18.09],[34.94,18.29],[34.88,18.61],[34.6,18.93],[34.13,20.02],[34.01,20.86],[33.81,21.37],[33.82,21.63],[33.75,21.63],[33.88,23.17],[33.81,23.17],[33.82,23.49],[33.61,23.75],[33.39,23.81],[32.42,23.75],[32.37,26],[32.61,26.26],[32.63,26.71],[32.49,26.84],[31.74,26.84],[31.17,27.42],[31.02,27.42],[30.99,28.25],[30.85,28.44],[30.97,29.34],[31.29,29.6],[31.59,29.54],[31.6,29.67],[31.98,29.67],[32.21,29.79],[32.44,29.73],[32.6,29.92],[32.56,30.37],[32.79,30.44],[32.73,30.69],[32.82,30.89],[32.75,30.89],[32.84,31.08],[32.53,31.08],[32.31,31.21],[32.24,31.21]]]}},{"type":"Feature","properties":{"NAME":"Elam","C":11,"name":"Elam","start_year":-700,"end_year":-651,"capital":"","type":"polity","region":"","event":"","source":"Cliopatria / Seshat Global History Databank (CC BY 4.0)","wikipedia":"Elam","wikidata":"Q128904","_a":8,"_c":[49.21,31.53],"_nz":"埃兰","_sz":""},"geometry":{"type":"Polygon","coordinates":[[[50.04,32.24],[50.02,32.11],[50.29,31.85],[50.17,31.53],[50,31.46],[50.07,30.82],[50.36,30.69],[50.48,30.44],[49.66,29.99],[49.22,30.12],[49.02,30.31],[49.11,30.44],[49.12,30.5],[49.27,30.5],[49.29,30.63],[48.25,31.46],[48.15,32.43],[47.93,32.49],[47.97,32.81],[47.98,32.88],[48.09,33.07],[48.99,32.94],[49.05,32.81],[49.28,32.81],[49.25,32.62],[49.72,32.69],[49.96,32.24],[50.04,32.24]]]}},{"type":"Feature","properties":{"NAME":"Chu","C":0,"name":"Chu","start_year":-700,"end_year":-481,"capital":"","type":"polity","region":"","event":"","source":"Cliopatria / Seshat Global History Databank (CC BY 4.0)","wikipedia":"Chu (state)","wikidata":"Q504759","_a":52,"_c":[114.11,32.04],"_nz":"楚","_sz":""},"geometry":{"type":"Polygon","coordinates":[[[114.95,34.36],[115.59,34.42],[116.11,34.36],[116.62,34.1],[117.23,34.1],[117.74,33.84],[117.76,33.71],[118.04,33.65],[118.12,33.46],[118.45,33.33],[118.57,33.07],[118.91,32.94],[118.32,32.43],[117.11,31.66],[117.02,31.21],[116.84,30.69],[116.12,30.37],[116.04,30.37],[114.11,30.5],[113.95,30.24],[113.58,30.05],[113.27,29.54],[112.9,29.34],[112,29.34],[111.81,29.47],[111.3,29.54],[110.66,29.92],[110.23,29.99],[110.41,30.31],[109.92,30.44],[109.48,30.95],[109.49,31.21],[109.36,31.27],[109.48,31.4],[109.31,31.59],[109.63,32.49],[109.55,32.49],[109.82,33.01],[109.71,33.14],[109.78,33.33],[110.21,33.46],[110.21,33.65],[110.49,33.78],[110.49,33.97],[110.87,34.16],[110.9,34.23],[112.15,34.49],[112.23,34.49],[112.31,34.49],[112.39,34.49],[112.62,34.49],[113.03,34.74],[113.03,34.55],[113.39,34.49],[113.59,34.23],[113.93,34.49],[114.16,34.29],[114.87,34.36],[114.95,34.36]]]}},{"type":"Feature","properties":{"NAME":"Phoenician Colonies","C":4,"name":"Phoenician Colonies","start_year":-700,"end_year":-676,"capital":"","type":"polity","region":"","event":"","source":"Cliopatria / Seshat Global History Databank (CC BY 4.0)","wikipedia":"Colonies in antiquity","wikidata":"Q1094394","_a":94,"_c":[4.16,38.03],"_nz":"腓尼基殖民地","_sz":""},"geometry":{"type":"MultiPolygon","coordinates":[[[[14.57,35.97],[14.57,35.77],[14.34,35.84],[14.34,36.03],[14.42,36.03],[14.57,35.97]]],[[[-4.56,36.87],[-3.85,36.8],[-4.47,36.74],[-4.69,36.55],[-5.23,36.48],[-5.29,36.22],[-5.52,36.16],[-5.58,36.03],[-5.83,36.22],[-6.06,36.22],[-6.25,36.61],[-5.92,36.35],[-5.45,36.35],[-5.31,36.48],[-5.31,36.55],[-4.56,36.87]]],[[[12.81,38.09],[12.73,37.9],[12.57,37.96],[12.57,38.03],[12.81,38.09]]],[[[13.04,37.96],[13.12,38.16],[13.51,38.09],[13.51,38.03],[13.67,37.96],[13.04,37.96]]],[[[8.56,39.77],[8.32,39.97],[8.4,40.29],[8.48,40.29],[8.72,40.1],[8.56,39.77]]]]}},{"type":"Feature","properties":{"NAME":"Roman Kingdom","C":4,"name":"Roman Kingdom","start_year":-700,"end_year":-501,"capital":"","type":"polity","region":"","event":"","source":"Cliopatria / Seshat Global History Databank (CC BY 4.0)","wikipedia":"Roman Kingdom","wikidata":"Q201038","_a":0,"_c":[12.21,41.95],"_nz":"罗马王国","_sz":""},"geometry":{"type":"Polygon","coordinates":[[[12.13,41.91],[12.45,41.78],[12.45,42.11],[11.97,42.11],[12.13,41.98],[12.13,41.91]]]}},{"type":"Feature","properties":{"NAME":"Phrygia","C":8,"name":"Phrygia","start_year":-700,"end_year":-676,"capital":"","type":"polity","region":"","event":"","source":"Cliopatria / Seshat Global History Databank (CC BY 4.0)","wikipedia":"Phrygia","wikidata":"Q32579","_a":41,"_c":[30.91,39.61],"_nz":"弗里吉亚","_sz":""},"geometry":{"type":"Polygon","coordinates":[[[34.31,40.68],[33.99,40.68],[34.07,40.03],[33.52,40.03],[33.42,39.84],[33.16,39.71],[33.13,39.38],[33.36,39.32],[33.48,39],[33.72,39],[33.71,38.93],[33.67,38.61],[33.35,38.55],[33.17,38.29],[33.09,38.29],[31.74,37.25],[31.58,37.25],[31.44,37.45],[31.13,37.45],[30.89,37.32],[30.74,37.38],[30.64,37.19],[30.17,37.19],[29.73,37.45],[29.49,37.38],[29.34,37.51],[28.88,37.58],[28.8,37.58],[28.6,37.96],[28.62,38.16],[28.78,38.29],[28.86,38.29],[28.98,38.74],[28.91,38.8],[28.6,38.87],[28.53,39],[28.05,38.93],[27.92,39.26],[27.62,39.38],[27.38,39.32],[26.91,39.38],[26.82,39.26],[26.74,39.26],[26.75,39.32],[26.75,39.38],[26.83,39.38],[26.84,39.45],[26.84,39.51],[27.17,39.64],[27.02,39.77],[26.7,39.77],[26.71,39.84],[26.66,40.16],[27.37,40.23],[27.46,40.36],[27.54,40.36],[27.7,40.29],[27.79,40.48],[27.95,40.48],[27.94,40.36],[28.57,40.36],[28.85,39.97],[29.7,39.71],[29.67,40.23],[29.84,40.42],[30.46,40.23],[30.56,40.42],[30.79,40.42],[30.76,40.81],[30.93,40.94],[30.87,41.13],[31.35,41.13],[31.53,41.39],[32.03,41.52],[32.04,41.65],[32.19,41.59],[32.69,41.78],[32.63,41.91],[34.78,41.91],[34.88,42.04],[35.12,42.04],[35.16,41.72],[34.83,41.65],[34.57,41.46],[34.54,41.26],[34.38,41.26],[34.29,41.13],[34.27,41],[34.41,40.87],[34.32,40.74],[34.31,40.68]]]}},{"type":"Feature","properties":{"NAME":"Hadhramaut","C":11,"name":"Hadhramaut","start_year":-700,"end_year":-351,"capital":"","type":"polity","region":"","event":"","source":"Cliopatria / Seshat Global History Databank (CC BY 4.0)","wikipedia":"Hadhramaut","wikidata":"Q1517159","_a":12,"_c":[49.05,15.68],"_nz":"哈德拉毛","_sz":""},"geometry":{"type":"MultiPolygon","coordinates":[[[[51.07,15.46],[50.85,15.33],[50.75,15.01],[49.41,14.69],[47.52,15.07],[47.53,15.2],[46.51,15.33],[46.22,15.52],[46.15,15.52],[46.38,15.71],[46.47,15.97],[46.47,16.04],[46.55,16.16],[46.7,16.1],[48.12,16.42],[49.59,16.49],[50.12,16.61],[50.48,16.55],[51.08,16.68],[51.89,16.61],[51.95,16.49],[51.86,16.23],[51.24,15.78],[51.08,15.52],[51.07,15.46]]],[[[46.7,16.16],[46.63,16.16],[46.63,16.23],[46.71,16.23],[46.7,16.16]]]]}},{"type":"Feature","properties":{"NAME":"Lydia","C":7,"name":"Lydia","start_year":-700,"end_year":-676,"capital":"","type":"polity","region":"","event":"","source":"Cliopatria / Seshat Global History Databank (CC BY 4.0)","wikipedia":"Lydia","wikidata":"Q620765","_a":4,"_c":[28,38.38],"_nz":"吕底亚","_sz":""},"geometry":{"type":"Polygon","coordinates":[[[28.78,38.29],[28.62,38.16],[28.6,37.96],[28.8,37.58],[28.8,37.51],[28.63,37.38],[28.25,37.45],[28.17,37.45],[27.7,37.45],[27.63,37.58],[27.48,37.58],[27.42,37.84],[27.42,37.9],[27.14,38.35],[27.16,38.61],[27.01,38.67],[27.02,38.8],[27.43,39.06],[27.38,39.32],[27.62,39.38],[27.92,39.26],[28.05,38.93],[28.53,39],[28.6,38.87],[28.91,38.8],[28.98,38.74],[28.86,38.29],[28.78,38.29]]]}},{"type":"Feature","properties":{"NAME":"Greek City-States","C":4,"name":"Greek City-States","start_year":-700,"end_year":-676,"capital":"","type":"polity","region":"","event":"","source":"Cliopatria / Seshat Global History Databank (CC BY 4.0)","wikipedia":"Polis","wikidata":"Q148837","_a":168,"_c":[27.32,38.17],"_nz":"希腊城邦","_sz":""},"geometry":{"type":"MultiPolygon","coordinates":[[[[24.15,35.39],[24.3,35.32],[25.69,35.32],[25.68,35.13],[26.23,35.19],[26.14,35.07],[24.82,35],[24.76,35.19],[24.53,35.19],[24.45,35.19],[23.68,35.26],[23.62,35.52],[24.16,35.52],[24.15,35.39]]],[[[22.89,36.42],[22.96,36.42],[23.12,36.35],[23.11,36.16],[22.87,36.16],[22.89,36.42]]],[[[24.28,37.71],[24.36,37.71],[24.43,37.58],[24.27,37.51],[24.2,37.64],[24.28,37.71]]],[[[20.62,37.9],[20.7,37.9],[20.93,37.9],[20.92,37.64],[20.61,37.71],[20.62,37.9]]],[[[24.69,38.03],[24.77,38.03],[25.07,37.77],[24.83,37.71],[24.68,37.84],[24.69,38.03]]],[[[16.02,38.29],[16.43,38.93],[16.99,39.26],[17.14,39.19],[17.06,39],[16.5,38.8],[16.49,38.42],[15.93,37.96],[15.7,37.96],[15.62,38.16],[15.39,38.16],[15.07,37.64],[15.06,37.25],[15.21,37.19],[15.13,36.87],[14.75,37.51],[14.83,37.64],[14.83,37.71],[15.15,38.03],[15.15,38.16],[15.47,38.29],[16.02,38.29]]],[[[20.33,38.35],[20.49,38.42],[20.57,38.42],[20.8,38.29],[20.79,38.09],[20.32,38.16],[20.33,38.35]]],[[[23.31,38.48],[23.63,38.48],[23.56,38.74],[24.03,38.67],[24.18,38.55],[24.16,38.22],[24,38.22],[23.98,37.84],[23.44,38.03],[23.21,38.03],[23.2,37.9],[23.04,37.9],[23.11,37.64],[23.34,37.64],[23.4,37.32],[23.17,37.32],[23.18,37.45],[22.95,37.58],[22.71,37.58],[22.7,37.32],[22.85,37.25],[23.06,36.67],[22.83,36.87],[22.6,36.87],[22.51,36.67],[22.36,36.67],[22.22,37.06],[21.91,37.06],[21.9,36.87],[21.74,36.87],[21.68,37.19],[21.6,37.19],[21.7,37.51],[21.24,37.84],[21.42,38.16],[21.73,38.16],[21.74,38.35],[21.27,38.42],[21.28,38.55],[21.6,38.74],[21.91,38.67],[22.39,38.74],[22.55,38.87],[22.56,39.06],[22.34,39.38],[22.59,39.51],[22.53,39.9],[22.62,40.1],[22.7,40.1],[22.61,39.9],[22.76,39.84],[22.76,39.71],[23.14,39.45],[22.82,39.38],[22.8,39.06],[22.96,39.13],[23.11,39],[23.34,39],[23.49,38.8],[23.18,38.87],[23.18,38.93],[22.94,38.87],[22.94,38.74],[23.17,38.67],[23.31,38.48]]],[[[20.59,38.87],[20.67,38.87],[20.74,38.87],[20.73,38.61],[20.5,38.61],[20.59,38.87]]],[[[23.57,38.8],[23.56,38.74],[23.48,38.74],[23.49,38.8],[23.57,38.8]]],[[[24.36,39],[24.44,39],[24.67,38.93],[24.66,38.74],[24.36,38.87],[24.36,39]]],[[[19.92,39.77],[19.92,39.71],[19.91,39.58],[19.76,39.64],[19.76,39.77],[19.92,39.77]]],[[[23.26,40.23],[23.34,40.23],[23.65,40.03],[23.64,39.9],[23.33,39.97],[23.26,40.23]]],[[[23.5,40.29],[23.5,40.23],[23.42,40.23],[23.43,40.29],[23.5,40.29]]],[[[16.31,40.23],[16.63,40.55],[16.88,40.74],[17.51,40.68],[17.58,40.36],[17.34,40.42],[17.35,40.55],[16.87,40.48],[16.94,40.36],[16.62,40.29],[16.7,40.1],[16.45,39.9],[16.45,39.84],[16.29,39.77],[16.22,39.97],[16.3,39.97],[16.31,40.23]]],[[[23.66,40.29],[23.67,40.36],[23.75,40.36],[23.74,40.29],[23.74,40.23],[23.66,40.23],[23.66,40.29]]],[[[14.5,41],[14.5,40.87],[14.82,40.87],[14.89,40.74],[14.81,40.68],[14.73,40.68],[14.42,40.68],[14.42,40.87],[14.1,40.87],[14.03,41],[14.5,41]]],[[[27.69,36.29],[28.02,36.48],[28.09,36.48],[28.25,36.48],[28.14,36.03],[27.74,35.9],[27.69,36.29]]],[[[33.84,36.42],[33.98,36.29],[33.51,36.22],[33.76,36.42],[33.84,36.42]]],[[[30.11,36.42],[30.19,36.42],[30.28,36.61],[30.52,36.74],[30.49,36.35],[30.11,36.42]]],[[[27.12,36.93],[27.19,36.8],[26.87,36.67],[27.04,36.93],[27.12,36.93]]],[[[25.34,37.13],[25.42,37.13],[25.57,37.13],[25.56,37],[25.33,37],[25.34,37.13]]],[[[24.99,37.71],[25.06,37.71],[25.22,37.71],[25.29,37.51],[25.05,37.51],[24.99,37.71]]],[[[26.08,37.71],[26.16,37.71],[26.31,37.71],[26.3,37.58],[25.99,37.51],[26.08,37.71]]],[[[28.17,37.45],[28.16,37.38],[28.45,37.13],[28.51,36.87],[28.03,36.67],[28.14,37.06],[28.07,37.13],[27.6,37.13],[27.54,37.38],[27.22,37.32],[27.31,37.45],[27.16,37.58],[27.26,37.77],[27.18,37.77],[27.28,38.03],[26.89,38.09],[26.82,38.22],[26.43,38.22],[26.38,38.67],[26.54,38.61],[26.59,38.35],[27.06,38.35],[27.08,38.55],[26.85,38.61],[26.96,39],[26.82,39.19],[26.82,39.26],[26.91,39.38],[27.38,39.32],[27.43,39.06],[27.02,38.8],[27.01,38.67],[27.16,38.61],[27.14,38.35],[27.42,37.9],[27.42,37.84],[27.48,37.58],[27.63,37.58],[27.7,37.45],[28.17,37.45]]],[[[25.9,38.48],[25.82,38.48],[25.91,38.67],[25.99,38.67],[26.22,38.55],[26.11,38.16],[25.88,38.16],[25.9,38.48]]],[[[26.09,39],[26.1,39.13],[25.79,39.19],[26.04,39.38],[26.12,39.38],[26.51,39.32],[26.64,39],[26.25,38.93],[26.09,39]]],[[[25.07,40.03],[25.15,40.03],[25.46,40.03],[25.45,39.84],[24.97,39.84],[25.07,40.03]]],[[[26.85,39.58],[26.13,39.51],[26.27,40.29],[26.6,40.48],[26.68,40.48],[26.67,40.36],[27.47,40.42],[27.46,40.36],[27.37,40.23],[26.66,40.16],[26.71,39.84],[26.7,39.77],[27.02,39.77],[27.17,39.64],[26.84,39.51],[26.85,39.58]]],[[[25.72,40.29],[25.8,40.29],[26.04,40.29],[26.02,40.16],[25.7,40.1],[25.72,40.29]]],[[[26.93,40.55],[26.84,40.48],[26.77,40.61],[27.01,40.55],[26.93,40.55]]],[[[40.37,40.94],[40.39,41.07],[40.6,40.87],[40.59,40.81],[40.57,40.68],[39.78,40.74],[39.81,40.94],[40.37,40.94]]],[[[37.14,41.13],[37.15,41.2],[37.23,41.2],[37.22,41.13],[37.14,41.13]]],[[[36.77,41.33],[37.07,41.13],[37.14,41.13],[36.89,41],[36.75,41.13],[36.51,41.13],[36.45,41.26],[36.77,41.33]]]]}},{"type":"Feature","properties":{"NAME":"Sabaeans","C":6,"name":"Sabaeans","start_year":-700,"end_year":-676,"capital":"","type":"polity","region":"","event":"","source":"Cliopatria / Seshat Global History Databank (CC BY 4.0)","wikipedia":"Sabaeans","wikidata":"Q940785","_a":2,"_c":[45.17,15.59],"_nz":"萨巴人","_sz":""},"geometry":{"type":"MultiPolygon","coordinates":[[[[45.84,15.33],[45.85,15.39],[45.92,15.39],[45.92,15.33],[45.84,15.33]]],[[[43.87,15.46],[43.87,15.52],[43.94,15.52],[43.94,15.46],[43.87,15.46]]],[[[43.94,15.52],[43.95,15.59],[44.02,15.59],[44.02,15.52],[43.94,15.52]]],[[[45.85,15.39],[45.4,15.33],[45.32,15.2],[45.18,15.26],[45.02,15.14],[43.93,15.2],[43.94,15.46],[44.63,15.97],[45,16.04],[45.07,15.91],[45.37,15.97],[45.58,15.84],[46.4,15.97],[46.47,15.97],[46.38,15.71],[46.15,15.52],[46.08,15.52],[46.07,15.46],[46,15.46],[45.86,15.52],[45.85,15.39]]]]}}]}