{"type":"FeatureCollection", "features": [
{"type":"Feature","geometry":{"type":"Polygon","coordinates":[[[49.12,30.5],[49.02,30.31],[49.59,29.99],[50.06,30.18],[50.24,29.73],[50.65,29.41],[50.62,29.15],[50.92,29.09],[50.81,28.83],[51.03,28.77],[51.07,28.44],[51.56,28.77],[51.86,28.77],[51.88,28.96],[52.21,29.15],[52.24,29.41],[51.71,29.99],[51.73,30.12],[51.51,30.24],[51.47,30.5],[51.1,30.56],[50.98,30.82],[50.71,31.01],[50.72,31.14],[50.39,31.46],[50.17,31.53],[50.29,31.85],[50.02,32.11],[50.04,32.24],[49.82,32.36],[49.85,32.56],[49.72,32.69],[49.25,32.62],[49.28,32.81],[49.05,32.81],[48.99,32.94],[48.68,32.94],[48.55,33.07],[47.64,33.14],[47.62,33.01],[47.97,32.75],[47.93,32.49],[48.15,32.43],[48.25,31.46],[49.29,30.63],[49.12,30.5]]]},"properties":{"NAME":"Elam","C":11,"name":"Elam","start_year":-1300,"end_year":-1151,"capital":"","type":"polity","region":"","event":"","source":"Cliopatria / Seshat Global History Databank (CC BY 4.0)","wikipedia":"Elam","wikidata":"Q128904","_a":22,"_c":[49.93,30.79],"_nz":"埃兰","_sz":""}},
{"type":"Feature","geometry":{"type":"Polygon","coordinates":[[[36.06,34.61],[35.79,34.29],[35.68,33.97],[35.45,33.91],[35.35,33.65],[35.4,33.39],[35.22,33.07],[35.06,33.01],[35.02,32.62],[34.77,32.36],[34.81,31.98],[34.57,31.85],[34.63,31.66],[34.31,31.4],[34.3,31.27],[33.75,31.08],[32.83,31.01],[32.77,31.14],[32.53,31.08],[32,31.08],[31.88,31.46],[31.27,31.46],[30.97,31.53],[30.81,31.46],[30.35,31.46],[30.34,31.27],[29.88,31.27],[29.87,31.08],[29.4,30.82],[28.87,30.82],[28.57,30.95],[28.32,29.22],[28.24,29.22],[28.21,28.57],[28.14,28.57],[27.94,27.61],[27.86,27.54],[27.71,25.68],[27.85,25.55],[27.84,25.29],[27.99,25.1],[28.42,24.71],[29.16,24.39],[29.5,23.62],[29.65,23.56],[29.93,22.91],[30.07,22.85],[30.49,22.08],[30.46,21.11],[30.53,21.11],[30.52,18.74],[30.6,18.74],[30.65,18.22],[30.87,18.09],[31.24,18.09],[31.84,18.29],[31.92,18.41],[32.29,18.54],[32.83,19.12],[33.13,19.25],[33.58,19.31],[33.64,18.99],[34.16,19.06],[33.76,20.02],[33.78,20.66],[33.35,21.11],[33.37,21.56],[33.23,21.63],[33.24,22.01],[33.03,22.27],[33.04,22.46],[32.89,22.59],[32.76,23.04],[32.4,23.24],[32.44,24.39],[32.38,24.65],[34.33,26.26],[34.05,26.58],[34.07,26.97],[33.93,27.03],[33.8,27.42],[33.59,27.61],[33.61,27.99],[33.11,28.38],[32.84,28.89],[32.69,28.96],[32.44,29.79],[32.59,29.73],[32.86,29.22],[33.15,29.02],[33.19,28.51],[33.4,28.32],[33.55,28.32],[33.9,27.87],[34.35,27.74],[34.36,27.93],[34.52,28.06],[34.55,28.51],[34.71,28.7],[34.75,29.28],[34.91,29.41],[34.94,29.73],[34.8,29.92],[34.81,30.12],[34.67,30.24],[34.56,30.69],[34.8,30.95],[35.33,30.89],[35.32,30.69],[35.46,30.56],[35.76,30.5],[36.4,30.95],[36.39,31.66],[36.75,32.3],[36.7,32.62],[37,33.26],[36.87,33.52],[36.9,33.84],[36.57,34.36],[36.58,34.42],[36.43,34.49],[36.37,34.68],[36.06,34.61]]]},"properties":{"NAME":"New Kingdom of Egypt","C":7,"name":"New Kingdom of Egypt","start_year":-1240,"end_year":-1151,"capital":"","type":"polity","region":"","event":"","source":"Cliopatria / Seshat Global History Databank (CC BY 4.0)","wikipedia":"New Kingdom of Egypt","wikidata":"Q180568","_a":154,"_c":[32.36,26.39],"_nz":"新王国时期埃及","_sz":""}},
{"type":"Feature","geometry":{"type":"Polygon","coordinates":[[[116.39,37.77],[116.28,38.03],[116.03,38.16],[116.1,38.29],[115.63,38.93],[115.08,38.93],[114.39,38.48],[114.33,38.03],[113.98,37.45],[113.79,36.87],[113.3,36.29],[111.52,35.58],[110.88,35.52],[110.67,35.39],[110.54,35.45],[110.07,35.07],[110.82,35],[111.1,35.13],[112.47,35.26],[114.38,35.19],[114.83,35],[114.85,34.68],[115.11,34.55],[115.18,34.36],[115.44,34.23],[116,34.29],[116.42,34.74],[117.05,35.13],[117.06,35.32],[117.27,35.45],[117.71,36.1],[118.31,36.55],[118.46,36.87],[118.32,37.06],[116.82,37.51],[116.39,37.77]]]},"properties":{"NAME":"Shang Dynasty","C":9,"name":"Shang Dynasty","start_year":-1240,"end_year":-1101,"capital":"","type":"polity","region":"","event":"","source":"Cliopatria / Seshat Global History Databank (CC BY 4.0)","wikipedia":"Shang dynasty","wikidata":"Q128938","_a":39,"_c":[114.26,36.58],"_nz":"商","_sz":""}},
{"type":"Feature","geometry":{"type":"Polygon","coordinates":[[[36.77,34.81],[36.63,34.94],[36.65,35.13],[36.84,35.45],[37.22,35.45],[37.29,36.1],[37.37,36.1],[37.52,36.67],[37.2,36.61],[36.91,36.8],[36.68,36.8],[36.39,37],[36.4,37.13],[36.66,37.38],[36.9,37.45],[37.28,37.32],[37.6,37.38],[37.79,37.64],[38.4,37.51],[38.81,37.71],[38.9,38.42],[38.78,38.67],[38.62,38.67],[38.76,39.13],[38.35,39.58],[38.41,40.03],[38.61,40.29],[38.14,40.36],[38.03,40.68],[37.79,40.68],[37.7,40.55],[37.46,40.55],[37.34,40.29],[37.05,40.42],[36.62,40.23],[36.6,40.03],[35.96,39.97],[35.98,40.16],[35.58,40.1],[35.52,40.29],[35.13,40.29],[35.1,40.03],[34.79,40.1],[34.36,39.84],[34.08,40.1],[33.75,40.03],[33.14,40.16],[32.96,40.03],[32,39.9],[31.51,39.71],[30.83,39.26],[30.26,39.06],[28.98,38.74],[28.8,38.55],[28.56,38.48],[27.54,38.42],[26.94,38.8],[26.85,38.61],[27.08,38.55],[27.06,38.35],[26.59,38.35],[26.54,38.61],[26.38,38.67],[26.43,38.22],[26.82,38.22],[26.89,38.09],[27.28,38.03],[27.18,37.77],[27.58,37.9],[27.8,37.77],[28.66,37.77],[28.73,37.64],[30.23,37.84],[30.3,37.71],[30.6,37.64],[30.81,37.32],[31.13,37.45],[31.44,37.45],[31.58,37.25],[31.82,37.32],[32.04,37.19],[32.1,36.93],[32.32,36.8],[32.37,36.55],[32.52,36.48],[32.56,36.03],[33.98,36.29],[34.25,36.67],[34.58,36.87],[34.89,36.87],[35.49,36.61],[35.83,36.93],[36.14,36.93],[36.29,36.8],[36.26,36.61],[35.84,36.29],[35.99,36.22],[35.84,35.58],[35.99,35.52],[35.93,34.87],[36.06,34.61],[36.37,34.68],[36.43,34.49],[36.58,34.42],[36.77,34.81]]]},"properties":{"NAME":"Hittites","C":6,"name":"Hittites","start_year":-1200,"end_year":-1151,"capital":"","type":"polity","region":"","event":"","source":"Cliopatria / Seshat Global History Databank (CC BY 4.0)","wikipedia":"Hittites","wikidata":"Q5406","_a":78,"_c":[32.64,37.55],"_nz":"赫梯人","_sz":""}},
{"type":"Feature","geometry":{"type":"MultiPolygon","coordinates":[[[[22.87,36.16],[23.11,36.16],[23.12,36.35],[22.89,36.42],[22.87,36.16]]],[[[20.61,37.71],[20.92,37.64],[20.93,37.9],[20.62,37.9],[20.61,37.71]]],[[[24.68,37.84],[24.83,37.71],[25.07,37.77],[24.77,38.03],[24.68,37.84]]],[[[23.56,38.74],[23.63,38.48],[23.31,38.48],[22.94,38.87],[23.49,38.8],[23.34,39],[23.11,39],[22.82,39.38],[23.14,39.45],[22.84,39.71],[22.44,39.64],[21.94,39.19],[21.71,39.38],[21.24,39.32],[20.99,39.13],[21.14,38.93],[20.75,38.93],[20.97,38.74],[21.19,38.42],[21.74,38.35],[21.73,38.16],[21.42,38.16],[21.24,37.84],[21.7,37.51],[21.68,37.19],[21.91,37.06],[22.22,37.06],[22.36,36.67],[22.51,36.67],[22.6,36.87],[22.83,36.87],[22.85,37.25],[22.7,37.32],[22.71,37.58],[22.95,37.58],[23.4,37.32],[23.34,37.64],[23.11,37.64],[23.04,37.9],[23.21,38.03],[23.44,38.03],[23.98,37.84],[24,38.22],[24.16,38.22],[24.18,38.55],[24.03,38.67],[23.56,38.74]]],[[[20.32,38.16],[20.79,38.09],[20.8,38.29],[20.57,38.42],[20.33,38.35],[20.32,38.16]]],[[[24.36,39],[24.36,38.87],[24.66,38.74],[24.67,38.93],[24.36,39]]],[[[23.28,40.55],[23.22,40.74],[22.92,41],[22.59,40.87],[22.73,40.61],[22.96,40.42],[23.74,40.23],[23.75,40.42],[23.28,40.55]]],[[[24.16,35.52],[23.62,35.52],[23.68,35.26],[24.45,35.19],[24.76,35.19],[24.82,35],[25.68,35.13],[25.69,35.32],[24.3,35.32],[24.16,35.52]]],[[[27.74,35.9],[28.14,36.03],[28.25,36.48],[28.02,36.48],[27.69,36.29],[27.74,35.9]]],[[[25.05,37.51],[25.29,37.51],[25.22,37.71],[24.99,37.71],[25.05,37.51]]],[[[25.88,38.16],[26.11,38.16],[26.22,38.55],[25.91,38.67],[25.88,38.16]]],[[[26.25,38.93],[26.64,39],[26.51,39.32],[26.04,39.38],[25.79,39.19],[26.1,39.13],[26.25,38.93]]],[[[26.26,40.16],[26.13,39.51],[26.76,39.51],[26.78,39.77],[26.26,40.16]]],[[[25.07,40.03],[24.97,39.84],[25.45,39.84],[25.46,40.03],[25.07,40.03]]]]},"properties":{"NAME":"Mycenaean Greece","C":0,"name":"Mycenaean Greece","start_year":-1200,"end_year":-1151,"capital":"","type":"polity","region":"","event":"","source":"Cliopatria / Seshat Global History Databank (CC BY 4.0)","wikipedia":"Mycenaean Greece","wikidata":"Q181264","_a":48,"_c":[24.29,38],"_nz":"迈锡尼希腊","_sz":""}},
{"type":"Feature","geometry":{"type":"Polygon","coordinates":[[[46.15,34.04],[45.94,34.74],[45.9,35],[46.23,35.13],[46.24,35.26],[46.04,35.45],[46.07,35.64],[46.33,35.84],[45.35,36.03],[45.39,36.29],[45.11,36.48],[45.07,36.74],[44.86,36.93],[44.85,37.38],[44.64,37.51],[44.6,37.77],[44.31,37.9],[44.35,38.16],[44.53,38.35],[44.32,38.48],[44.32,39],[44.18,39.06],[44.14,39.32],[44.49,39.51],[44.52,39.71],[43.41,39.71],[43.22,39.97],[42.74,39.9],[42.35,40.42],[41.86,40.36],[40.86,40.55],[40.59,40.29],[40.12,40.36],[39.77,40.1],[38.61,40.29],[38.41,40.03],[38.35,39.58],[38.76,39.13],[38.62,38.67],[38.78,38.67],[38.9,38.42],[38.81,37.71],[38.4,37.51],[37.79,37.64],[37.6,37.38],[37.28,37.32],[36.9,37.45],[36.66,37.38],[36.4,37.13],[36.39,37],[36.68,36.8],[36.91,36.8],[37.2,36.61],[37.52,36.67],[37.37,36.1],[37.29,36.1],[37.22,35.45],[36.84,35.45],[36.65,35.13],[36.63,34.94],[36.77,34.81],[37.15,34.81],[37.25,34.94],[37.47,34.87],[37.57,35.07],[37.72,35.07],[37.93,34.81],[38.42,35.07],[38.8,35.07],[39.09,34.87],[39.25,34.94],[39.61,34.68],[40.06,34.55],[40.12,34.42],[40.42,34.36],[40.47,34.16],[40.85,34.1],[40.91,33.97],[42,33.46],[42.06,33.33],[42.36,33.26],[42.71,32.94],[43.15,32.81],[43.43,32.56],[43.91,32.75],[44.21,32.69],[44.31,32.88],[44.54,32.88],[44.72,33.07],[45.47,32.94],[46.07,33.46],[45.86,33.59],[45.92,34.04],[46.15,34.04]]]},"properties":{"NAME":"Assyria","C":10,"name":"Assyria","start_year":-1200,"end_year":-1151,"capital":"","type":"polity","region":"","event":"","source":"Cliopatria / Seshat Global History Databank (CC BY 4.0)","wikipedia":"Assyria","wikidata":"Q41137","_a":79,"_c":[41.36,36.56],"_nz":"亚述","_sz":""}},
{"type":"Feature","geometry":{"type":"Polygon","coordinates":[[[47.64,33.14],[46.75,33.39],[46.79,33.65],[46.42,33.78],[46.15,34.04],[45.92,34.04],[45.86,33.59],[46.07,33.46],[45.47,32.94],[44.72,33.07],[44.54,32.88],[44.31,32.88],[44.21,32.69],[43.91,32.75],[43.43,32.56],[43.42,32.49],[44.46,31.59],[44.58,31.34],[44.95,31.27],[45.77,30.44],[46.59,30.31],[46.62,29.86],[46.85,29.92],[46.98,29.73],[47.29,29.79],[47.87,29.54],[48.4,29.6],[48.37,29.92],[48.99,30.05],[48.94,30.31],[49.12,30.5],[49.29,30.63],[48.25,31.46],[48.15,32.43],[47.93,32.49],[47.97,32.75],[47.62,33.01],[47.64,33.14]]]},"properties":{"NAME":"Babylonia","C":5,"name":"Babylonia","start_year":-1200,"end_year":-1151,"capital":"","type":"polity","region":"","event":"","source":"Cliopatria / Seshat Global History Databank (CC BY 4.0)","wikipedia":"Babylonia","wikidata":"Q47690","_a":26,"_c":[46.36,31.79],"_nz":"巴比伦尼亚","_sz":""}}
]}