{"type":"FeatureCollection", "features": [
{"type":"Feature","geometry":{"type":"Polygon","coordinates":[[[30.54,23.36],[30.74,22.85],[30.72,22.27],[30.64,21.95],[30.69,21.31],[30.76,21.31],[30.74,20.79],[30.82,20.79],[30.8,20.34],[30.88,20.34],[31.15,17.64],[31.22,17.64],[31.34,16.81],[31.48,16.61],[31.39,16.36],[31.54,16.23],[31.53,15.97],[31.73,15.59],[32.09,15.39],[32.53,15.33],[32.53,15.2],[33.86,15.46],[34.1,15.84],[34.68,15.78],[34.56,16.23],[34.71,16.49],[35.67,16.49],[36.05,16.81],[36,17.32],[35.5,17.64],[35.3,18.09],[34.94,18.29],[34.88,18.61],[34.6,18.93],[34.47,19.38],[34.26,19.64],[33.82,21.63],[33.88,23.17],[33.82,23.49],[33.68,23.69],[33.39,23.81],[32.04,23.69],[31.67,23.75],[30.54,23.36]]]},"properties":{"NAME":"Kingdom of Kush","C":3,"name":"Kingdom of Kush","start_year":-630,"end_year":337,"capital":"","type":"polity","region":"","event":"","source":"Cliopatria / Seshat Global History Databank (CC BY 4.0)","wikipedia":"Kingdom of Kush","wikidata":"Q241790","_a":48,"_c":[33.29,19.51],"_nz":"库施王国","_sz":""}},
{"type":"Feature","geometry":{"type":"Polygon","coordinates":[[[45.21,15.91],[45.23,16.1],[44.81,16.55],[44.81,16.61],[44.09,16.81],[43.82,17.26],[43.9,17.39],[43.48,17.77],[43.25,17.64],[43.03,17.71],[43.02,17.51],[42.63,17.19],[42.48,17],[42.76,16.74],[42.81,16.42],[43.11,16.42],[43.39,16.23],[44.12,16.16],[44.33,15.91],[45.21,15.91]]]},"properties":{"NAME":"Minaeans","C":0,"name":"Minaeans","start_year":-383,"end_year":-189,"capital":"","type":"polity","region":"","event":"","source":"Cliopatria / Seshat Global History Databank (CC BY 4.0)","wikipedia":"Minaeans","wikidata":"Q1177379","_a":5,"_c":[43.86,16.84],"_nz":"米奈人","_sz":""}},
{"type":"Feature","geometry":{"type":"Polygon","coordinates":[[[45.21,15.91],[44.33,15.91],[44.12,16.16],[43.39,16.23],[43.11,16.42],[42.81,16.42],[42.69,15.52],[42.77,15.52],[42.82,15.07],[44.29,15.14],[45.02,15.14],[45.18,15.26],[45.85,15.39],[45.86,15.52],[46.15,15.52],[46.38,15.71],[46.47,15.97],[46.18,15.97],[46.02,15.84],[45.58,15.84],[45.37,15.97],[45.21,15.91]]]},"properties":{"NAME":"Sabaeans","C":6,"name":"Sabaeans","start_year":-350,"end_year":-111,"capital":"","type":"polity","region":"","event":"","source":"Cliopatria / Seshat Global History Databank (CC BY 4.0)","wikipedia":"Sabaeans","wikidata":"Q940785","_a":5,"_c":[44.58,15.75],"_nz":"萨巴人","_sz":""}},
{"type":"Feature","geometry":{"type":"Polygon","coordinates":[[[46.58,15.33],[47.53,15.2],[47.52,15.07],[48.32,14.94],[48.54,14.81],[49.63,14.69],[50.75,15.01],[50.85,15.33],[51.07,15.46],[51.24,15.78],[51.86,16.23],[51.95,16.49],[51.89,16.61],[51.08,16.68],[50.48,16.55],[50.12,16.61],[49.59,16.49],[48.12,16.42],[46.7,16.1],[46.55,16.16],[46.47,15.97],[46.38,15.71],[46.15,15.52],[46.58,15.33]]]},"properties":{"NAME":"Hadhramaut","C":11,"name":"Hadhramaut","start_year":-350,"end_year":183,"capital":"","type":"polity","region":"","event":"","source":"Cliopatria / Seshat Global History Databank (CC BY 4.0)","wikipedia":"Hadhramaut","wikidata":"Q1517159","_a":12,"_c":[49.05,15.68],"_nz":"哈德拉毛","_sz":""}},
{"type":"Feature","geometry":{"type":"Polygon","coordinates":[[[44.29,15.14],[44.21,14.94],[44.78,14.62],[45.15,14.81],[45.3,14.75],[45.75,14.94],[46.34,15.01],[46.58,15.33],[46.15,15.52],[45.86,15.52],[45.85,15.39],[45.18,15.26],[45.02,15.14],[44.29,15.14]]]},"properties":{"NAME":"Qataban","C":10,"name":"Qataban","start_year":-350,"end_year":-111,"capital":"","type":"polity","region":"","event":"","source":"Cliopatria / Seshat Global History Databank (CC BY 4.0)","wikipedia":"Qataban","wikidata":"Q748595","_a":2,"_c":[45.4,15.07],"_nz":"盖特班","_sz":""}},
{"type":"Feature","geometry":{"type":"MultiPolygon","coordinates":[[[[116.13,30.18],[115.8,30.12],[115.64,29.86],[115.26,28.89],[115.33,28.89],[114.95,26.77],[114.96,26.52],[115.23,26.39],[114.86,25.49],[114.72,25.23],[114.47,24.46],[114.55,24.46],[114.45,23.62],[114.9,22.91],[114.74,22.85],[114.75,22.53],[114.9,22.53],[115.17,22.79],[115.37,22.66],[115.67,22.66],[115.7,22.79],[116.54,22.91],[116.59,23.17],[116.81,23.17],[116.78,23.36],[116.89,23.56],[117.18,23.49],[117.47,23.81],[117.69,23.81],[117.72,23.94],[118.08,24.2],[118.15,24.52],[118.76,24.59],[118.82,24.84],[119.07,24.97],[119.03,25.1],[119.34,25.16],[119.47,25.36],[119.87,25.49],[119.9,25.62],[119.53,25.62],[119.78,26],[119.59,26.13],[119.85,26.26],[119.84,26.52],[120.16,26.58],[120.17,26.9],[120.3,27.09],[120.55,27.16],[120.73,27.54],[120.71,27.74],[120.87,27.99],[121.15,28.19],[121.65,28.32],[121.65,28.57],[121.74,29.09],[121.94,29.22],[122.03,29.92],[121.62,30.05],[121.48,30.31],[121.1,30.31],[120.81,30.12],[120.73,30.31],[120.52,30.37],[119.7,29.99],[118.36,29.6],[116.74,29.73],[116.27,29.92],[116.13,30.18]]],[[[122.05,30.18],[121.98,29.99],[122.28,29.99],[122.27,30.18],[122.05,30.18]]]]},"properties":{"NAME":"Minyue","C":7,"name":"Minyue","start_year":-333,"end_year":-219,"capital":"","type":"polity","region":"","event":"","source":"Cliopatria / Seshat Global History Databank (CC BY 4.0)","wikipedia":"Minyue","wikidata":"Q1936158","_a":61,"_c":[118.37,26.45],"_nz":"闽越","_sz":""}},
{"type":"Feature","geometry":{"type":"Polygon","coordinates":[[[78.57,45.17],[78.35,45.43],[78,45.56],[78.02,45.82],[77.83,45.96],[77.75,46.35],[77.39,46.48],[75.45,46.55],[75.32,46.41],[74.88,46.35],[74.75,46.02],[74.32,45.96],[74.12,45.43],[74.25,45.37],[74.13,45.04],[73.97,44.84],[74.44,44.58],[74.56,44.25],[75,44.12],[74.79,43.8],[75.2,43.6],[75.14,43.21],[75.39,43.02],[75.77,42.95],[75.88,42.82],[75.7,42.56],[75.81,42.43],[76.16,42.5],[76.14,42.24],[76.28,42.17],[76.21,41.98],[76,41.85],[73.34,41.07],[73,40.74],[72.48,40.61],[72.34,40.42],[72.1,40.42],[71.98,40.29],[72.26,40.16],[72.2,39.97],[72.43,39.97],[72.67,39.71],[73.42,39.58],[73.38,39.45],[74.75,39.32],[77.03,38.8],[77.26,38.55],[77.41,38.55],[77.51,38.35],[77.67,38.35],[77.84,38.16],[77.8,38.03],[78.09,37.71],[78.39,37.64],[78.42,37.51],[79.15,37.32],[79.4,37.13],[80.37,37],[81.03,36.61],[81.26,36.61],[81.71,36.8],[82.1,36.8],[85.11,37.45],[85.36,37.71],[85.81,37.9],[86.08,38.22],[86.44,38.35],[87.66,38.48],[88.75,38.87],[90.47,39.06],[92.14,39.51],[93.17,39.9],[93.17,40.1],[93.47,40.61],[93.23,40.61],[92.35,41.13],[91.27,41.39],[90.78,41.72],[90.54,41.72],[90.22,41.91],[89.64,42.04],[88.82,42.17],[88.85,42.24],[88.08,42.3],[88.11,42.37],[85.76,42.69],[85.79,42.76],[84.11,42.76],[82.56,42.3],[81.12,42.3],[81.04,42.5],[81.09,42.82],[80.79,43.08],[80.87,43.28],[80.74,43.34],[80.76,43.6],[80.38,44.06],[80.41,44.52],[80.49,44.71],[80.38,44.84],[80.06,44.84],[79.95,44.97],[79.54,44.97],[78.57,45.17]]]},"properties":{"NAME":"Yuezhi","C":2,"name":"Yuezhi","start_year":-331,"end_year":-204,"capital":"","type":"polity","region":"","event":"","source":"Cliopatria / Seshat Global History Databank (CC BY 4.0)","wikipedia":"Yuezhi","wikidata":"Q467985","_a":214,"_c":[82.73,41.58],"_nz":"月氏","_sz":""}},
{"type":"Feature","geometry":{"type":"Polygon","coordinates":[[[-97.18,17.13],[-96.9,16.74],[-96.54,16.81],[-96.56,16.94],[-96.26,16.94],[-96.31,17.19],[-96.86,17.45],[-96.96,17.58],[-97.41,17.64],[-97.23,17.45],[-97.35,17.26],[-97.18,17.13]]]},"properties":{"NAME":"Zapotec Civilization","C":5,"name":"Zapotec Civilization","start_year":-291,"end_year":-92,"capital":"","type":"polity","region":"","event":"","source":"Cliopatria / Seshat Global History Databank (CC BY 4.0)","wikipedia":"Zapotec civilization","wikidata":"Q844750","_a":1,"_c":[-96.83,17.23],"_nz":"萨波特克文明","_sz":""}},
{"type":"Feature","geometry":{"type":"Polygon","coordinates":[[[75.99,10.6],[76.55,8.92],[77.15,8.26],[77.25,8.39],[77.34,9.58],[77.23,9.76],[77.41,10.21],[76.85,10.45],[76.89,10.76],[76.71,10.91],[75.99,10.63],[75.99,10.6]]]},"properties":{"NAME":"Early Cheras","C":9,"name":"Early Cheras","start_year":-291,"end_year":298,"capital":"","type":"polity","region":"","event":"","source":"Cliopatria / Seshat Global History Databank (CC BY 4.0)","wikipedia":"Chera dynasty","wikidata":"Q877155","_a":4,"_c":[76.7,9.59],"_nz":"早期哲罗","_sz":""}},
{"type":"Feature","geometry":{"type":"Polygon","coordinates":[[[79.29,10.27],[78.92,10.13],[77.44,10.19],[77.24,9.77],[77.36,9.58],[77.27,8.39],[77.16,8.29],[77.26,8.15],[77.53,8.08],[77.84,8.17],[78.18,8.51],[78.25,8.91],[78.54,9.1],[79.15,9.26],[78.91,9.45],[78.94,9.67],[79.27,9.99],[79.29,10.27]]]},"properties":{"NAME":"Early Pandyas","C":3,"name":"Early Pandyas","start_year":-291,"end_year":298,"capital":"","type":"polity","region":"","event":"","source":"Cliopatria / Seshat Global History Databank (CC BY 4.0)","wikipedia":"Early Pandyas","wikidata":"Q3532152","_a":5,"_c":[78.22,9.18],"_nz":"早期潘迪亚","_sz":""}},
{"type":"Feature","geometry":{"type":"Polygon","coordinates":[[[81.26,8.64],[80.99,8.96],[81,9.09],[80.73,9.48],[80.44,9.54],[80.45,9.74],[79.88,9.86],[79.86,9.67],[80.08,9.61],[79.99,9.41],[80.05,9.16],[79.81,8.77],[79.76,8.06],[79.62,8.06],[79.61,7.87],[79.74,7.68],[79.76,6.65],[79.95,6.14],[80.23,5.88],[80.67,5.88],[81.34,6.14],[81.88,6.71],[81.92,7.42],[81.77,7.49],[81.65,7.94],[81.45,8.13],[81.4,8.51],[81.26,8.64]]]},"properties":{"NAME":"Anurādhapura","C":2,"name":"Anurādhapura","start_year":-291,"end_year":77,"capital":"","type":"polity","region":"","event":"","source":"Cliopatria / Seshat Global History Databank (CC BY 4.0)","wikipedia":"Anurādhapura","wikidata":"Q5724","_a":9,"_c":[80.77,7.87],"_nz":"阿努拉德普勒","_sz":""}},
{"type":"Feature","geometry":{"type":"Polygon","coordinates":[[[79.83,11.36],[78.96,10.84],[77.88,10.94],[77.59,11.14],[77.02,11.17],[76.68,10.94],[76.9,10.77],[76.85,10.48],[77.4,10.21],[78.92,10.16],[79.39,10.32],[79.85,10.27],[79.87,11.2],[79.83,11.36]]]},"properties":{"NAME":"Early Cholas","C":1,"name":"Early Cholas","start_year":-291,"end_year":298,"capital":"","type":"polity","region":"","event":"","source":"Cliopatria / Seshat Global History Databank (CC BY 4.0)","wikipedia":"Early Cholas","wikidata":"Q3532146","_a":4,"_c":[78.28,10.76],"_nz":"早期朱罗","_sz":""}},
{"type":"Feature","geometry":{"type":"Polygon","coordinates":[[[31.3,39.97],[31.7,40.03],[32.11,40.16],[32.3,40.48],[32.1,40.81],[32.14,41.13],[32.31,41.2],[32.26,41.46],[32.11,41.59],[31.7,41.46],[31.59,41.2],[31.35,41.2],[31.18,41.07],[30.62,41.07],[30.48,41.2],[29.37,41.2],[29.25,40.81],[29.48,40.74],[29.54,40.55],[29.94,40.55],[30.07,40.29],[30.46,40.23],[30.59,39.97],[31.3,39.97]]]},"properties":{"NAME":"Kingdom of Bithynia","C":4,"name":"Kingdom of Bithynia","start_year":-279,"end_year":-204,"capital":"","type":"polity","region":"","event":"","source":"Cliopatria / Seshat Global History Databank (CC BY 4.0)","wikipedia":"Kingdom of Bithynia","wikidata":"Q3762571","_a":5,"_c":[30.78,40.81],"_nz":"比提尼亚王国","_sz":""}},
{"type":"Feature","geometry":{"type":"Polygon","coordinates":[[[34.57,40.23],[34.6,40.48],[34.38,40.61],[34.4,40.81],[34.26,40.94],[34.41,41.46],[34.33,41.52],[33.31,41.59],[33.13,41.46],[32.66,41.46],[32.31,41.2],[32.14,41.13],[32.1,40.81],[32.3,40.48],[32.76,40.36],[33.41,40.48],[33.56,40.36],[34.57,40.23]]]},"properties":{"NAME":"Paphlagonia","C":8,"name":"Paphlagonia","start_year":-279,"end_year":-145,"capital":"","type":"polity","region":"","event":"","source":"Cliopatria / Seshat Global History Databank (CC BY 4.0)","wikipedia":"Paphlagonia","wikidata":"Q622032","_a":3,"_c":[33.35,40.91],"_nz":"帕夫拉戈尼亚","_sz":""}},
{"type":"Feature","geometry":{"type":"Polygon","coordinates":[[[108.43,22.53],[108.25,23.17],[108.11,23.24],[107.96,23.62],[107.76,23.75],[107.01,23.75],[105.97,23.36],[105.76,23.04],[105.27,22.79],[105.24,22.59],[104.87,22.21],[105.13,21.95],[105.1,21.76],[104.93,21.63],[104.98,21.5],[104.85,21.18],[105.1,20.86],[104.87,20.86],[104.91,20.6],[104.62,20.66],[104.44,20.47],[104.98,20.15],[104.86,19.89],[104.99,19.76],[105.02,18.99],[105.19,18.67],[105.14,18.41],[106.53,16.94],[106.76,17],[107.03,17.26],[106.75,17.39],[106.77,17.51],[106.57,17.64],[106.57,18.09],[106.29,18.22],[106.18,18.41],[105.73,18.86],[105.91,19.51],[105.85,19.57],[106.06,19.96],[106.54,20.15],[106.69,20.6],[106.83,20.6],[106.96,20.92],[107.42,20.99],[107.79,21.44],[108.64,21.63],[108.63,22.01],[108.5,22.08],[108.49,22.46],[108.43,22.53]]]},"properties":{"NAME":"Âu Lạc","C":9,"name":"Âu Lạc","start_year":-256,"end_year":-209,"capital":"","type":"polity","region":"","event":"","source":"Cliopatria / Seshat Global History Databank (CC BY 4.0)","wikipedia":"Âu Lạc","wikidata":"Q867227","_a":29,"_c":[106.56,20.35],"_nz":"瓯雒","_sz":""}},
{"type":"Feature","geometry":{"type":"Polygon","coordinates":[[[-88.5,17.77],[-88.95,17.77],[-89.34,17.9],[-90.21,18.29],[-91.66,18.09],[-91.7,17.9],[-91.92,17.9],[-91.95,17.64],[-92.48,17.26],[-92.46,17.13],[-92.71,16.87],[-93.15,15.84],[-93.12,15.65],[-93.32,15.52],[-92.75,15.14],[-92.47,14.69],[-91.5,13.98],[-90.47,13.91],[-89.99,13.59],[-89.87,13.79],[-89.57,13.72],[-89.59,13.91],[-89.19,14.24],[-88.82,14.24],[-88.69,14.43],[-88.63,15.07],[-88.38,15.39],[-88.51,15.84],[-88.82,15.97],[-88.64,16.23],[-88.49,16.23],[-88.24,16.49],[-88.14,16.81],[-88.18,17.58],[-88.32,17.51],[-88.47,17.58],[-88.5,17.77]]]},"properties":{"NAME":"Mayan City-States","C":2,"name":"Mayan City-States","start_year":-247,"end_year":259,"capital":"","type":"polity","region":"","event":"","source":"Cliopatria / Seshat Global History Databank (CC BY 4.0)","wikipedia":"Maya civilization","wikidata":"Q28567","_a":24,"_c":[-90.73,15.94],"_nz":"玛雅城邦","_sz":""}},
{"type":"Feature","geometry":{"type":"MultiPolygon","coordinates":[[[[26.87,36.67],[27.19,36.8],[27.04,36.93],[26.87,36.67]]],[[[27.19,36.93],[27.35,36.93],[27.44,37.13],[27.21,37.13],[27.19,36.93]]],[[[25.7,40.1],[26.02,40.16],[26.04,40.29],[25.72,40.29],[25.7,40.1]]],[[[26.67,40.36],[26.6,40.48],[26.27,40.29],[26.26,40.1],[26.67,40.36]]],[[[26.92,40.48],[27.1,40.74],[26.78,40.74],[26.77,40.61],[26.77,40.55],[26.92,40.48]]],[[[37.65,33.65],[37.6,33.91],[37.39,34.1],[37,34.1],[36.87,34.29],[36.56,34.29],[36.44,34.61],[36.29,34.68],[36.31,34.87],[36.17,34.94],[36.27,35.19],[35.89,35.26],[35.96,35.19],[35.93,34.87],[36.07,34.74],[36.05,34.55],[35.79,34.29],[35.64,34.36],[35.68,33.97],[35.45,33.91],[35.5,33.65],[35.35,33.65],[35.4,33.39],[35.22,33.07],[35.06,33.01],[35.02,32.62],[34.77,32.36],[34.81,31.98],[34.57,31.85],[34.63,31.66],[34.31,31.4],[34.3,31.27],[33.98,31.14],[32.83,31.01],[32.77,31.14],[32.53,31.08],[32,31.08],[31.88,31.46],[31.27,31.46],[30.97,31.53],[30.81,31.46],[30.35,31.46],[30.34,31.27],[29.88,31.27],[29.87,31.08],[29.4,30.82],[28.87,30.82],[28.5,31.01],[27.51,31.14],[27.3,31.34],[26.85,31.46],[25.25,31.46],[25.1,31.59],[25.11,31.79],[24.89,31.98],[24.13,31.98],[23.68,32.17],[23.3,32.17],[23.15,32.24],[23.09,32.62],[21.88,32.94],[21.41,32.75],[21.11,32.81],[20.87,32.62],[20.33,32.49],[20.25,32.24],[20.09,32.11],[20,31.59],[20.21,31.27],[20.13,31.14],[20.2,30.89],[19.97,30.69],[19.96,30.56],[19.66,30.37],[19.27,30.24],[18.89,30.31],[18.74,30.12],[18.73,29.99],[19.57,30.12],[19.65,30.24],[19.96,30.31],[20.58,30.89],[21.95,30.89],[22.85,30.63],[22.85,30.5],[23.23,30.5],[23.67,30.12],[24.26,29.86],[24.41,29.67],[24.85,29.54],[24.92,29.34],[25.22,29.34],[25.88,28.83],[26.85,28.44],[27.29,28.12],[28.15,27.35],[28.27,26.58],[28.35,26.58],[28.24,25.94],[28.29,25.16],[28.57,24.65],[29.67,24.2],[30.1,23.75],[30.4,23.56],[30.54,23.36],[31.67,23.75],[32.04,23.69],[33.39,23.81],[33.68,23.69],[35.11,23.88],[35.55,23.81],[35.56,23.94],[35.85,23.88],[35.86,24.01],[35.15,24.65],[34.61,25.81],[34.46,25.87],[34.2,26.52],[34.05,26.58],[34.07,26.97],[33.93,27.03],[33.8,27.42],[33.59,27.61],[33.61,27.99],[33.11,28.38],[32.84,28.89],[32.69,28.96],[32.44,29.79],[32.67,29.86],[32.92,30.12],[33.84,30.24],[34.3,30.37],[34.39,30.5],[34.62,30.56],[35.35,31.14],[35.5,31.08],[35.66,31.21],[36.42,31.21],[36.39,31.66],[36.49,31.98],[36.66,32.11],[36.75,32.3],[36.72,32.75],[36.9,33.07],[37.07,33.26],[37.57,33.65],[37.65,33.65]]],[[[33.96,35.26],[34.53,35.58],[34.31,35.71],[33.74,35.39],[32.89,35.39],[32.88,35.26],[32.55,35.13],[32.25,35.13],[32.23,34.94],[32.37,34.74],[33.04,34.55],[33.13,34.68],[33.52,34.74],[33.7,34.94],[34.09,35],[33.96,35.26]]],[[[32.07,36.61],[32.5,36.22],[32.56,36.03],[32.71,36.03],[33.27,36.22],[33.98,36.29],[34.33,36.67],[34.34,36.74],[34.22,37.13],[33.67,37.13],[33.61,37.25],[33.38,37.25],[32.07,36.61]]],[[[28.23,37.19],[28.03,36.67],[28.19,36.67],[28.36,36.87],[29.12,36.74],[29.24,36.22],[29.94,36.22],[30.03,36.35],[30.49,36.35],[30.54,36.87],[30.62,36.93],[29.45,36.87],[29.37,36.87],[28.3,37.19],[28.23,37.19]]],[[[35.96,35.9],[36.1,35.84],[36.35,35.97],[36.46,36.22],[36.62,36.29],[36.65,36.55],[37.13,36.74],[37.2,37.32],[37.15,37.51],[36.94,37.77],[36.96,37.9],[36.35,38.03],[35.83,37.64],[35.81,37.38],[35.39,37.13],[35.37,37],[35.03,36.74],[35.49,36.61],[35.83,36.93],[36.14,36.93],[36.29,36.8],[36.26,36.61],[35.85,36.35],[35.99,36.22],[35.96,35.9]]]]},"properties":{"NAME":"Ptolemaic Kingdom","C":9,"name":"Ptolemaic Kingdom","start_year":-239,"end_year":-219,"capital":"","type":"polity","region":"","event":"","source":"Cliopatria / Seshat Global History Databank (CC BY 4.0)","wikipedia":"Ptolemaic Kingdom","wikidata":"Q2320005","_a":329,"_c":[28.19,32.05],"_nz":"托勒密王国","_sz":""}},
{"type":"Feature","geometry":{"type":"Polygon","coordinates":[[[38.75,39.06],[37.86,39.45],[36.93,39.58],[35.44,39.58],[35.29,39.71],[34.83,39.77],[34.73,39.58],[34.77,39.26],[34.48,38.8],[33.68,38.67],[33.59,38.55],[33.67,37.84],[35.28,37.58],[35.83,37.64],[36.35,38.03],[36.96,37.9],[37.11,37.9],[37.32,38.29],[38.13,38.48],[38.81,38.93],[38.75,39.06]]]},"properties":{"NAME":"Kingdom of Cappadocia","C":9,"name":"Kingdom of Cappadocia","start_year":-239,"end_year":-219,"capital":"","type":"polity","region":"","event":"","source":"Cliopatria / Seshat Global History Databank (CC BY 4.0)","wikipedia":"Kingdom of Cappadocia","wikidata":"Q29654286","_a":11,"_c":[36.21,38.67],"_nz":"卡帕多西亚王国","_sz":""}},
{"type":"Feature","geometry":{"type":"Polygon","coordinates":[[[34.83,39.77],[34.54,39.97],[34.57,40.23],[33.56,40.36],[33.41,40.48],[32.76,40.36],[32.3,40.48],[32.11,40.16],[31.7,40.03],[31.3,39.97],[31.38,39.97],[31.23,39.32],[31.44,39.06],[31.42,38.87],[31.74,38.87],[31.8,38.74],[32.19,38.67],[33.59,38.55],[33.68,38.67],[34.48,38.8],[34.77,39.26],[34.73,39.58],[34.83,39.77]]]},"properties":{"NAME":"Galatia","C":1,"name":"Galatia","start_year":-239,"end_year":-127,"capital":"","type":"polity","region":"","event":"","source":"Cliopatria / Seshat Global History Databank (CC BY 4.0)","wikipedia":"Galatia","wikidata":"Q26847","_a":7,"_c":[33.03,39.52],"_nz":"加拉太","_sz":""}},
{"type":"Feature","geometry":{"type":"MultiPolygon","coordinates":[[[[11.08,35.58],[10.7,35.71],[10.46,35.9],[10.54,36.35],[10.46,36.42],[11.01,36.8],[10.85,37],[10.54,36.74],[10.23,36.8],[10.31,37.06],[10.23,37.25],[9.99,37.19],[9.6,37.32],[9.06,37.06],[8.9,37.13],[8.52,36.87],[7.74,36.87],[7.5,37.06],[7.35,37.06],[7.19,36.87],[6.8,36.87],[6.33,37.06],[6.1,36.93],[6.11,36.8],[5.64,36.8],[5.56,36.67],[5.1,36.67],[4.86,36.87],[4.47,36.93],[3.85,36.8],[3.46,36.87],[3.23,36.74],[2.84,36.74],[2.69,36.61],[2.38,36.67],[1.53,36.48],[1.22,36.55],[0.91,36.35],[0.38,36.22],[0.08,35.84],[-0.46,35.84],[-0.53,35.71],[-0.92,35.71],[-1.36,35.26],[-1.59,35.26],[-1.89,35.07],[-2.66,35.07],[-2.98,35.26],[-3.13,35.19],[-4.75,35.19],[-5.24,35.52],[-5.34,35.84],[-5.88,35.77],[-6,35.32],[-6.29,35.07],[-6.33,34.55],[-6.47,34.36],[-6.7,34.29],[-6.61,34.16],[-6.9,33.91],[-7.13,33.84],[-7.88,33.52],[-7.47,33.26],[-7.18,33.52],[-6.73,33.59],[-6.81,33.71],[-6.59,33.84],[-6.6,33.97],[-6.31,34.23],[-5.63,35.52],[-5.39,35.45],[-5.21,35.13],[-4.74,35],[-4.73,34.87],[-2.81,34.94],[-1.88,34.81],[-1.81,34.94],[-1.35,35],[-1.2,35.13],[-1.04,35.07],[-0.29,35.58],[0.48,35.64],[0.77,36.03],[1.01,36.03],[1.15,36.16],[2.01,36.16],[2.32,36.22],[2.77,36.42],[5.65,36.35],[5.88,36.48],[6.35,36.42],[6.42,36.55],[6.89,36.48],[6.96,36.61],[7.59,36.61],[7.9,36.22],[7.91,35.97],[8.07,34.94],[8.23,34.81],[8.46,34.87],[8.85,34.74],[8.93,34.36],[8.93,34.04],[9.08,34.04],[9.32,33.59],[9.55,33.52],[9.62,33.33],[9.85,33.39],[10.47,33.26],[11.08,32.88],[11.62,32.94],[12.08,32.75],[12,32.62],[13.76,32.62],[14.44,32.36],[14.52,32.17],[14.9,32.24],[15.05,32.11],[15.19,31.46],[15.57,31.14],[17.16,30.89],[18.22,30.5],[18.59,30.12],[18.81,30.12],[18.9,30.37],[18.59,30.37],[18.22,30.76],[17.85,30.95],[16.86,31.21],[16.18,31.21],[15.65,31.4],[15.58,31.59],[15.42,31.66],[15.28,32.3],[15.06,32.43],[14.75,32.43],[14.67,32.56],[14.44,32.49],[14.07,32.75],[13.76,32.75],[13.76,32.88],[13.45,32.81],[13.3,32.94],[12.84,32.88],[12.84,32.75],[12.53,32.75],[12.23,32.81],[11.46,33.2],[11.16,33.2],[11.08,33.59],[10.7,33.52],[10.54,33.71],[10.24,33.71],[10.01,33.91],[10.08,34.23],[10,34.29],[10.54,34.55],[10.85,34.81],[10.85,34.94],[11.08,35],[11.01,35.39],[11.08,35.58]]],[[[14.57,35.77],[14.57,35.97],[14.34,36.03],[14.34,35.84],[14.57,35.77]]],[[[-0.57,39.45],[-0.65,39.45],[-1.15,39.9],[-1.08,40.1],[-1.65,40.42],[-2.51,40.23],[-2.91,40.29],[-2.98,40.16],[-3.29,40.16],[-3.67,39.9],[-4.13,39.77],[-4.2,39.64],[-4.75,39.51],[-5.48,38.87],[-5.87,38.8],[-6.01,38.61],[-7.22,38.09],[-7.28,37.9],[-7.58,37.64],[-7.47,37.25],[-6.84,37.25],[-6.59,37],[-6.43,37],[-6.06,36.22],[-5.52,36.16],[-5.29,36.22],[-5.23,36.48],[-4.69,36.55],[-4.47,36.74],[-2.68,36.74],[-2.53,36.87],[-2.06,36.8],[-1.86,37.32],[-1.71,37.45],[-0.7,37.64],[-0.8,38.03],[-0.66,38.29],[-0.2,38.55],[-0.38,38.87],[-0.54,38.93],[-0.57,39.45]]],[[[1.65,39.13],[1.26,39.13],[1.18,39.06],[1.27,38.8],[1.43,38.8],[1.66,39],[1.65,39.13]]],[[[3.2,39.84],[3.19,39.97],[2.88,39.97],[2.34,39.64],[2.35,39.45],[2.66,39.51],[2.82,39.32],[3.3,39.32],[3.52,39.77],[3.2,39.84]]],[[[4.3,39.84],[4.22,40.1],[3.74,40.1],[3.83,39.9],[4.3,39.84]]]]},"properties":{"NAME":"Carthage","C":7,"name":"Carthage","start_year":-230,"end_year":-219,"capital":"","type":"polity","region":"","event":"","source":"Cliopatria / Seshat Global History Databank (CC BY 4.0)","wikipedia":"Ancient Carthage","wikidata":"Q2429397","_a":276,"_c":[5.51,35.27],"_nz":"迦太基","_sz":""}},
{"type":"Feature","geometry":{"type":"Polygon","coordinates":[[[48.8,38.09],[48.82,38.67],[48.74,38.67],[48.93,39.26],[48.67,39.58],[48.3,39.71],[47.52,39.71],[47.38,39.84],[47.05,39.77],[46.77,39.97],[46.54,39.97],[46.49,40.16],[45.52,40.48],[45.49,40.74],[45.67,40.87],[45.12,41.33],[44.24,41.26],[44.03,41.46],[43.78,41.39],[42.56,41.65],[42.25,41.26],[41.53,41.26],[41.36,40.68],[41.12,40.68],[41.01,40.94],[40.57,40.68],[40.77,40.48],[40.75,40.36],[40.51,40.29],[40.4,40.1],[38.79,39.9],[38.93,39.77],[38.74,39.58],[38.95,39.38],[39.21,39.51],[39.75,39.45],[39.85,39.58],[40.48,39.58],[40.51,39.26],[40.66,39.19],[40.51,38.74],[40.52,38.22],[40.57,38.03],[41.67,38.03],[41.96,37.9],[42.51,37.9],[43.94,37.58],[44.41,37.58],[44.77,37.38],[44.74,37.19],[44.87,37],[45.25,36.93],[45.29,37.19],[45.17,37.45],[45.22,37.77],[45.63,37.9],[45.85,38.29],[46.12,38.48],[47.25,38.67],[48.33,38.09],[48.8,38.09]]]},"properties":{"NAME":"Kingdom of Armenia","C":5,"name":"Kingdom of Armenia","start_year":-230,"end_year":-211,"capital":"","type":"polity","region":"","event":"","source":"Cliopatria / Seshat Global History Databank (CC BY 4.0)","wikipedia":"Kingdom of Armenia (antiquity)","wikidata":"Q208404","_a":48,"_c":[43.84,39.29],"_nz":"亚美尼亚王国","_sz":""}},
{"type":"Feature","geometry":{"type":"MultiPolygon","coordinates":[[[[35.24,45.1],[35.73,45.17],[35.88,45.04],[36.37,45.1],[36.42,45.43],[36.01,45.37],[35.18,45.3],[35.24,45.1]]],[[[39.09,46.28],[39.29,46.48],[39.55,47.01],[39.74,47.14],[39.72,47.47],[39.24,47.6],[38.49,47.53],[38.35,47.2],[39.2,47.33],[39.22,47.01],[38.89,47.01],[38.62,46.87],[38.49,46.61],[37.84,46.61],[37.9,46.48],[38.37,46.35],[38.33,46.15],[37.89,45.96],[37.76,45.63],[37.7,45.3],[36.97,45.3],[36.78,45.1],[37.26,45.04],[37.53,44.71],[37.93,44.71],[38.12,44.84],[38.39,45.5],[38.7,45.89],[38.86,45.89],[39.09,46.28]]]]},"properties":{"NAME":"Cimmerian Bosporus","C":0,"name":"Cimmerian Bosporus","start_year":-230,"end_year":-92,"capital":"","type":"polity","region":"","event":"","source":"Cliopatria / Seshat Global History Databank (CC BY 4.0)","wikipedia":"Bosporan Kingdom","wikidata":"Q321371","_a":13,"_c":[37.45,46.16],"_nz":"辛梅里安博斯普鲁斯王国","_sz":""}},
{"type":"Feature","geometry":{"type":"Polygon","coordinates":[[[36.53,41.26],[36.21,41.26],[36.1,41.59],[35.87,41.65],[35.31,41.65],[34.94,41.91],[34.47,41.98],[33.28,41.98],[32.11,41.59],[32.26,41.46],[32.31,41.2],[32.66,41.46],[33.13,41.46],[33.31,41.59],[34.33,41.52],[34.41,41.46],[34.26,40.94],[34.4,40.81],[34.38,40.61],[34.6,40.48],[34.57,40.23],[34.54,39.97],[34.83,39.77],[35.29,39.71],[35.44,39.58],[36.93,39.58],[37.86,39.45],[38.75,39.06],[38.93,39.19],[38.95,39.38],[38.74,39.58],[38.93,39.77],[38.79,39.9],[40.4,40.1],[40.51,40.29],[40.75,40.36],[40.77,40.48],[40.57,40.68],[41.01,40.94],[41.35,41.13],[41.24,41.39],[41.05,41.2],[40.46,41],[40.6,40.87],[40.41,40.68],[39.62,40.68],[39.4,40.81],[39,40.81],[38.82,40.68],[37.87,40.68],[37.36,40.94],[36.51,41.13],[36.53,41.26]]]},"properties":{"NAME":"Kingdom of Pontus","C":11,"name":"Kingdom of Pontus","start_year":-230,"end_year":-171,"capital":"","type":"polity","region":"","event":"","source":"Cliopatria / Seshat Global History Databank (CC BY 4.0)","wikipedia":"Kingdom of Pontus","wikidata":"Q7380487","_a":27,"_c":[36.73,40.52],"_nz":"本都王国","_sz":""}},
{"type":"Feature","geometry":{"type":"Polygon","coordinates":[[[66.53,34.42],[67.09,34.49],[67.61,34.74],[67.83,34.68],[68.1,34.87],[68.39,34.81],[68.52,35],[69.03,35.19],[69.33,35.19],[69.37,35.32],[69.6,35.32],[69.88,35.52],[70.09,35.45],[70.14,35.64],[70.51,35.9],[71.22,36.22],[71.83,37.06],[72.4,37.45],[72.43,37.58],[71.94,37.77],[71.78,38.03],[71.36,38.22],[71.2,38.48],[70.3,38.61],[70.1,38.74],[69.57,38.8],[69.36,39.19],[69.42,39.64],[69.32,39.84],[69.85,40.29],[70.74,40.61],[70.68,40.94],[70.48,41.07],[69.81,40.68],[69.37,40.81],[69.27,40.48],[69.27,40.23],[69.04,40.23],[69,40.1],[68.62,39.9],[68.53,39.58],[66.22,39.77],[65.56,39.97],[65.23,39.9],[64.89,40.1],[63.47,40.1],[62.88,39.97],[62.5,40.03],[60.79,39.51],[60.71,39.51],[60.41,39.26],[60.32,38.87],[60.43,38.67],[60.37,38.42],[60.56,38.22],[60.53,38.09],[60.74,37.96],[60.66,37.64],[60.98,37.32],[61.03,37.19],[61.47,36.74],[61.21,36.61],[61.3,35.58],[61.8,35.39],[62.19,35.39],[62.62,34.87],[63.15,34.81],[63.28,34.68],[63.83,34.74],[63.96,34.61],[64.19,34.61],[64.37,34.74],[64.76,34.74],[65.41,34.94],[65.62,34.81],[66.14,34.74],[66.56,34.55],[66.53,34.42]]]},"properties":{"NAME":"Greco-Bactrian Kingdom","C":10,"name":"Greco-Bactrian Kingdom","start_year":-225,"end_year":-204,"capital":"","type":"polity","region":"","event":"","source":"Cliopatria / Seshat Global History Databank (CC BY 4.0)","wikipedia":"Greco-Bactrian Kingdom","wikidata":"Q488880","_a":329,"_c":[51.13,37.3],"_nz":"希腊-巴克特里亚王国","_sz":""}},
{"type":"Feature","geometry":{"type":"Polygon","coordinates":[[[77.1,22.59],[76.6,22.72],[75.47,22.66],[74.38,22.21],[74.05,21.95],[73.76,21.31],[73.71,20.86],[73.4,20.02],[72.75,19.57],[72.73,19.38],[72.87,19.31],[72.87,18.61],[72.95,18.61],[73.07,17.71],[73.88,17.64],[74.43,17.96],[74.88,18.03],[75.08,17.84],[75.07,17.71],[75.47,17.39],[75.46,17.26],[75.73,17],[76.08,16.87],[76.01,16.23],[76.28,15.97],[76.43,15.97],[76.69,15.65],[78.99,15.14],[78.78,14.49],[79.27,14.24],[79.26,14.11],[80.24,14.43],[80.22,14.88],[80.09,15.07],[80.38,15.71],[80.61,15.84],[81.12,15.78],[81.23,16.16],[81.48,16.36],[82.22,16.42],[82.38,16.55],[82.36,17],[82.08,17.13],[81.88,17.32],[81.9,17.45],[81.69,17.58],[81.52,17.96],[81.55,18.22],[82.86,19.25],[82.17,19.64],[81.78,20.09],[80.84,20.34],[80.45,20.79],[80.16,20.79],[79.78,20.15],[79.1,20.02],[79.07,19.76],[78.84,19.7],[78.72,19.89],[78.74,20.09],[78.6,20.15],[78.62,20.34],[78.42,20.54],[78.39,20.92],[77.31,21.24],[77.22,21.69],[77.08,21.76],[77.1,22.59]]]},"properties":{"NAME":"Satavahana Dynasty","C":10,"name":"Satavahana Dynasty","start_year":-225,"end_year":-171,"capital":"","type":"polity","region":"","event":"","source":"Cliopatria / Seshat Global History Databank (CC BY 4.0)","wikipedia":"Satavahana dynasty","wikidata":"Q5257","_a":87,"_c":[77.8,18.42],"_nz":"萨塔瓦哈纳王朝","_sz":""}},
{"type":"Feature","geometry":{"type":"Polygon","coordinates":[[[86.44,20.02],[86.84,20.28],[86.79,20.47],[87.03,20.6],[86.96,21.18],[87.07,21.44],[87.76,21.63],[88.1,21.95],[88.13,21.63],[88.35,21.56],[88.51,21.69],[88.64,22.08],[88.72,22.08],[88.73,21.63],[89.87,21.82],[89.95,22.4],[89.73,22.91],[89.59,22.98],[89.96,23.94],[89.82,24.01],[89.93,24.2],[89.95,24.78],[89.79,25.16],[89.87,25.62],[89.88,26.07],[89.74,26.13],[89.94,26.77],[89.07,26.9],[88.82,27.16],[88.84,27.29],[88.29,27.16],[88.09,27.29],[87.41,27.61],[87.21,27.74],[87.11,27.99],[86.78,27.87],[86.57,27.93],[86.23,27.74],[85.85,27.74],[85.21,27.93],[84.81,28.19],[84.83,28.64],[84.48,28.77],[84.25,29.09],[84.01,29.02],[83.75,29.22],[83.52,29.22],[83.49,29.41],[83.25,29.34],[83.05,29.47],[82.46,29.54],[82.34,29.67],[81.7,29.86],[81.39,30.18],[81.09,30.18],[80.92,30.44],[80.34,30.56],[80.05,30.95],[79.53,31.01],[79.48,31.14],[77.94,29.99],[77.94,28.89],[78.01,28.89],[77.99,27.99],[78.84,27.29],[78.81,27.09],[78.99,26.84],[77.93,25.87],[77.43,25.04],[77.2,23.94],[77.1,22.59],[77.08,21.76],[77.22,21.69],[77.31,21.24],[78.39,20.92],[78.42,20.54],[78.62,20.34],[78.6,20.15],[78.74,20.09],[78.72,19.89],[78.84,19.7],[79.07,19.76],[79.1,20.02],[79.78,20.15],[80.16,20.79],[80.45,20.79],[80.84,20.34],[81.78,20.09],[82.17,19.64],[82.86,19.25],[85.35,20.79],[86.14,20.6],[86.16,20.15],[86.44,20.02]]]},"properties":{"NAME":"Maurya Empire","C":3,"name":"Maurya Empire","start_year":-225,"end_year":-189,"capital":"","type":"polity","region":"","event":"","source":"Cliopatria / Seshat Global History Databank (CC BY 4.0)","wikipedia":"Maurya Empire","wikidata":"Q62943","_a":153,"_c":[83.52,25.2],"_nz":"孔雀帝国","_sz":""}},
{"type":"Feature","geometry":{"type":"MultiPolygon","coordinates":[[[[20.61,37.71],[20.92,37.64],[20.93,37.9],[20.62,37.9],[20.61,37.71]]],[[[23.56,38.74],[23.63,38.48],[24.09,38.35],[24.18,38.55],[23.8,38.74],[23.56,38.74]]],[[[24.36,38.87],[24.66,38.74],[24.67,38.93],[24.36,38.87]]],[[[28.29,41.52],[28.14,41.65],[27.48,41.46],[27.09,41.52],[26.9,41.2],[26.18,41.07],[26.03,41.2],[24.76,41.26],[24.85,41.39],[24.55,41.65],[23.67,41.52],[23.53,41.78],[23.05,41.85],[22.75,42.11],[22.44,42.24],[22.45,42.43],[21.08,42.17],[21.05,41.65],[20.8,41.52],[20.88,41.39],[20.55,41.2],[21,40.81],[20.99,40.61],[20.75,40.48],[20.57,40.1],[20.81,40.1],[20.94,39.71],[21.32,39.38],[21.32,39.32],[21.7,39.13],[22.49,39.19],[22.56,39.06],[22.94,38.87],[23.18,38.93],[23.49,38.8],[23.34,39],[23.11,39],[22.82,39.38],[23.14,39.45],[22.61,39.9],[22.54,40.1],[22.65,40.61],[23.27,40.29],[23.74,40.23],[23.84,40.55],[23.68,40.61],[23.7,40.81],[24.01,40.74],[24.35,41],[25.85,40.94],[26.08,40.87],[26.07,40.74],[26.62,40.68],[27.18,40.74],[27.53,41.07],[28.08,41.07],[28.21,41.52],[28.29,41.52]]],[[[25.05,37.51],[25.29,37.51],[25.22,37.71],[24.99,37.71],[25.05,37.51]]],[[[24.68,37.84],[24.83,37.71],[25.07,37.77],[24.77,38.03],[24.68,37.84]]],[[[25.45,39.84],[25.46,40.03],[25.07,40.03],[24.97,39.84],[25.45,39.84]]],[[[25.7,40.1],[26.02,40.16],[26.04,40.29],[25.72,40.29],[25.7,40.1]]]]},"properties":{"NAME":"Antigonid Macedonia","C":8,"name":"Antigonid Macedonia","start_year":-225,"end_year":-217,"capital":"","type":"polity","region":"","event":"","source":"Cliopatria / Seshat Global History Databank (CC BY 4.0)","wikipedia":"Antigonid dynasty","wikidata":"Q237325","_a":42,"_c":[24.42,39.72],"_nz":"安提柯王朝马其顿","_sz":""}},
{"type":"Feature","geometry":{"type":"Polygon","coordinates":[[[22.4,37.51],[22.7,37.38],[22.71,37.58],[22.95,37.58],[23.4,37.32],[23.41,37.51],[23.11,37.64],[23.04,37.9],[23.29,38.03],[23.22,38.16],[22.98,38.09],[22.97,37.96],[22.66,37.96],[22.59,38.16],[22.44,38.29],[22.13,38.42],[21.74,38.42],[21.73,38.16],[21.41,38.09],[21.64,37.9],[21.4,37.77],[21.7,37.51],[22.09,37.51],[22.24,37.38],[22.4,37.51]]]},"properties":{"NAME":"Achaean League","C":0,"name":"Achaean League","start_year":-225,"end_year":-211,"capital":"","type":"polity","region":"","event":"","source":"Cliopatria / Seshat Global History Databank (CC BY 4.0)","wikipedia":"Achaean League","wikidata":"Q244796","_a":2,"_c":[22.4,37.87],"_nz":"亚该亚同盟","_sz":""}},
{"type":"Feature","geometry":{"type":"Polygon","coordinates":[[[82.36,17],[82.44,17],[82.61,17.26],[82.92,17.32],[83.56,17.77],[83.75,18.09],[84.05,18.16],[84.38,18.41],[84.75,18.99],[85.5,19.64],[85.8,19.7],[86.43,19.96],[86.44,20.02],[86.16,20.15],[86.14,20.6],[85.35,20.79],[82.86,19.25],[81.55,18.22],[81.52,17.96],[81.69,17.58],[81.9,17.45],[81.88,17.32],[82.08,17.13],[82.36,17]]]},"properties":{"NAME":"Kalinga","C":1,"name":"Kalinga","start_year":-225,"end_year":-189,"capital":"","type":"polity","region":"","event":"","source":"Cliopatria / Seshat Global History Databank (CC BY 4.0)","wikipedia":"Kalinga","wikidata":"Q356524","_a":19,"_c":[83.98,18.9],"_nz":"羯陵伽","_sz":""}},
{"type":"Feature","geometry":{"type":"Polygon","coordinates":[[[21.35,38.42],[22.45,38.42],[22.55,38.8],[22.4,38.93],[22.56,39.06],[22.49,39.19],[21.7,39.13],[21.32,39.32],[21.07,39.19],[20.85,39.32],[20.53,39.32],[20.68,39.13],[21.14,39],[21.14,38.93],[21.29,38.8],[21.35,38.42]]]},"properties":{"NAME":"Aetolian League","C":6,"name":"Aetolian League","start_year":-225,"end_year":-211,"capital":"","type":"polity","region":"","event":"","source":"Cliopatria / Seshat Global History Databank (CC BY 4.0)","wikipedia":"Aetolian League","wikidata":"Q245273","_a":2,"_c":[21.55,38.87],"_nz":"埃托利亚同盟","_sz":""}},
{"type":"Feature","geometry":{"type":"MultiPolygon","coordinates":[[[[24.16,35.52],[23.62,35.52],[23.68,35.26],[24.45,35.19],[24.76,35.19],[24.82,35],[26.14,35.07],[26.23,35.19],[25.68,35.13],[25.69,35.32],[24.3,35.32],[24.16,35.52]]],[[[22.89,36.42],[22.87,36.16],[23.11,36.16],[23.12,36.35],[22.89,36.42]]],[[[14.43,37],[14.66,36.74],[15.05,36.74],[15.21,37.13],[15.06,37.32],[14.43,37]]],[[[21.7,37.51],[21.68,37.19],[21.91,37.06],[22.22,37.06],[22.36,36.67],[22.51,36.67],[22.6,36.87],[22.83,36.87],[23.06,36.67],[22.85,37.25],[22.4,37.51],[22.24,37.38],[22.09,37.51],[21.7,37.51]]],[[[21.4,37.77],[21.64,37.9],[21.41,38.09],[21.24,37.84],[21.4,37.77]]],[[[20.33,38.35],[20.32,38.16],[20.79,38.09],[20.8,38.29],[20.57,38.42],[20.33,38.35]]],[[[25.88,38.16],[26.11,38.16],[26.22,38.55],[25.91,38.67],[25.88,38.16]]],[[[22.45,38.42],[22.99,38.29],[23.22,38.16],[23.44,38.03],[23.98,37.84],[24.08,38.29],[23.7,38.48],[23.31,38.48],[22.94,38.8],[22.94,38.87],[22.56,39.06],[22.4,38.93],[22.55,38.8],[22.45,38.42]]],[[[21.14,38.93],[20.83,39],[20.9,38.8],[21.2,38.48],[21.35,38.42],[21.29,38.8],[21.14,38.93]]],[[[-0.2,38.55],[0.1,38.8],[-0.31,39.13],[-0.35,39.71],[-0.2,39.97],[-0.51,39.9],[-0.57,39.45],[-0.54,38.93],[-0.38,38.87],[-0.2,38.55]]],[[[24.49,40.81],[24.55,40.55],[24.79,40.61],[24.81,40.81],[24.49,40.81]]],[[[27.46,42.11],[27.46,42.04],[27.54,42.04],[27.92,41.91],[27.8,42.24],[27.49,42.43],[27.51,42.63],[27.85,42.76],[27.8,43.15],[27.9,43.28],[28.23,43.34],[28.48,43.47],[28.62,43.99],[28.58,44.39],[28.84,44.58],[28.8,44.97],[28.64,44.97],[28.37,44.71],[28.3,44.06],[28.12,43.86],[28,43.47],[27.66,43.28],[27.19,42.63],[27.17,42.43],[27.46,42.11]],[[27.46,42.04],[27.46,42.11],[27.54,42.04],[27.46,42.04]]],[[[5.39,43.41],[5.8,43.15],[6.28,43.15],[6.6,43.28],[6.59,43.41],[5.87,43.41],[4.73,43.86],[3.45,43.67],[2.74,43.21],[2.67,43.02],[2.78,42.43],[2.7,42.37],[3.04,41.85],[3.18,42.37],[3.01,42.56],[2.98,43.15],[3.85,43.6],[4.17,43.6],[4.18,43.47],[5.06,43.47],[5.39,43.41]]],[[[27.74,35.9],[28.14,36.03],[28.25,36.48],[28.02,36.48],[27.69,36.29],[27.74,35.9]]],[[[28.3,37.19],[28.24,37.38],[27.61,37.32],[27.6,37.13],[28.22,37.13],[28.23,37.19],[28.3,37.19]]],[[[28.18,40.42],[27.7,40.29],[28.17,40.29],[28.18,40.42]]],[[[40.38,41],[39.74,40.94],[39.21,41.13],[38.95,41],[38.3,40.87],[38.16,41],[37.83,40.94],[37.77,41.07],[37.21,41.07],[36.77,41.33],[36.53,41.26],[36.51,41.13],[37.36,40.94],[37.87,40.68],[38.82,40.68],[39,40.81],[39.4,40.81],[39.62,40.68],[40.41,40.68],[40.6,40.87],[40.46,41],[40.38,41]]],[[[28.29,41.52],[28.21,41.52],[28.08,41.07],[29.12,41.07],[29.37,41.2],[28.96,41.13],[28.98,41.26],[28.28,41.46],[28.29,41.52]]],[[[35.09,41.78],[35.12,42.04],[34.79,41.98],[35.02,41.85],[35.09,41.78]]],[[[40.42,43.15],[40.82,43.15],[41.12,43.02],[41.15,43.21],[40.38,43.41],[40.41,43.6],[39.63,43.73],[39.98,43.41],[40.22,43.41],[40.42,43.15]]],[[[35.18,45.3],[34.6,45.24],[33.92,44.97],[33.64,45.3],[33.52,44.45],[33.93,44.45],[34.38,44.78],[35.13,44.91],[35.24,45.1],[35.18,45.3]]],[[[31.57,46.94],[31.08,47.01],[31.07,46.87],[30.46,46.61],[29.64,45.96],[29.61,45.69],[29.86,45.69],[30.04,45.89],[30.3,45.96],[30.88,46.68],[31.53,46.68],[31.57,46.94]]]]},"properties":{"NAME":"Greek City-States","C":4,"name":"Greek City-States","start_year":-223,"end_year":-211,"capital":"","type":"polity","region":"","event":"","source":"Cliopatria / Seshat Global History Databank (CC BY 4.0)","wikipedia":"Polis","wikidata":"Q148837","_a":505,"_c":[20.43,41.01],"_nz":"希腊城邦","_sz":""}},
{"type":"Feature","geometry":{"type":"Polygon","coordinates":[[[27.28,38.03],[27.51,38.03],[27.65,37.84],[27.97,37.9],[28.14,38.09],[28.53,38.03],[28.86,38.29],[28.96,38.55],[29.21,38.67],[29.32,39],[29.3,39.71],[28.84,39.84],[27.97,39.84],[27.41,39.71],[27.24,39.51],[26.84,39.51],[26.74,39.26],[26.89,39.19],[26.96,39],[26.85,38.61],[27.08,38.55],[27.06,38.35],[26.59,38.35],[26.54,38.61],[26.38,38.67],[26.43,38.22],[26.82,38.22],[26.89,38.09],[27.28,38.03]]]},"properties":{"NAME":"Kingdom of Pergamon","C":9,"name":"Kingdom of Pergamon","start_year":-223,"end_year":-213,"capital":"","type":"polity","region":"","event":"","source":"Cliopatria / Seshat Global History Databank (CC BY 4.0)","wikipedia":"Kingdom of Pergamon","wikidata":"Q2022162","_a":6,"_c":[27.85,38.84],"_nz":"帕加马王国","_sz":""}},
{"type":"Feature","geometry":{"type":"Polygon","coordinates":[[[38.81,38.93],[39.11,38.8],[39.39,38.55],[39.45,38.42],[40.52,38.22],[40.51,38.74],[40.66,39.19],[40.51,39.26],[40.48,39.58],[39.85,39.58],[39.75,39.45],[39.21,39.51],[38.95,39.38],[38.93,39.19],[38.75,39.06],[38.81,38.93]]]},"properties":{"NAME":"Kingdom of Sophene","C":4,"name":"Kingdom of Sophene","start_year":-223,"end_year":-213,"capital":"","type":"polity","region":"","event":"","source":"Cliopatria / Seshat Global History Databank (CC BY 4.0)","wikipedia":"Kingdom of Sophene","wikidata":"Q2626105","_a":3,"_c":[39.7,38.9],"_nz":"索菲尼王国","_sz":""}},
{"type":"Feature","geometry":{"type":"MultiPolygon","coordinates":[[[[66.53,34.42],[66.56,34.55],[66.14,34.74],[65.62,34.81],[65.41,34.94],[64.76,34.74],[64.37,34.74],[64.19,34.61],[63.96,34.61],[63.83,34.74],[63.28,34.68],[63.15,34.81],[62.62,34.87],[62.19,35.39],[61.8,35.39],[61.3,35.58],[61.21,36.61],[60.05,36.61],[59.07,36.42],[58.45,36.42],[57.7,36.55],[57.44,36.8],[56.83,36.87],[56.21,36.87],[55.78,36.67],[54.77,36.67],[54.03,36.87],[53.09,36.8],[52.19,36.55],[52.11,36.55],[52.01,36.42],[50.85,36.03],[50.48,35.64],[49.61,35.52],[49.5,35.32],[49.08,35.13],[47.95,35.32],[46.11,35.39],[45.15,35.71],[45.25,36.93],[44.87,37],[44.74,37.19],[44.77,37.38],[44.41,37.58],[43.94,37.58],[42.51,37.9],[41.96,37.9],[41.67,38.03],[40.57,38.03],[40.52,38.22],[39.45,38.42],[39.39,38.55],[39.11,38.8],[38.81,38.93],[38.13,38.48],[37.32,38.29],[37.11,37.9],[36.96,37.9],[36.94,37.77],[37.15,37.51],[37.2,37.32],[37.13,36.74],[36.65,36.55],[36.62,36.29],[36.46,36.22],[36.35,35.97],[36.1,35.84],[35.96,35.9],[35.84,35.58],[35.99,35.52],[35.89,35.26],[36.27,35.19],[36.17,34.94],[36.31,34.87],[36.29,34.68],[36.44,34.61],[36.56,34.29],[36.87,34.29],[37,34.1],[37.39,34.1],[37.6,33.91],[37.65,33.65],[37.99,33.97],[39.12,34.49],[40.26,34.29],[40.31,34.1],[40.7,34.16],[40.91,33.97],[41.21,33.91],[41.43,33.78],[41.49,33.65],[42,33.46],[42.06,33.33],[42.58,33.14],[42.71,32.94],[43.15,32.81],[44.46,31.59],[44.58,31.34],[44.95,31.27],[45.77,30.44],[46.59,30.31],[46.62,29.86],[46.85,29.92],[46.98,29.73],[47.29,29.79],[47.65,29.6],[48.09,29.54],[48.4,29.6],[48.37,29.92],[48.99,30.05],[48.94,30.31],[49.59,29.99],[50.06,30.18],[50.24,29.73],[50.65,29.41],[50.62,29.15],[50.92,29.09],[50.81,28.83],[51.03,28.77],[51.07,28.44],[51.33,28.12],[51.32,27.99],[51.6,27.8],[52.05,27.8],[52.48,27.61],[52.74,27.22],[53.46,26.97],[53.66,26.71],[54.26,26.71],[54.46,26.52],[54.83,26.45],[55.24,26.77],[55.29,26.52],[55.6,26.64],[56.06,26.71],[56.31,26.9],[56.19,27.16],[56.71,27.16],[57.05,26.84],[57.18,25.94],[57.38,25.74],[57.53,25.74],[57.48,26],[57.77,26.58],[58.26,26.9],[58.59,27.16],[59.4,27.54],[60.24,28.25],[61.03,29.47],[61.37,29.73],[61.68,30.24],[62.12,30.63],[63.3,32.11],[63.44,32.04],[63.64,32.3],[63.87,32.3],[64.41,32.69],[64.36,32.81],[64.69,32.94],[64.83,33.26],[64.98,33.26],[65.11,33.52],[65.06,33.65],[65.24,33.78],[65.39,34.1],[65.75,34.36],[66.35,34.29],[66.53,34.42]]],[[[34.96,36.74],[35.03,36.74],[35.37,37],[35.39,37.13],[35.81,37.38],[35.83,37.64],[35.28,37.58],[33.67,37.84],[33.59,38.55],[32.19,38.67],[31.8,38.74],[31.74,38.87],[31.42,38.87],[31.44,39.06],[31.23,39.32],[31.38,39.97],[31.3,39.97],[30.59,39.97],[30.46,40.23],[30.07,40.29],[29.94,40.55],[29.54,40.55],[29.48,40.74],[28.91,40.61],[29.05,40.36],[28.18,40.42],[28.17,40.29],[27.7,40.29],[27.47,40.42],[26.67,40.36],[26.26,40.1],[26.13,39.51],[26.85,39.58],[26.84,39.51],[27.24,39.51],[27.41,39.71],[27.97,39.84],[28.84,39.84],[29.3,39.71],[29.32,39],[29.21,38.67],[28.96,38.55],[28.86,38.29],[28.53,38.03],[28.14,38.09],[27.97,37.9],[27.65,37.84],[27.51,38.03],[27.28,38.03],[27.19,37.96],[27.31,37.45],[27.22,37.32],[27.61,37.32],[28.24,37.38],[28.3,37.19],[29.37,36.87],[29.45,36.87],[30.62,36.93],[31.39,36.87],[31.99,36.61],[32.07,36.61],[33.38,37.25],[33.61,37.25],[33.67,37.13],[34.22,37.13],[34.34,36.74],[34.58,36.87],[34.89,36.87],[34.96,36.74]]],[[[26.25,38.93],[26.64,39],[26.51,39.32],[26.04,39.38],[25.79,39.19],[26.1,39.13],[26.25,38.93]]]]},"properties":{"NAME":"Seleucid Empire","C":0,"name":"Seleucid Empire","start_year":-223,"end_year":-219,"capital":"","type":"polity","region":"","event":"","source":"Cliopatria / Seshat Global History Databank (CC BY 4.0)","wikipedia":"Seleucid dynasty","wikidata":"Q705904","_a":612,"_c":[46.18,33.24],"_nz":"塞琉古帝国","_sz":""}},
{"type":"Feature","geometry":{"type":"Polygon","coordinates":[[[52.11,36.55],[50.82,36.74],[50.32,37],[50,37.38],[49.02,37.58],[48.83,37.84],[48.8,38.09],[48.33,38.09],[47.25,38.67],[46.12,38.48],[45.85,38.29],[45.63,37.9],[45.22,37.77],[45.17,37.45],[45.29,37.19],[45.25,36.93],[45.15,35.71],[46.11,35.39],[47.95,35.32],[49.08,35.13],[49.5,35.32],[49.61,35.52],[50.48,35.64],[50.85,36.03],[52.01,36.42],[52.11,36.55]]]},"properties":{"NAME":"Atropatene","C":9,"name":"Atropatene","start_year":-223,"end_year":-219,"capital":"","type":"polity","region":"","event":"","source":"Cliopatria / Seshat Global History Databank (CC BY 4.0)","wikipedia":"Atropatene","wikidata":"Q260437","_a":25,"_c":[48.63,36.9],"_nz":"阿特罗帕特尼","_sz":""}},
{"type":"Feature","geometry":{"type":"Polygon","coordinates":[[[60.71,39.51],[60.68,39.71],[60.05,39.71],[60.08,39.84],[59.77,39.84],[59.77,40.16],[58.98,40.16],[58.85,40.29],[58.54,40.29],[58.33,40.42],[57.35,40.29],[56.81,40.36],[54.54,40.81],[53.4,40.68],[52.94,40.74],[52.79,40.42],[52.72,40.1],[53.5,40.03],[53.52,39.38],[53.99,39],[53.83,37.84],[53.91,37.45],[54.09,37.19],[54.03,36.87],[54.77,36.67],[55.78,36.67],[56.21,36.87],[56.83,36.87],[57.44,36.8],[57.7,36.55],[58.45,36.42],[59.07,36.42],[60.05,36.61],[61.21,36.61],[61.47,36.74],[61.03,37.19],[60.98,37.32],[60.66,37.64],[60.74,37.96],[60.53,38.09],[60.56,38.22],[60.37,38.42],[60.43,38.67],[60.32,38.87],[60.41,39.26],[60.71,39.51]]]},"properties":{"NAME":"Parthian Empire","C":7,"name":"Parthian Empire","start_year":-223,"end_year":-219,"capital":"","type":"polity","region":"","event":"","source":"Cliopatria / Seshat Global History Databank (CC BY 4.0)","wikipedia":"Parthian Empire","wikidata":"Q1986139","_a":39,"_c":[57.09,38.64],"_nz":"帕提亚帝国","_sz":""}},
{"type":"Feature","geometry":{"type":"Polygon","coordinates":[[[120.05,35.77],[120.32,36.03],[120.66,36.1],[120.73,36.42],[120.96,36.42],[120.98,36.61],[121.21,36.61],[121.91,36.93],[122.16,36.8],[122.5,36.87],[122.44,37.06],[122.71,37.45],[122.12,37.51],[121.5,37.51],[121.48,37.64],[121.17,37.64],[121.11,37.84],[120.75,37.9],[120.19,37.71],[120.2,37.58],[119.83,37.45],[119.7,37.19],[119.16,37.19],[118.98,37.32],[119.24,37.84],[119.46,37.96],[119.21,38.09],[118.77,38.16],[118.58,38.09],[118.07,38.16],[118.05,38.29],[117.6,38.48],[117.62,38.67],[117.2,38.61],[116.61,37.25],[115.61,36.42],[115.6,36.22],[116.75,36.03],[116.9,35.84],[117.69,35.71],[118.26,35.77],[120.05,35.77]]]},"properties":{"NAME":"Qi","C":0,"name":"Qi","start_year":-222,"end_year":-219,"capital":"","type":"polity","region":"","event":"","source":"Cliopatria / Seshat Global History Databank (CC BY 4.0)","wikipedia":"Qi (state)","wikidata":"Q1143524","_a":22,"_c":[119.16,37.16],"_nz":"齐","_sz":""}},
{"type":"Feature","geometry":{"type":"Polygon","coordinates":[[[117.62,38.67],[117.58,38.74],[117.89,39.19],[118.06,39.06],[118.45,39.06],[119.22,39.32],[119.38,39.77],[120.5,40.23],[120.65,40.48],[121,40.68],[121.11,40.87],[121.82,40.87],[121.83,40.74],[122.11,40.68],[122.23,40.48],[121.78,39.97],[121.5,39.9],[121.44,39.64],[121.21,39.51],[121.3,39.38],[121.69,39.38],[121.52,39.06],[121.2,39.06],[121.03,38.74],[121.42,38.74],[121.72,39],[121.95,39],[122.17,39.26],[122.94,39.64],[123.87,39.9],[124.41,40.29],[124.84,41.13],[124.76,41.13],[124,41.46],[123.6,41.72],[122.93,41.91],[119.17,40.68],[118.78,40.68],[118.7,40.55],[118.24,40.42],[117.29,40.29],[117.03,40.1],[116.1,39.84],[115.55,39.84],[115.28,40.23],[114.76,40.29],[114.6,40.42],[112.74,40.36],[112.3,39.97],[112.17,39.71],[113.12,39.71],[113.08,39.64],[113.81,39.51],[114.15,39.26],[111.89,37.32],[111.43,37],[110.7,36.74],[109.55,36.42],[109.37,36.35],[108.07,36.03],[107.06,35.64],[106.49,35.58],[106.18,35.39],[104.13,34.87],[103.5,34.61],[103.48,34.36],[103.38,34.29],[103.09,34.36],[102.41,34.16],[102.25,33.71],[102.31,33.46],[102.16,32.56],[101.84,32.04],[100.98,31.27],[100.6,30.5],[100.67,30.24],[100.86,30.12],[100.83,29.99],[101.02,29.86],[100.98,29.73],[101.16,29.54],[101.44,29.47],[101.48,29.34],[102.6,29.02],[102.93,28.83],[103.86,28.64],[104.07,28.57],[105.13,28.32],[106.07,28.44],[106.03,28.57],[107.46,28.83],[108.5,29.28],[109.41,29.54],[110.23,29.99],[110.66,29.92],[111.3,29.54],[111.81,29.47],[112,29.34],[112.9,29.34],[113.27,29.54],[113.58,30.05],[113.95,30.24],[114.11,30.5],[114.87,30.5],[115.21,30.37],[115.69,30.44],[116.12,30.37],[116.13,30.18],[116.27,29.92],[116.74,29.73],[118.36,29.6],[119.7,29.99],[120.52,30.37],[120.73,30.31],[120.8,30.31],[121.52,30.82],[121.9,30.82],[122,31.08],[121.74,31.4],[121.58,31.4],[121.3,31.85],[121.84,31.66],[121.99,31.85],[121.78,32.11],[121.5,32.17],[121.4,32.49],[120.92,32.62],[120.93,33.2],[120.55,33.59],[120.49,34.16],[120.34,34.36],[119.73,34.55],[119.71,34.68],[119.23,34.81],[119.62,35.52],[120.05,35.77],[118.26,35.77],[117.69,35.71],[116.9,35.84],[116.75,36.03],[115.6,36.22],[115.61,36.42],[116.61,37.25],[117.2,38.61],[117.62,38.67]]]},"properties":{"NAME":"Qin","C":2,"name":"Qin","start_year":-222,"end_year":-219,"capital":"","type":"polity","region":"","event":"","source":"Cliopatria / Seshat Global History Databank (CC BY 4.0)","wikipedia":"Qin (state)","wikidata":"Q1471995","_a":329,"_c":[112.72,35.11],"_nz":"秦","_sz":""}},
{"type":"Feature","geometry":{"type":"MultiPolygon","coordinates":[[[[9.82,40.74],[9.5,41.2],[9.02,41.26],[8.55,40.87],[8.15,40.94],[8.16,40.55],[8.32,40.48],[8.4,40.29],[8.32,39.97],[8.48,39.9],[8.33,39.51],[8.34,39],[8.73,38.87],[8.97,38.87],[9.12,39.19],[9.59,39.13],[9.67,39.64],[9.75,39.64],[9.67,40.29],[9.82,40.36],[9.82,40.74]]],[[[15.06,37.32],[15.07,37.64],[15.39,38.16],[15.62,38.16],[15.7,37.96],[15.93,37.96],[16.49,38.42],[16.5,38.8],[17.14,39.06],[17.07,39.38],[16.92,39.51],[16.45,39.64],[16.46,39.97],[16.7,40.1],[16.62,40.29],[16.86,40.29],[17.03,40.55],[17.35,40.55],[17.42,40.36],[17.81,40.36],[18.11,39.9],[18.35,39.9],[18.44,40.16],[17.98,40.61],[17.51,40.74],[17.2,41],[15.94,41.39],[15.87,41.72],[16.11,41.78],[16.12,41.91],[15.24,41.91],[15.17,42.04],[14.92,41.98],[14.37,42.24],[14.06,42.5],[13.9,42.76],[13.99,42.95],[13.75,43.08],[13.67,43.41],[13.36,43.67],[12.87,43.8],[12.31,44.19],[12.15,44.45],[12.16,44.84],[12.4,44.78],[12.4,45.04],[12.16,45.17],[12.16,45.5],[12.65,45.56],[12.82,45.69],[13.06,45.63],[13.14,45.82],[13.39,45.82],[13.15,46.22],[12.74,46.15],[12.08,45.63],[11.51,45.5],[10.86,45.5],[10.53,45.63],[8.9,45.63],[8.58,45.5],[8.58,45.37],[8.91,45.1],[10.21,44.97],[10.62,44.71],[10.7,44.45],[10.54,44.25],[10.21,44.06],[10.21,43.86],[10.37,43.67],[10.54,43.08],[11.02,42.82],[11.26,42.43],[11.65,42.37],[11.81,42.11],[12.13,42.04],[12.13,41.91],[13,41.33],[13.71,41.26],[13.95,41.13],[14.1,40.87],[14.42,40.87],[14.42,40.68],[14.89,40.68],[15.04,40.23],[15.2,40.23],[15.43,40.03],[15.9,39.77],[16.12,39.06],[16.27,38.93],[16.27,38.74],[15.95,38.67],[15.86,38.29],[14.06,37.96],[13.67,37.96],[13.35,38.16],[13.12,38.16],[13.04,38.03],[12.65,38.09],[12.49,37.9],[12.49,37.71],[13.19,37.58],[13.58,37.25],[14.12,37.19],[14.43,37],[15.06,37.32]]],[[[9.49,42.76],[9.49,43.02],[9.25,43.02],[9.17,42.76],[8.77,42.69],[8.53,42.5],[8.54,42.11],[8.78,41.72],[8.78,41.52],[9.1,41.33],[9.26,41.39],[9.58,41.98],[9.57,42.76],[9.49,42.76]]],[[[10.46,42.69],[10.46,42.89],[10.13,42.89],[10.21,42.69],[10.46,42.69]]]]},"properties":{"NAME":"Roman Republic","C":3,"name":"Roman Republic","start_year":-222,"end_year":-219,"capital":"","type":"polity","region":"","event":"","source":"Cliopatria / Seshat Global History Databank (CC BY 4.0)","wikipedia":"Roman Republic","wikidata":"Q175881","_a":109,"_c":[14.04,41.61],"_nz":"罗马共和国","_sz":""}}
]}