{"type":"FeatureCollection", "features": [
{"type":"Feature","geometry":{"type":"Polygon","coordinates":[[[30.54,23.36],[30.53,23.3],[30.74,22.85],[30.72,22.27],[30.64,21.95],[30.69,21.31],[30.76,21.31],[30.74,20.79],[30.82,20.79],[30.8,20.34],[30.88,20.34],[31.15,17.64],[31.22,17.64],[31.34,16.81],[31.48,16.61],[31.39,16.36],[31.54,16.23],[31.53,15.97],[31.73,15.59],[32.09,15.39],[32.53,15.33],[32.53,15.2],[33.86,15.46],[34.1,15.84],[34.68,15.78],[34.56,16.23],[34.71,16.49],[35.67,16.49],[36.05,16.81],[36,17.32],[35.5,17.64],[35.3,18.09],[34.94,18.29],[34.88,18.61],[34.6,18.93],[34.47,19.38],[34.26,19.64],[33.82,21.63],[33.88,23.17],[33.82,23.49],[33.68,23.69],[33.39,23.81],[32.04,23.69],[31.67,23.75],[30.54,23.36]]]},"properties":{"NAME":"Kingdom of Kush","C":3,"name":"Kingdom of Kush","start_year":-630,"end_year":337,"capital":"","type":"polity","region":"","event":"","source":"Cliopatria / Seshat Global History Databank (CC BY 4.0)","wikipedia":"Kingdom of Kush","wikidata":"Q241790","_a":48,"_c":[33.29,19.51],"_nz":"库施王国","_sz":""}},
{"type":"Feature","geometry":{"type":"Polygon","coordinates":[[[-97.18,17.13],[-96.9,16.74],[-96.54,16.81],[-96.56,16.94],[-96.26,16.94],[-96.31,17.19],[-96.86,17.45],[-96.96,17.58],[-97.41,17.64],[-97.23,17.45],[-97.35,17.26],[-97.18,17.13]]]},"properties":{"NAME":"Zapotec Civilization","C":5,"name":"Zapotec Civilization","start_year":-500,"end_year":-292,"capital":"","type":"polity","region":"","event":"","source":"Cliopatria / Seshat Global History Databank (CC BY 4.0)","wikipedia":"Zapotec civilization","wikidata":"Q844750","_a":1,"_c":[-96.83,17.23],"_nz":"萨波特克文明","_sz":""}},
{"type":"Feature","geometry":{"type":"Polygon","coordinates":[[[117.41,35.07],[117.07,35.52],[116.52,35.32],[116.59,35.13],[117.02,34.87],[117.41,35.07]]]},"properties":{"NAME":"Xu","C":1,"name":"Xu","start_year":-404,"end_year":-292,"capital":"","type":"polity","region":"","event":"","source":"Cliopatria / Seshat Global History Databank (CC BY 4.0)","wikipedia":"Xu (state)","wikidata":"Q2650109","_a":1,"_c":[116.97,35.2],"_nz":"徐","_sz":""}},
{"type":"Feature","geometry":{"type":"Polygon","coordinates":[[[117.62,38.67],[117.68,38.93],[117.89,39.19],[118.06,39.06],[118.45,39.06],[118.99,39.19],[119.28,39.45],[119.38,39.77],[120.5,40.23],[120.65,40.48],[121.23,40.94],[119.34,40.42],[117.57,40.36],[117.07,40.16],[117.03,40.1],[116.93,39.9],[117.01,39.77],[116.8,39.51],[116.93,39.32],[116.7,38.87],[117.11,38.74],[117.12,38.61],[117.2,38.61],[117.62,38.67]]]},"properties":{"NAME":"Yan","C":2,"name":"Yan","start_year":-404,"end_year":-292,"capital":"","type":"polity","region":"","event":"","source":"Cliopatria / Seshat Global History Databank (CC BY 4.0)","wikipedia":"Yan (state)","wikidata":"Q1472004","_a":11,"_c":[118.97,39.78],"_nz":"燕","_sz":""}},
{"type":"Feature","geometry":{"type":"Polygon","coordinates":[[[117.07,35.52],[117.02,35.77],[116.85,35.9],[116.91,36.03],[116.5,36.16],[116.48,36.29],[116.2,36.35],[115.68,36.22],[115.65,36.16],[115.8,36.16],[115.76,35.9],[116.05,35.84],[115.96,35.64],[116.21,35.52],[116.29,35.32],[116.52,35.32],[117.07,35.52]]]},"properties":{"NAME":"Lu","C":1,"name":"Lu","start_year":-404,"end_year":-285,"capital":"","type":"polity","region":"","event":"","source":"Cliopatria / Seshat Global History Databank (CC BY 4.0)","wikipedia":"Lu (state)","wikidata":"Q555994","_a":2,"_c":[116.36,35.87],"_nz":"鲁","_sz":""}},
{"type":"Feature","geometry":{"type":"Polygon","coordinates":[[[45.21,15.91],[45.23,16.1],[44.81,16.55],[44.81,16.61],[44.09,16.81],[43.82,17.26],[43.9,17.39],[43.48,17.77],[43.25,17.64],[43.03,17.71],[43.02,17.51],[42.63,17.19],[42.49,17.19],[42.48,17],[42.76,16.74],[42.81,16.42],[43.11,16.42],[43.39,16.23],[44.12,16.16],[44.33,15.91],[45.21,15.91]]]},"properties":{"NAME":"Minaeans","C":0,"name":"Minaeans","start_year":-383,"end_year":-189,"capital":"","type":"polity","region":"","event":"","source":"Cliopatria / Seshat Global History Databank (CC BY 4.0)","wikipedia":"Minaeans","wikidata":"Q1177379","_a":5,"_c":[43.86,16.84],"_nz":"米奈人","_sz":""}},
{"type":"Feature","geometry":{"type":"MultiPolygon","coordinates":[[[[37.33,44.97],[37.53,44.71],[37.93,44.71],[37.79,45.3],[36.97,45.3],[36.75,45.43],[36.78,45.1],[37.1,45.1],[37.33,44.97]]],[[[35.24,45.1],[35.41,45.17],[35.73,45.17],[35.88,45.04],[36.37,45.1],[36.42,45.43],[36.01,45.37],[35.18,45.3],[35.24,45.1]]]]},"properties":{"NAME":"Cimmerian Bosporus","C":0,"name":"Cimmerian Bosporus","start_year":-366,"end_year":-231,"capital":"","type":"polity","region":"","event":"","source":"Cliopatria / Seshat Global History Databank (CC BY 4.0)","wikipedia":"Bosporan Kingdom","wikidata":"Q321371","_a":2,"_c":[36.54,45.07],"_nz":"辛梅里安博斯普鲁斯王国","_sz":""}},
{"type":"Feature","geometry":{"type":"Polygon","coordinates":[[[116.1,39.84],[115.86,39.38],[116.1,39.38],[116.09,39.06],[116.26,38.93],[116.15,38.55],[117.01,38.55],[117.12,38.61],[117.11,38.74],[116.7,38.87],[116.93,39.32],[116.8,39.51],[117.01,39.77],[116.93,39.9],[117.03,40.1],[116.45,39.9],[116.1,39.84]]]},"properties":{"NAME":"Zhongshan","C":4,"name":"Zhongshan","start_year":-366,"end_year":-302,"capital":"","type":"polity","region":"","event":"","source":"Cliopatria / Seshat Global History Databank (CC BY 4.0)","wikipedia":"Zhongshan","wikidata":"Q59223","_a":2,"_c":[116.49,39.33],"_nz":"中山","_sz":""}},
{"type":"Feature","geometry":{"type":"Polygon","coordinates":[[[112.32,35.45],[112.19,35.13],[113.42,35.13],[113.48,35.26],[113.4,35.45],[113.09,35.45],[112.32,35.45]]]},"properties":{"NAME":"Later Zhou","C":0,"name":"Later Zhou","start_year":-350,"end_year":-257,"capital":"","type":"polity","region":"","event":"","source":"Cliopatria / Seshat Global History Databank (CC BY 4.0)","wikipedia":"Later Zhou","wikidata":"Q1154556","_a":0,"_c":[112.86,35.29],"_nz":"后周","_sz":""}},
{"type":"Feature","geometry":{"type":"Polygon","coordinates":[[[45.21,15.91],[44.33,15.91],[44.12,16.16],[43.39,16.23],[43.11,16.42],[42.81,16.42],[42.69,15.52],[42.77,15.52],[42.82,15.07],[44.29,15.14],[45.02,15.14],[45.18,15.26],[45.85,15.39],[45.86,15.52],[46.15,15.52],[46.38,15.71],[46.47,15.97],[46.18,15.97],[46.02,15.84],[45.58,15.84],[45.37,15.97],[45.21,15.91]]]},"properties":{"NAME":"Sabaeans","C":6,"name":"Sabaeans","start_year":-350,"end_year":-111,"capital":"","type":"polity","region":"","event":"","source":"Cliopatria / Seshat Global History Databank (CC BY 4.0)","wikipedia":"Sabaeans","wikidata":"Q940785","_a":5,"_c":[44.58,15.75],"_nz":"萨巴人","_sz":""}},
{"type":"Feature","geometry":{"type":"Polygon","coordinates":[[[115.61,36.42],[115.36,36.74],[114.61,36.1],[114.58,36.03],[114.83,35.71],[115.65,36.16],[115.68,36.22],[115.61,36.42]]]},"properties":{"NAME":"Wey","C":3,"name":"Wey","start_year":-350,"end_year":-285,"capital":"","type":"polity","region":"","event":"","source":"Cliopatria / Seshat Global History Databank (CC BY 4.0)","wikipedia":"Wey (state)","wikidata":"Q1147897","_a":1,"_c":[115.13,36.23],"_nz":"卫","_sz":""}},
{"type":"Feature","geometry":{"type":"Polygon","coordinates":[[[46.58,15.33],[47.53,15.2],[47.52,15.07],[48.32,14.94],[48.54,14.81],[49.63,14.69],[50.75,15.01],[50.85,15.33],[51.07,15.46],[51.24,15.78],[51.86,16.23],[51.95,16.49],[51.89,16.61],[51.08,16.68],[50.48,16.55],[50.12,16.61],[49.59,16.49],[48.12,16.42],[46.7,16.1],[46.55,16.16],[46.47,15.97],[46.38,15.71],[46.15,15.52],[46.58,15.33]]]},"properties":{"NAME":"Hadhramaut","C":11,"name":"Hadhramaut","start_year":-350,"end_year":183,"capital":"","type":"polity","region":"","event":"","source":"Cliopatria / Seshat Global History Databank (CC BY 4.0)","wikipedia":"Hadhramaut","wikidata":"Q1517159","_a":12,"_c":[49.05,15.68],"_nz":"哈德拉毛","_sz":""}},
{"type":"Feature","geometry":{"type":"Polygon","coordinates":[[[37.34,46.92],[37.54,47.07],[37.51,47.51],[38.39,47.7],[38.94,47.97],[35.76,49.9],[32.73,51.25],[31.99,51.36],[30.56,51.31],[28.65,51.05],[26.97,50.47],[26.34,49.47],[26.34,49.05],[26.76,48.16],[27.64,47.52],[29.2,46.87],[30,46.82],[30.9,47.18],[31.84,47.35],[32.65,47.11],[32.81,46.83],[32.26,46.58],[31.83,46.28],[32.48,46.08],[33.2,46.18],[33.66,45.95],[32.51,45.4],[33.26,45.17],[34.57,45.13],[35.05,45.33],[35.25,45.46],[34.91,45.88],[34.85,46.19],[35.23,46.44],[35.28,46.28],[35.83,46.62],[36.79,46.71],[37.34,46.92]]]},"properties":{"NAME":"Scythia","C":9,"name":"Scythia","start_year":-350,"end_year":-226,"capital":"","type":"polity","region":"","event":"","source":"Cliopatria / Seshat Global History Databank (CC BY 4.0)","wikipedia":"Scythians","wikidata":"Q131802","_a":78,"_c":[32.64,48.25],"_nz":"斯基泰","_sz":""}},
{"type":"Feature","geometry":{"type":"Polygon","coordinates":[[[117.41,35.07],[117.02,34.87],[116.59,35.13],[116.52,35.32],[116.29,35.32],[116.21,35.52],[115.96,35.64],[116.05,35.84],[115.76,35.9],[115.8,36.16],[115.65,36.16],[114.83,35.71],[115.08,35.39],[114.99,35.19],[114.5,34.94],[114.47,34.87],[114.34,34.74],[114.65,34.55],[115.49,34.55],[115.59,34.42],[116.11,34.36],[116.62,34.1],[117.23,34.1],[117.72,34.36],[117.97,34.74],[117.53,34.81],[117.54,35],[117.41,35.07]]]},"properties":{"NAME":"Song","C":5,"name":"Song","start_year":-350,"end_year":-292,"capital":"","type":"polity","region":"","event":"","source":"Cliopatria / Seshat Global History Databank (CC BY 4.0)","wikipedia":"Song (state)","wikidata":"Q7462","_a":7,"_c":[116.16,35.13],"_nz":"宋","_sz":""}},
{"type":"Feature","geometry":{"type":"Polygon","coordinates":[[[120.05,35.77],[120.32,36.03],[120.66,36.1],[120.73,36.42],[120.96,36.42],[120.98,36.61],[121.21,36.61],[121.91,36.93],[122.15,36.93],[122.16,36.8],[122.5,36.87],[122.44,37.06],[122.71,37.45],[122.12,37.51],[121.5,37.51],[121.48,37.64],[121.17,37.64],[121.11,37.84],[120.75,37.9],[120.19,37.71],[120.2,37.58],[119.83,37.45],[119.7,37.19],[119.16,37.19],[118.98,37.32],[119.24,37.84],[119.46,37.96],[119.13,38.09],[118.77,38.16],[118.58,38.09],[118.07,38.16],[118.05,38.29],[117.6,38.48],[117.62,38.67],[117.2,38.61],[116.61,37.25],[116.12,36.87],[115.61,36.42],[115.68,36.22],[116.2,36.35],[116.48,36.29],[116.5,36.16],[116.91,36.03],[116.85,35.9],[117.02,35.77],[117.07,35.52],[117.41,35.07],[117.54,35],[117.53,34.81],[117.97,34.74],[119.01,35.71],[119.53,35.84],[120.05,35.77]]]},"properties":{"NAME":"Qi","C":0,"name":"Qi","start_year":-350,"end_year":-292,"capital":"","type":"polity","region":"","event":"","source":"Cliopatria / Seshat Global History Databank (CC BY 4.0)","wikipedia":"Qi (state)","wikidata":"Q1143524","_a":28,"_c":[119.15,36.71],"_nz":"齐","_sz":""}},
{"type":"Feature","geometry":{"type":"Polygon","coordinates":[[[44.29,15.14],[44.21,14.94],[44.78,14.62],[45.15,14.81],[45.3,14.75],[45.75,14.94],[46.34,15.01],[46.58,15.26],[46.58,15.33],[46.15,15.52],[45.86,15.52],[45.85,15.39],[45.18,15.26],[45.02,15.14],[44.29,15.14]]]},"properties":{"NAME":"Qataban","C":10,"name":"Qataban","start_year":-350,"end_year":-111,"capital":"","type":"polity","region":"","event":"","source":"Cliopatria / Seshat Global History Databank (CC BY 4.0)","wikipedia":"Qataban","wikidata":"Q748595","_a":2,"_c":[45.4,15.07],"_nz":"盖特班","_sz":""}},
{"type":"Feature","geometry":{"type":"Polygon","coordinates":[[[112.94,35.45],[112.92,35.58],[111.88,35.52],[111.59,34.61],[113.44,34.61],[113.67,34.81],[114.47,34.87],[114.5,34.94],[114.48,35.07],[114.27,35.13],[113.48,35.26],[113.42,35.13],[112.19,35.13],[112.32,35.45],[112.94,35.45]]]},"properties":{"NAME":"Han","C":9,"name":"Han","start_year":-337,"end_year":-257,"capital":"","type":"polity","region":"","event":"","source":"Cliopatria / Seshat Global History Databank (CC BY 4.0)","wikipedia":"Han (state)","wikidata":"Q1968654","_a":3,"_c":[113.05,35.1],"_nz":"汉","_sz":""}},
{"type":"Feature","geometry":{"type":"Polygon","coordinates":[[[114.83,35.71],[114.58,36.03],[114.61,36.1],[115.36,36.74],[115.61,36.42],[116.12,36.87],[114.91,36.93],[114.95,37.19],[114.61,37.13],[113.94,37.19],[113.72,37.06],[112.28,36.8],[111.97,36.1],[112.05,36.1],[111.88,35.52],[112.92,35.58],[112.94,35.45],[113.09,35.45],[113.4,35.45],[113.48,35.26],[114.27,35.13],[114.48,35.07],[114.5,34.94],[114.99,35.19],[115.08,35.39],[114.83,35.71]]]},"properties":{"NAME":"Zhao","C":0,"name":"Zhao","start_year":-337,"end_year":-257,"capital":"","type":"polity","region":"","event":"","source":"Cliopatria / Seshat Global History Databank (CC BY 4.0)","wikipedia":"Zhao (state)","wikidata":"Q1574107","_a":11,"_c":[114,36.2],"_nz":"赵","_sz":""}},
{"type":"Feature","geometry":{"type":"MultiPolygon","coordinates":[[[[116.13,30.18],[115.8,30.12],[115.64,29.86],[115.26,28.89],[115.33,28.89],[114.95,26.77],[114.96,26.52],[115.23,26.39],[114.86,25.49],[114.72,25.23],[114.47,24.46],[114.55,24.46],[114.45,23.62],[114.9,22.91],[114.74,22.85],[114.75,22.53],[114.9,22.53],[115.17,22.79],[115.37,22.66],[115.67,22.66],[115.7,22.79],[116.54,22.91],[116.59,23.17],[116.81,23.17],[116.78,23.36],[116.89,23.56],[117.18,23.49],[117.47,23.81],[117.69,23.81],[117.72,23.94],[118.08,24.2],[118.15,24.52],[118.76,24.59],[118.82,24.84],[119.07,24.97],[119.03,25.1],[119.34,25.16],[119.47,25.36],[119.87,25.49],[119.9,25.62],[119.53,25.62],[119.78,26],[119.59,26.13],[119.85,26.26],[119.84,26.52],[120.16,26.58],[120.17,26.9],[120.3,27.09],[120.55,27.16],[120.73,27.54],[120.71,27.74],[120.87,27.99],[121.15,28.19],[121.65,28.32],[121.65,28.57],[121.74,29.09],[121.94,29.22],[122.03,29.92],[121.62,30.05],[121.48,30.31],[121.1,30.31],[120.81,30.12],[120.73,30.31],[120.52,30.37],[119.7,29.99],[118.36,29.6],[116.74,29.73],[116.27,29.92],[116.13,30.18]]],[[[122.05,30.18],[121.98,29.99],[122.28,29.99],[122.27,30.18],[122.05,30.18]]]]},"properties":{"NAME":"Minyue","C":7,"name":"Minyue","start_year":-333,"end_year":-219,"capital":"","type":"polity","region":"","event":"","source":"Cliopatria / Seshat Global History Databank (CC BY 4.0)","wikipedia":"Minyue","wikidata":"Q1936158","_a":61,"_c":[118.37,26.45],"_nz":"闽越","_sz":""}},
{"type":"Feature","geometry":{"type":"Polygon","coordinates":[[[120.73,30.31],[120.8,30.31],[121.52,30.82],[121.9,30.82],[122,31.08],[121.74,31.4],[121.58,31.4],[121.3,31.85],[121.84,31.66],[121.94,31.72],[121.96,31.98],[121.5,32.17],[121.4,32.49],[120.92,32.62],[120.93,33.2],[120.55,33.59],[120.49,34.16],[120.34,34.36],[119.98,34.42],[119.46,34.81],[119.23,34.81],[119.62,35.52],[120.05,35.77],[119.53,35.84],[119.01,35.71],[117.97,34.74],[117.72,34.36],[117.23,34.1],[116.62,34.1],[116.11,34.36],[115.59,34.42],[115.49,34.55],[114.65,34.55],[114.34,34.74],[114.47,34.87],[113.67,34.81],[113.44,34.61],[111.59,34.61],[110.28,34.81],[109.59,34.61],[109.66,34.42],[110.02,34.36],[110.23,34.1],[110.51,34.04],[110.49,33.78],[110.21,33.65],[110.21,33.46],[109.78,33.33],[109.71,33.14],[109.82,33.01],[109.55,32.49],[109.63,32.49],[109.31,31.59],[109.48,31.4],[109.48,30.95],[109.92,30.44],[110.41,30.31],[110.23,29.99],[110.66,29.92],[111.3,29.54],[111.81,29.47],[112,29.34],[112.9,29.34],[113.27,29.54],[113.58,30.05],[113.95,30.24],[114.11,30.5],[114.87,30.5],[115.21,30.37],[115.69,30.44],[116.12,30.37],[116.13,30.18],[116.27,29.92],[116.74,29.73],[118.36,29.6],[119.7,29.99],[120.52,30.37],[120.73,30.31]]]},"properties":{"NAME":"Chu","C":0,"name":"Chu","start_year":-333,"end_year":-316,"capital":"","type":"polity","region":"","event":"","source":"Cliopatria / Seshat Global History Databank (CC BY 4.0)","wikipedia":"Chu (state)","wikidata":"Q504759","_a":82,"_c":[115.66,32.59],"_nz":"楚","_sz":""}},
{"type":"Feature","geometry":{"type":"Polygon","coordinates":[[[78.57,45.17],[78.35,45.43],[78,45.56],[78.02,45.82],[77.83,45.96],[77.75,46.35],[77.39,46.48],[75.45,46.55],[75.32,46.41],[74.88,46.35],[74.75,46.02],[74.32,45.96],[74.12,45.43],[74.25,45.37],[74.13,45.04],[73.97,44.84],[74.44,44.58],[74.56,44.25],[75,44.12],[74.79,43.8],[75.2,43.6],[75.14,43.21],[75.39,43.02],[75.77,42.95],[75.88,42.82],[75.7,42.56],[75.81,42.43],[76.16,42.5],[76.14,42.24],[76.28,42.17],[76.21,41.98],[76,41.85],[73.34,41.07],[73,40.74],[72.48,40.61],[72.34,40.42],[72.1,40.42],[71.98,40.29],[72.26,40.16],[72.2,39.97],[72.43,39.97],[72.67,39.71],[73.42,39.58],[73.38,39.45],[74.75,39.32],[77.03,38.8],[77.26,38.55],[77.41,38.55],[77.51,38.35],[77.67,38.35],[77.84,38.16],[77.8,38.03],[78.09,37.71],[78.39,37.64],[78.42,37.51],[79.15,37.32],[79.4,37.13],[80.37,37],[81.03,36.61],[81.26,36.61],[81.71,36.8],[82.1,36.8],[85.11,37.45],[85.36,37.71],[85.81,37.9],[86.08,38.22],[86.44,38.35],[87.66,38.48],[88.75,38.87],[90.47,39.06],[92.14,39.51],[93.17,39.9],[93.17,40.1],[93.47,40.61],[93.23,40.61],[92.61,41],[92.35,41.13],[91.27,41.39],[90.78,41.72],[90.54,41.72],[90.22,41.91],[89.61,41.98],[89.64,42.04],[88.82,42.17],[88.85,42.24],[88.08,42.3],[88.11,42.37],[85.76,42.69],[85.79,42.76],[84.11,42.76],[82.56,42.3],[81.12,42.3],[81.04,42.5],[81.09,42.82],[80.79,43.08],[80.87,43.28],[80.74,43.34],[80.76,43.6],[80.38,44.06],[80.41,44.52],[80.49,44.71],[80.38,44.84],[80.06,44.84],[79.95,44.97],[79.54,44.97],[78.57,45.17]]]},"properties":{"NAME":"Yuezhi","C":2,"name":"Yuezhi","start_year":-331,"end_year":-204,"capital":"","type":"polity","region":"","event":"","source":"Cliopatria / Seshat Global History Databank (CC BY 4.0)","wikipedia":"Yuezhi","wikidata":"Q467985","_a":214,"_c":[82.73,41.58],"_nz":"月氏","_sz":""}},
{"type":"Feature","geometry":{"type":"MultiPolygon","coordinates":[[[[11.08,35.58],[10.46,35.9],[10.54,36.35],[10.46,36.42],[11.01,36.8],[11.01,37],[10.46,36.74],[10.23,36.8],[10.31,37.06],[10.23,37.25],[9.99,37.19],[9.76,37.32],[9.37,37.25],[9.06,37.06],[8.9,37.13],[8.52,36.87],[7.74,36.87],[7.5,37.06],[7.35,37.06],[7.19,36.87],[6.8,36.87],[6.33,37.06],[6.1,36.93],[6.11,36.8],[5.64,36.8],[5.56,36.67],[5.1,36.67],[4.86,36.87],[4.24,36.93],[3.85,36.8],[3.46,36.87],[3.23,36.74],[2.84,36.74],[2.69,36.61],[2.38,36.67],[1.53,36.48],[1.22,36.55],[0.91,36.35],[0.38,36.22],[0.08,35.84],[-0.46,35.84],[-0.53,35.71],[-0.92,35.71],[-1.36,35.26],[-1.59,35.26],[-1.89,35.07],[-2.66,35.07],[-2.98,35.26],[-3.13,35.19],[-4.75,35.19],[-5.24,35.52],[-5.34,35.84],[-5.57,35.84],[-5.95,35.71],[-6.13,35],[-6.26,34.68],[-6.48,34.49],[-6.47,34.36],[-6.7,34.29],[-6.61,34.16],[-6.9,33.91],[-7.13,33.84],[-7.88,33.52],[-7.47,33.26],[-7.18,33.52],[-6.73,33.59],[-6.81,33.71],[-6.59,33.84],[-6.6,33.97],[-6.31,34.23],[-5.63,35.52],[-5.39,35.45],[-5.21,35.13],[-4.74,35],[-4.73,34.87],[-2.81,34.94],[-1.88,34.81],[-1.81,34.94],[-1.35,35],[-1.2,35.13],[-1.04,35.07],[-0.29,35.58],[0.48,35.64],[0.77,36.03],[1.01,36.03],[1.15,36.16],[2.01,36.16],[2,36.29],[2.32,36.22],[2.77,36.42],[5.65,36.35],[5.88,36.48],[6.35,36.42],[6.42,36.55],[6.89,36.48],[6.96,36.61],[7.59,36.61],[7.9,36.22],[7.91,35.97],[8.07,34.94],[8.23,34.81],[8.46,34.87],[8.85,34.74],[8.93,34.36],[8.93,34.04],[9.08,34.04],[9.32,33.59],[9.55,33.52],[9.62,33.33],[9.85,33.39],[10.47,33.26],[11.08,32.88],[11.62,32.94],[12.08,32.75],[12,32.62],[13.76,32.62],[14.44,32.36],[14.52,32.17],[14.9,32.24],[15.05,32.11],[15.19,31.46],[15.57,31.14],[17.16,30.89],[18.22,30.5],[18.59,30.12],[18.81,30.12],[18.9,30.37],[18.59,30.37],[18.22,30.76],[17.85,30.95],[16.86,31.21],[16.18,31.21],[15.65,31.4],[15.58,31.59],[15.42,31.66],[15.28,32.3],[15.06,32.43],[14.75,32.43],[14.67,32.56],[14.44,32.49],[14.07,32.75],[13.76,32.75],[13.76,32.88],[13.45,32.81],[13.3,32.94],[12.84,32.88],[12.84,32.75],[12.53,32.75],[12.23,32.81],[11.46,33.2],[11.16,33.2],[11.08,33.59],[10.7,33.52],[10.54,33.71],[10.24,33.71],[10.01,33.91],[10.08,34.23],[10,34.29],[10.54,34.55],[10.85,34.81],[10.85,34.94],[11.08,35],[11.01,35.39],[11.08,35.58]]],[[[14.57,35.77],[14.57,35.97],[14.34,36.03],[14.34,35.84],[14.57,35.77]]],[[[-3.85,36.8],[-4.56,36.87],[-5.31,36.55],[-5.45,36.35],[-5.92,36.35],[-5.58,36.03],[-5.52,36.16],[-5.29,36.22],[-5.23,36.48],[-4.69,36.55],[-4.47,36.74],[-3.85,36.8]]],[[[12.72,37.64],[12.81,38.09],[12.57,38.03],[12.49,37.71],[12.72,37.64]]],[[[13.04,37.96],[13.67,37.96],[13.51,38.09],[13.12,38.16],[13.04,37.96]]],[[[1.66,39],[1.65,39.13],[1.26,39.13],[1.18,39.06],[1.27,38.8],[1.43,38.8],[1.66,39]]],[[[9.82,40.74],[9.5,41.2],[9.02,41.26],[8.55,40.87],[8.15,40.94],[8.16,40.55],[8.32,40.48],[8.4,40.29],[8.32,39.97],[8.48,39.9],[8.41,39.51],[8.33,39.51],[8.34,39],[8.73,38.87],[8.97,38.87],[9.12,39.19],[9.59,39.13],[9.67,39.64],[9.75,39.64],[9.67,40.29],[9.82,40.36],[9.82,40.74]]]]},"properties":{"NAME":"Carthage","C":7,"name":"Carthage","start_year":-331,"end_year":-308,"capital":"","type":"polity","region":"","event":"","source":"Cliopatria / Seshat Global History Databank (CC BY 4.0)","wikipedia":"Ancient Carthage","wikidata":"Q2429397","_a":298,"_c":[5.51,35.69],"_nz":"迦太基","_sz":""}},
{"type":"Feature","geometry":{"type":"Polygon","coordinates":[[[22.46,32.11],[23.07,32.11],[23.23,32.36],[23.08,32.43],[23.09,32.62],[22.11,32.94],[21.57,32.88],[21.41,32.75],[21.11,32.81],[20.87,32.62],[20.33,32.49],[20.25,32.24],[20.09,32.11],[20,31.59],[20.21,31.27],[20.12,30.76],[19.5,30.31],[18.89,30.31],[18.73,29.99],[19.57,30.12],[20.66,30.89],[20.44,31.34],[20.54,31.91],[21.16,32.04],[21.53,31.98],[21.69,32.11],[22.46,32.11]]]},"properties":{"NAME":"Cyrenaica","C":7,"name":"Cyrenaica","start_year":-331,"end_year":-292,"capital":"","type":"polity","region":"","event":"","source":"Cliopatria / Seshat Global History Databank (CC BY 4.0)","wikipedia":"Cyrenaica","wikidata":"Q165198","_a":13,"_c":[20.98,31.46],"_nz":"昔兰尼加","_sz":""}},
{"type":"Feature","geometry":{"type":"MultiPolygon","coordinates":[[[[9.33,43.02],[9.17,42.76],[8.77,42.69],[8.53,42.5],[8.54,42.11],[8.78,41.72],[8.78,41.52],[9.1,41.33],[9.26,41.39],[9.58,41.98],[9.57,42.76],[9.49,43.02],[9.33,43.02]]],[[[10.46,42.89],[10.13,42.89],[10.21,42.69],[10.46,42.69],[10.46,42.89]]],[[[12.38,42.76],[12.3,42.95],[12.31,43.54],[12.07,43.6],[11.91,43.8],[10.29,43.8],[10.54,43.08],[11.02,42.82],[11.26,42.43],[11.65,42.37],[11.81,42.17],[11.97,42.3],[11.9,42.43],[12.37,42.37],[12.38,42.5],[12.14,42.5],[12.14,42.76],[12.38,42.76]]]]},"properties":{"NAME":"Etruscans","C":4,"name":"Etruscans","start_year":-326,"end_year":-292,"capital":"","type":"polity","region":"","event":"","source":"Cliopatria / Seshat Global History Databank (CC BY 4.0)","wikipedia":"Etruscan civilization","wikidata":"Q17161","_a":10,"_c":[10.46,42.57],"_nz":"伊特鲁里亚人","_sz":""}},
{"type":"Feature","geometry":{"type":"Polygon","coordinates":[[[111.88,35.52],[112.05,36.1],[111.97,36.1],[112.28,36.8],[113.72,37.06],[113.94,37.19],[113.92,37.32],[113.63,37.38],[113.89,38.42],[114.36,38.74],[114.81,39.32],[114.34,39.32],[114.11,39.19],[114.08,39.13],[111.43,37],[109.65,36.48],[108.79,35.71],[108.22,35.64],[108.17,35.52],[108.45,35.26],[108.25,34.94],[109.23,34.87],[109.25,34.74],[109.59,34.61],[110.28,34.81],[111.59,34.61],[111.88,35.52]]]},"properties":{"NAME":"Qin","C":2,"name":"Qin","start_year":-326,"end_year":-316,"capital":"","type":"polity","region":"","event":"","source":"Cliopatria / Seshat Global History Databank (CC BY 4.0)","wikipedia":"Qin (state)","wikidata":"Q1471995","_a":31,"_c":[111.49,36.97],"_nz":"秦","_sz":""}},
{"type":"Feature","geometry":{"type":"Polygon","coordinates":[[[116.1,39.84],[115.55,39.84],[115.37,40.1],[115.16,40.29],[114.53,40.29],[114.6,40.42],[113.09,40.42],[112.74,40.36],[112.11,39.9],[112.17,39.71],[113.12,39.71],[113.08,39.64],[113.81,39.51],[114.05,39.38],[114.11,39.19],[114.34,39.32],[114.81,39.32],[114.36,38.74],[113.89,38.42],[113.63,37.38],[113.92,37.32],[113.94,37.19],[114.61,37.13],[114.95,37.19],[114.91,36.93],[116.12,36.87],[116.61,37.25],[117.2,38.61],[117.12,38.61],[117.01,38.55],[116.15,38.55],[116.26,38.93],[116.09,39.06],[116.1,39.38],[115.86,39.38],[116.1,39.84]]]},"properties":{"NAME":"Wei","C":11,"name":"Wei","start_year":-326,"end_year":-292,"capital":"","type":"polity","region":"","event":"","source":"Cliopatria / Seshat Global History Databank (CC BY 4.0)","wikipedia":"Wei (state)","wikidata":"Q320930","_a":18,"_c":[114.66,38.64],"_nz":"魏","_sz":""}},
{"type":"Feature","geometry":{"type":"Polygon","coordinates":[[[39.2,34.49],[39.17,34.87],[38.87,35],[38.82,35.19],[38.52,35.26],[38.46,35.45],[38.31,35.52],[37.9,36.61],[37.8,36.42],[37.48,36.35],[37.46,36.22],[35.92,36.29],[35.99,36.22],[35.84,35.58],[35.99,35.52],[35.93,34.87],[36.07,34.74],[36.05,34.55],[35.79,34.29],[35.64,34.36],[35.68,33.97],[35.45,33.91],[35.5,33.65],[35.35,33.65],[35.4,33.39],[35.22,33.07],[35.06,33.01],[35.02,32.62],[34.77,32.36],[34.81,31.98],[34.57,31.85],[34.63,31.66],[34.3,31.34],[34.3,31.27],[34.43,31.08],[34.54,30.5],[34.62,30.5],[35.35,31.14],[35.5,31.08],[35.66,31.21],[36.42,31.21],[36.39,31.66],[36.75,32.3],[36.72,32.75],[36.9,33.07],[37.05,33.07],[37.07,33.26],[37.99,33.97],[39.12,34.49],[39.2,34.49]]]},"properties":{"NAME":"Laomedon","C":5,"name":"Laomedon","start_year":-323,"end_year":-319,"capital":"","type":"polity","region":"","event":"","source":"Cliopatria / Seshat Global History Databank (CC BY 4.0)","wikipedia":"Laomedon of Mytilene","wikidata":"Q977461","_a":30,"_c":[36.79,33.56],"_nz":"拉俄墨冬","_sz":""}},
{"type":"Feature","geometry":{"type":"MultiPolygon","coordinates":[[[[24.16,35.52],[23.62,35.52],[23.68,35.26],[24.45,35.19],[24.76,35.19],[24.82,35],[26.14,35.07],[26.23,35.19],[25.68,35.13],[25.69,35.32],[24.3,35.32],[24.16,35.52]]],[[[22.89,36.42],[22.87,36.16],[23.11,36.16],[23.12,36.35],[22.89,36.42]]],[[[26.08,37.71],[25.99,37.51],[26.3,37.58],[26.08,37.71]]],[[[20.62,37.9],[20.61,37.71],[20.92,37.64],[20.93,37.9],[20.62,37.9]]],[[[22.6,38.42],[22.68,38.42],[22.99,38.29],[23.06,38.16],[22.97,37.96],[22.66,37.96],[22.59,38.16],[22.29,38.35],[22.13,38.42],[21.99,38.61],[22.01,39],[21.71,39.32],[21.63,39.32],[21.39,39.13],[21.15,39.13],[21.14,38.93],[20.83,39],[20.74,38.8],[20.97,38.74],[21.19,38.42],[21.74,38.35],[21.73,38.16],[21.42,38.16],[21.24,37.84],[21.7,37.51],[21.61,37.38],[21.67,37],[21.91,37.06],[22.22,37.06],[22.36,36.67],[22.51,36.67],[22.6,36.87],[22.83,36.87],[23,37],[22.7,37.38],[22.71,37.45],[22.55,37.45],[22.57,37.77],[22.8,37.77],[22.79,37.58],[23.1,37.51],[23.17,37.32],[23.4,37.32],[23.34,37.64],[23.11,37.64],[23.04,37.77],[23.29,38.03],[23.38,38.29],[23.7,38.35],[23.63,38.48],[23.31,38.48],[22.94,38.8],[22.94,38.87],[22.62,38.67],[22.6,38.42]]],[[[20.33,38.35],[20.32,38.16],[20.79,38.09],[20.8,38.29],[20.57,38.42],[20.33,38.35]]],[[[25.9,38.48],[25.88,38.16],[26.11,38.16],[26.22,38.55],[25.91,38.67],[25.9,38.48]]],[[[12.72,37.64],[13.19,37.58],[13.58,37.25],[14.28,37.13],[14.66,36.74],[15.05,36.74],[15.21,37.19],[15.06,37.25],[15.07,37.64],[15.39,38.16],[15.62,38.16],[15.7,37.96],[15.93,37.96],[16.49,38.42],[16.5,38.8],[17.14,39.06],[17.07,39.38],[16.92,39.51],[16.45,39.64],[16.46,39.97],[16.7,40.1],[16.62,40.29],[16.86,40.29],[17.03,40.55],[17.35,40.55],[17.42,40.36],[17.81,40.36],[18.11,39.9],[18.35,39.9],[18.36,40.29],[17.98,40.61],[17.5,40.55],[17.51,40.68],[16.88,40.74],[16.55,40.48],[16.31,40.23],[16.38,40.03],[16.14,39.97],[16.15,40.16],[15.52,40.23],[15.36,40.36],[15.13,40.81],[15.05,40.68],[14.89,40.68],[15.04,40.23],[15.2,40.23],[15.43,40.03],[15.9,39.77],[16.12,39.06],[16.27,38.93],[16.27,38.74],[15.95,38.67],[15.94,38.35],[15.15,38.16],[15.15,38.03],[14.83,37.77],[14.75,37.51],[14.98,37.06],[14.74,37.06],[12.96,37.84],[12.8,37.84],[12.72,37.64]]],[[[26.09,39],[26.25,38.93],[26.64,39],[26.51,39.32],[26.04,39.38],[25.79,39.19],[26.1,39.13],[26.09,39]]],[[[-0.31,39.13],[-0.35,39.71],[-0.2,39.97],[-0.51,39.9],[-0.57,39.51],[-0.54,38.93],[-0.13,38.55],[0.1,38.8],[-0.31,39.13]]],[[[25.07,40.03],[24.97,39.84],[25.45,39.84],[25.46,40.03],[25.07,40.03]]],[[[25.72,40.29],[25.7,40.1],[26.02,40.16],[26.04,40.29],[25.72,40.29]]],[[[24.49,40.81],[24.55,40.55],[24.79,40.61],[24.81,40.81],[24.49,40.81]]],[[[5.39,43.41],[5.8,43.15],[6.28,43.15],[6.6,43.28],[6.59,43.41],[5.87,43.41],[4.73,43.86],[3.45,43.67],[2.74,43.21],[2.67,43.02],[2.78,42.43],[2.7,42.37],[3.04,41.85],[3.18,42.37],[3.01,42.56],[2.98,43.15],[3.85,43.6],[4.17,43.6],[4.18,43.47],[5.06,43.47],[5.39,43.41]]],[[[34.09,35],[33.96,35.26],[34.53,35.58],[34.31,35.71],[33.74,35.39],[32.89,35.39],[32.88,35.26],[32.55,35.13],[32.25,35.13],[32.23,34.94],[32.37,34.74],[33.04,34.55],[33.13,34.68],[33.52,34.74],[33.7,34.94],[34.09,35]]],[[[27.69,36.29],[27.74,35.9],[28.14,36.03],[28.25,36.48],[28.02,36.48],[27.69,36.29]]],[[[27.66,36.87],[27.56,36.67],[27.96,36.74],[27.89,36.87],[27.66,36.87]]],[[[27.21,37.13],[27.19,36.93],[27.35,36.93],[27.44,37.13],[27.21,37.13]]],[[[26.26,40.1],[26.67,40.36],[26.6,40.48],[26.27,40.29],[26.26,40.1]]],[[[40.47,41.07],[40.37,40.94],[39.74,40.94],[39.21,41.13],[38.95,41],[38.3,40.87],[38.16,41],[37.83,40.94],[37.77,41.07],[37.21,41.07],[36.77,41.33],[36.44,41.2],[37.13,41],[37.87,40.68],[38.82,40.68],[39.16,40.81],[39.55,40.74],[39.69,40.61],[39.86,40.74],[40.57,40.68],[40.61,40.94],[40.47,41.07]]],[[[29.37,41.2],[29.04,41.13],[29.18,40.87],[29.37,41.2]]],[[[35.01,41.78],[35.12,42.04],[34.79,41.98],[35.01,41.78]]],[[[40.42,43.15],[40.82,43.15],[41.12,43.02],[41.17,42.89],[41.41,42.89],[41.44,43.02],[41.21,43.08],[41.15,43.21],[40.38,43.41],[40.41,43.6],[39.63,43.73],[39.98,43.41],[40.22,43.41],[40.42,43.15]]],[[[35.18,45.3],[34.99,45.3],[33.92,44.97],[33.78,45.16],[33.46,45.19],[33.61,45.1],[33.45,44.52],[33.93,44.45],[34.38,44.78],[35.13,44.91],[35.24,45.1],[35.18,45.3]]],[[[31.57,46.94],[31.08,47.01],[31.07,46.87],[30.46,46.61],[29.64,45.96],[29.61,45.69],[29.86,45.69],[30.04,45.89],[30.3,45.96],[30.88,46.68],[31.53,46.68],[31.57,46.94]]],[[[38.67,47.6],[38.38,47.4],[38.35,47.2],[39.2,47.33],[39.08,47.6],[38.67,47.6]]]]},"properties":{"NAME":"Greek City-States","C":4,"name":"Greek City-States","start_year":-323,"end_year":-319,"capital":"","type":"polity","region":"","event":"","source":"Cliopatria / Seshat Global History Databank (CC BY 4.0)","wikipedia":"Polis","wikidata":"Q148837","_a":548,"_c":[20.43,41.08],"_nz":"希腊城邦","_sz":""}},
{"type":"Feature","geometry":{"type":"MultiPolygon","coordinates":[[[[25.29,37.51],[25.22,37.71],[24.99,37.71],[25.05,37.51],[25.29,37.51]]],[[[22.79,37.58],[22.8,37.77],[22.57,37.77],[22.55,37.45],[22.71,37.45],[22.79,37.58]]],[[[26.62,37.64],[27.01,37.64],[27.03,37.84],[26.56,37.84],[26.62,37.64]]],[[[24.68,37.84],[24.83,37.71],[25.07,37.77],[24.77,38.03],[24.68,37.84]]],[[[23.63,38.48],[23.7,38.35],[23.38,38.29],[23.29,38.03],[23.44,38.03],[23.98,37.84],[24,38.22],[24.16,38.22],[24.18,38.55],[24.03,38.67],[23.56,38.74],[23.63,38.48]]],[[[24.36,38.87],[24.66,38.74],[24.67,38.93],[24.36,39],[24.36,38.87]]],[[[22.94,38.87],[23.03,38.93],[23.49,38.8],[23.34,39],[23.11,39],[22.96,39.13],[22.8,39.06],[22.82,39.38],[23.14,39.45],[22.76,39.71],[22.7,40.03],[22.21,39.84],[21.92,40.16],[21.83,39.97],[21.51,39.97],[21.71,39.32],[22.01,39],[21.99,38.61],[22.13,38.42],[22.29,38.35],[22.6,38.42],[22.62,38.67],[22.94,38.87]]]]},"properties":{"NAME":"Athenian Coalition","C":2,"name":"Athenian Coalition","start_year":-323,"end_year":-319,"capital":"","type":"polity","region":"","event":"","source":"Cliopatria / Seshat Global History Databank (CC BY 4.0)","wikipedia":"Peloponnesian War","wikidata":"Q33745","_a":15,"_c":[24.27,38.81],"_nz":"雅典联盟","_sz":""}},
{"type":"Feature","geometry":{"type":"Polygon","coordinates":[[[29.48,40.74],[31.2,40.48],[31.71,40.87],[32.12,40.94],[32.14,41.13],[32.3,41.13],[32.33,41.39],[32.03,41.52],[31.7,41.46],[31.59,41.2],[31.35,41.2],[31.18,41.07],[30.62,41.07],[30.48,41.2],[29.37,41.2],[29.25,40.81],[29.48,40.74]]]},"properties":{"NAME":"Kingdom of Bithynia","C":4,"name":"Kingdom of Bithynia","start_year":-323,"end_year":-302,"capital":"","type":"polity","region":"","event":"","source":"Cliopatria / Seshat Global History Databank (CC BY 4.0)","wikipedia":"Kingdom of Bithynia","wikidata":"Q3762571","_a":4,"_c":[30.79,41.07],"_nz":"比提尼亚王国","_sz":""}},
{"type":"Feature","geometry":{"type":"Polygon","coordinates":[[[24.26,40.94],[25.85,40.94],[26.08,40.87],[26.14,40.61],[26.63,40.74],[26.92,40.48],[27.02,40.68],[27.53,41.07],[29.04,41.07],[28.98,41.26],[28.51,41.33],[28.28,41.46],[28.22,41.65],[27.98,41.65],[27.94,42.04],[27.49,42.43],[27.51,42.63],[27.85,42.76],[27.8,43.15],[27.9,43.28],[28.23,43.34],[28.48,43.47],[28.62,43.99],[28.58,44.39],[28.84,44.58],[28.8,44.97],[29.05,44.97],[29.27,44.84],[29.62,45.04],[29.67,45.43],[29.18,45.5],[28.76,45.3],[28.43,45.3],[28.29,45.5],[27.79,45.37],[27.77,45.17],[27.92,45.1],[27.87,44.58],[27.75,44.19],[26.37,44.12],[25.52,43.67],[24.81,43.8],[24.08,43.73],[23.92,43.86],[23.52,43.86],[23.58,43.6],[23.33,43.47],[23.4,43.28],[23.07,43.21],[22.98,43.08],[22.55,42.69],[22.47,42.69],[22.54,42.5],[22.37,42.37],[22.44,42.17],[22.67,42.11],[22.82,41.91],[23.53,41.78],[23.59,41.59],[23.75,41.52],[23.8,41.2],[23.96,41.2],[24.26,40.94]]]},"properties":{"NAME":"Kingdom of Lysimachus","C":6,"name":"Kingdom of Lysimachus","start_year":-323,"end_year":-319,"capital":"","type":"polity","region":"","event":"","source":"Cliopatria / Seshat Global History Databank (CC BY 4.0)","wikipedia":"Lysimachian Empire","wikidata":"Q32133","_a":37,"_c":[26.02,43.02],"_nz":"利西马科斯王国","_sz":""}},
{"type":"Feature","geometry":{"type":"MultiPolygon","coordinates":[[[[15.05,40.68],[15.05,40.81],[14.74,40.81],[14.74,41],[14.19,41.07],[14.03,41.33],[13.72,41.46],[13,41.52],[12.93,41.85],[13.09,41.98],[12.69,42.04],[12.61,42.24],[12.37,42.37],[11.9,42.43],[11.97,42.3],[11.81,42.17],[12.13,42.04],[12.13,41.91],[13,41.33],[13.71,41.26],[13.95,41.13],[14.1,40.87],[14.42,40.87],[14.42,40.68],[15.05,40.68]]],[[[12.38,42.5],[12.38,42.76],[12.14,42.76],[12.14,42.5],[12.38,42.5]]]]},"properties":{"NAME":"Roman Republic","C":3,"name":"Roman Republic","start_year":-323,"end_year":-319,"capital":"","type":"polity","region":"","event":"","source":"Cliopatria / Seshat Global History Databank (CC BY 4.0)","wikipedia":"Roman Republic","wikidata":"Q175881","_a":7,"_c":[13.43,41.72],"_nz":"罗马共和国","_sz":""}},
{"type":"Feature","geometry":{"type":"Polygon","coordinates":[[[68.8,24.26],[71.02,24.07],[73.79,23.56],[74,23.43],[74.05,23.24],[74.35,23.24],[74.77,22.98],[74.99,22.98],[74.98,22.85],[75.34,22.79],[81.01,22.27],[81.65,22.08],[84.86,21.63],[85.51,21.44],[85.9,21.05],[86.03,20.86],[86.2,20.47],[86.16,20.15],[86.36,20.02],[86.51,20.02],[86.84,20.28],[86.79,20.47],[87.03,20.6],[86.96,21.18],[87.07,21.44],[87.76,21.63],[88.1,21.95],[88.13,21.63],[88.35,21.56],[88.51,21.69],[88.64,22.08],[88.72,22.08],[88.73,21.63],[89.1,21.63],[89.12,21.76],[89.71,21.76],[89.87,21.82],[89.9,22.01],[90.23,21.76],[90.43,22.08],[90.86,22.01],[90.94,22.53],[91.24,22.59],[91.5,22.79],[91.49,23.24],[91.28,23.3],[91.23,23.49],[91.43,24.26],[91.28,24.26],[91.34,24.59],[91.26,25.04],[91.13,25.1],[90.81,25.42],[90.23,25.55],[90.11,25.68],[89.95,25.62],[88.39,26.13],[87.3,26.32],[87.11,26.52],[86.8,26.45],[86.42,26.84],[86.2,26.84],[86.1,27.09],[84.72,27.35],[84.61,27.54],[83.86,27.54],[83.06,27.74],[82.53,27.67],[82.19,27.87],[81.88,27.87],[81.19,28.19],[80.96,28.51],[80.68,28.64],[80.3,28.64],[79.99,28.96],[78.95,29.41],[78.33,30.05],[78.34,30.12],[77.81,30.44],[77.58,30.44],[77.21,30.82],[76.9,30.82],[76.79,31.01],[75.78,30.89],[74.78,30.5],[74.71,30.5],[74.13,30.31],[73.94,30.12],[73.36,29.86],[73.41,29.73],[72.99,29.09],[72.39,28.7],[71.89,27.99],[71.64,27.87],[70.72,27.74],[70.74,27.87],[70.54,28.06],[70.39,28.06],[70.01,27.54],[69.85,27.48],[69.53,26.9],[69.2,26.71],[69,26.32],[68.8,24.26]]]},"properties":{"NAME":"Nanda Empire","C":8,"name":"Nanda Empire","start_year":-323,"end_year":-319,"capital":"","type":"polity","region":"","event":"","source":"Cliopatria / Seshat Global History Databank (CC BY 4.0)","wikipedia":"Nanda Empire","wikidata":"Q949268","_a":251,"_c":[80.24,25.52],"_nz":"难陀帝国","_sz":""}},
{"type":"Feature","geometry":{"type":"Polygon","coordinates":[[[48.6,29.99],[48.39,30.12],[48.41,30.31],[48.28,30.44],[48.05,30.44],[48.1,30.89],[47.74,31.01],[47.8,31.46],[47.98,31.72],[47.71,31.98],[47.97,32.81],[47.82,32.81],[47.7,33.01],[47.42,33.2],[46.67,33.39],[46.71,33.65],[46.15,34.04],[45.92,34.04],[45.86,33.59],[46.07,33.46],[45.47,32.94],[45.1,33.07],[44.63,33.01],[44.42,33.14],[44.25,33.01],[44.21,32.69],[43.91,32.75],[43.43,32.56],[43.42,32.49],[44.46,31.59],[44.58,31.34],[44.95,31.27],[45.77,30.44],[46.59,30.31],[46.62,29.86],[46.85,29.92],[46.98,29.73],[47.29,29.79],[47.65,29.6],[48.09,29.54],[48.4,29.6],[48.37,29.92],[48.6,29.99]]]},"properties":{"NAME":"Perdiccas","C":4,"name":"Perdiccas","start_year":-323,"end_year":-319,"capital":"","type":"polity","region":"","event":"","source":"Cliopatria / Seshat Global History Databank (CC BY 4.0)","wikipedia":"Perdiccas","wikidata":"Q202113","_a":23,"_c":[46.01,31.79],"_nz":"佩尔狄卡斯","_sz":""}},
{"type":"Feature","geometry":{"type":"MultiPolygon","coordinates":[[[[34.3,31.27],[33.75,31.08],[32.91,31.01],[32.77,31.14],[32.53,31.08],[32,31.08],[31.88,31.46],[31.27,31.46],[30.97,31.53],[30.81,31.46],[30.35,31.46],[30.34,31.27],[29.88,31.27],[29.87,31.08],[29.63,30.95],[29.49,31.01],[29.4,30.82],[28.87,30.82],[28.5,31.01],[27.51,31.14],[27.15,31.4],[26.32,31.53],[25.39,29.67],[25.38,29.34],[25.66,28.96],[27.07,28.32],[28.15,27.35],[28.27,26.58],[28.35,26.58],[28.24,25.94],[28.29,25.16],[28.57,24.65],[29.67,24.2],[30.1,23.75],[30.4,23.56],[30.54,23.36],[31.67,23.75],[32.04,23.69],[33.39,23.81],[33.68,23.69],[33.76,23.69],[35.11,23.88],[35.55,23.81],[35.56,23.94],[35.85,23.88],[35.86,24.01],[35.15,24.65],[34.61,25.81],[34.46,25.87],[34.2,26.52],[34.05,26.58],[34.07,26.97],[33.93,27.03],[33.8,27.42],[33.59,27.61],[33.61,27.99],[33.11,28.38],[32.84,28.89],[32.69,28.96],[32.64,29.34],[32.43,29.6],[32.53,29.92],[32.67,29.86],[32.92,30.12],[33.84,30.24],[34.46,30.5],[34.54,30.5],[34.43,31.08],[34.3,31.27]]],[[[48.6,29.99],[48.99,30.05],[48.94,30.31],[49.59,29.99],[49.99,30.18],[50.24,29.73],[50.65,29.41],[50.62,29.15],[50.92,29.09],[50.81,28.83],[51.03,28.77],[51.07,28.44],[51.45,27.87],[52.05,27.8],[52.48,27.61],[52.74,27.22],[53.46,26.97],[53.66,26.71],[54.26,26.71],[54.25,26.64],[54.83,26.45],[55.24,26.77],[55.29,26.52],[55.44,26.52],[55.6,26.64],[56.06,26.71],[56.31,26.9],[56.32,27.03],[56.19,27.16],[56.71,27.16],[57.05,26.84],[57.11,26.07],[57.38,25.74],[57.68,25.74],[57.74,25.62],[57.96,25.55],[58.78,25.55],[59.06,25.36],[59.36,25.36],[59.44,25.42],[60.1,25.29],[60.63,25.36],[60.62,25.23],[60.92,25.23],[61.13,25.1],[61.66,25.16],[61.72,25.04],[62.02,25.04],[62.18,25.16],[62.47,25.1],[62.56,25.23],[63.54,25.23],[63.63,25.36],[64.23,25.36],[64.36,25.23],[64.8,25.16],[64.82,25.29],[66.02,25.36],[66.27,25.55],[66.49,25.49],[66.61,25.29],[66.63,24.84],[67.21,24.71],[67.29,24.07],[67.44,24.07],[67.49,23.88],[67.63,23.81],[68.16,23.81],[68.13,23.56],[68.42,23.56],[68.6,23.75],[68.75,23.81],[68.8,24.26],[69,26.32],[69.2,26.71],[69.53,26.9],[69.85,27.48],[70.01,27.54],[70.39,28.06],[70.54,28.06],[70.74,27.87],[70.72,27.74],[71.64,27.87],[71.89,27.99],[72.39,28.7],[72.99,29.09],[73.41,29.73],[73.36,29.86],[73.94,30.12],[74.13,30.31],[74.71,30.5],[74.84,30.76],[74.6,31.08],[74.67,31.4],[74.56,31.59],[74.63,31.91],[74.89,32.04],[75.06,32.43],[75.32,32.56],[75.52,33.71],[75.44,33.71],[75.42,34.55],[75.32,34.74],[75.39,35],[75.22,35.26],[75.2,35.45],[74.96,36.29],[74.81,36.61],[74.84,37],[75.01,37.32],[74.74,37.45],[74.19,37.45],[73.77,37.32],[73.74,37.51],[73.16,37.38],[72.55,37.45],[71.94,37.77],[71.78,38.03],[71.36,38.22],[71.2,38.48],[70.91,38.55],[70.36,38.55],[70.32,38.67],[69.57,38.8],[69.36,39.19],[69.42,39.64],[69.32,39.84],[69.85,40.29],[70.74,40.61],[70.68,40.94],[70.48,41.07],[69.81,40.68],[69.37,40.81],[69.27,40.48],[69.27,40.23],[69.04,40.23],[69,40.1],[68.62,39.9],[68.53,39.58],[66.22,39.77],[65.56,39.97],[65.23,39.9],[64.93,39.97],[64.89,40.1],[63.47,40.1],[62.88,39.97],[62.5,40.03],[60.95,39.51],[60.65,39.58],[60.45,39.38],[59.05,38.8],[57.88,38.48],[56.67,38.35],[56.23,38.09],[55.29,38.09],[54.85,37.84],[54.7,37.51],[53.98,37.38],[54.09,37.19],[54.03,36.87],[53.09,36.8],[52.59,36.61],[52.2,36.61],[52.11,36.55],[50.82,36.74],[50.53,36.87],[50.57,37.06],[50.32,37],[50,37.38],[49.02,37.58],[48.83,37.84],[48.8,38.09],[48.33,38.09],[47.25,38.67],[46.12,38.48],[45.85,38.29],[45.63,37.9],[45.22,37.77],[45.17,37.45],[45.29,37.19],[45.25,36.93],[44.87,37],[44.74,37.19],[44.77,37.38],[44.41,37.58],[43.94,37.58],[42.51,37.9],[41.96,37.9],[41.67,38.03],[40.58,38.09],[39.26,38.16],[39.17,38.09],[37.77,38.16],[37.76,38.03],[37.11,37.9],[36.34,37.96],[35.85,38.42],[35.73,38.8],[35.44,38.93],[35.45,39.06],[35.06,39.06],[35,39.26],[34.85,39.26],[34.8,39.51],[34.28,39.84],[34.33,40.23],[34.41,40.23],[34.35,41],[33.45,40.81],[32.9,40.87],[32.81,40.74],[32.12,40.94],[31.71,40.87],[31.2,40.48],[29.48,40.74],[28.91,40.61],[29.05,40.36],[27.94,40.36],[27.7,40.29],[27.47,40.42],[26.67,40.36],[26.26,40.1],[26.13,39.51],[26.85,39.58],[26.74,39.26],[26.96,39],[26.85,38.61],[27.08,38.55],[27.06,38.35],[26.59,38.35],[26.54,38.61],[26.38,38.67],[26.43,38.22],[26.82,38.22],[26.89,38.09],[27.28,38.03],[27.26,37.77],[27.16,37.58],[27.31,37.45],[27.54,37.38],[27.6,37.13],[28.14,37.06],[28.03,36.67],[28.51,36.87],[29.12,36.67],[29.25,36.42],[29.24,36.22],[29.94,36.22],[30.03,36.35],[30.49,36.35],[30.62,36.93],[31.39,36.87],[31.76,36.67],[31.92,36.67],[32.5,36.22],[32.56,36.03],[32.71,36.03],[33.27,36.22],[33.98,36.29],[34.25,36.67],[34.58,36.87],[34.89,36.87],[35.11,36.74],[35.49,36.61],[35.83,36.93],[36.14,36.93],[36.29,36.8],[36.26,36.61],[35.92,36.29],[37.46,36.22],[37.48,36.35],[37.8,36.42],[37.9,36.61],[38.31,35.52],[38.46,35.45],[38.52,35.26],[38.82,35.19],[38.87,35],[39.17,34.87],[39.2,34.49],[39.28,34.49],[40.26,34.29],[40.31,34.1],[40.85,34.1],[40.91,33.97],[41.21,33.91],[41.49,33.65],[42.58,33.14],[42.71,32.94],[43.15,32.81],[43.43,32.56],[43.91,32.75],[44.21,32.69],[44.25,33.01],[44.42,33.14],[44.63,33.01],[45.1,33.07],[45.47,32.94],[46.07,33.46],[45.86,33.59],[45.92,34.04],[46.15,34.04],[46.71,33.65],[46.67,33.39],[47.42,33.2],[47.7,33.01],[47.82,32.81],[47.97,32.81],[47.71,31.98],[47.98,31.72],[47.8,31.46],[47.74,31.01],[48.1,30.89],[48.05,30.44],[48.28,30.44],[48.41,30.31],[48.39,30.12],[48.6,29.99]]],[[[22.7,40.03],[22.54,40.1],[22.65,40.61],[23.27,40.29],[23.74,40.23],[23.84,40.55],[23.68,40.61],[23.7,40.81],[24.01,40.74],[24.26,40.94],[23.96,41.2],[23.8,41.2],[23.75,41.52],[23.59,41.59],[23.53,41.78],[22.82,41.91],[22.67,42.11],[22.44,42.17],[22.37,42.37],[22.54,42.5],[22.47,42.69],[22.39,42.69],[22.3,42.56],[21.82,42.43],[21.81,42.3],[21.41,42.3],[21.32,42.17],[21,42.24],[20.75,42.04],[20.19,42.04],[20.11,41.91],[19.87,42.04],[19.54,41.78],[19.45,41.52],[19.44,41.26],[19.5,40.87],[19.73,40.81],[20.19,40.42],[20.43,40.42],[20.49,40.16],[20.81,40.1],[21.09,39.51],[21.39,39.26],[21.63,39.32],[21.71,39.32],[21.51,39.97],[21.83,39.97],[21.92,40.16],[22.21,39.84],[22.7,40.03]]]]},"properties":{"NAME":"Macedonian Empire","C":11,"name":"Macedonian Empire","start_year":-323,"end_year":-319,"capital":"","type":"polity","region":"","event":"","source":"Cliopatria / Seshat Global History Databank (CC BY 4.0)","wikipedia":"Macedonia (ancient kingdom)","wikidata":"Q83958","_a":1086,"_c":[47.43,33.03],"_nz":"马其顿帝国","_sz":""}},
{"type":"Feature","geometry":{"type":"Polygon","coordinates":[[[48.8,38.09],[48.82,38.67],[48.74,38.67],[48.93,39.26],[48.67,39.58],[48.3,39.71],[47.52,39.71],[47.38,39.84],[47.05,39.77],[46.77,39.97],[46.54,39.97],[46.49,40.16],[45.52,40.48],[45.49,40.74],[45.67,40.87],[45.12,41.33],[44.24,41.26],[44.03,41.46],[43.78,41.39],[42.56,41.65],[42.25,41.26],[41.53,41.26],[41.36,40.68],[41.12,40.68],[41.01,40.94],[40.85,40.94],[40.58,40.74],[40.55,40.55],[40.76,40.42],[40.43,40.29],[40.4,40.1],[38.79,39.9],[38.93,39.77],[38.74,39.58],[38.89,39.51],[38.95,39.32],[38.74,39],[39.25,38.67],[39.29,38.42],[39.46,38.48],[40.06,38.29],[40.45,38.29],[40.58,38.09],[41.67,38.03],[41.96,37.9],[42.51,37.9],[43.94,37.58],[44.41,37.58],[44.77,37.38],[44.74,37.19],[44.87,37],[45.25,36.93],[45.29,37.19],[45.17,37.45],[45.22,37.77],[45.63,37.9],[45.85,38.29],[46.12,38.48],[47.25,38.67],[48.33,38.09],[48.8,38.09]]]},"properties":{"NAME":"Kingdom of Armenia","C":5,"name":"Kingdom of Armenia","start_year":-323,"end_year":-319,"capital":"","type":"polity","region":"","event":"","source":"Cliopatria / Seshat Global History Databank (CC BY 4.0)","wikipedia":"Kingdom of Armenia (antiquity)","wikidata":"Q208404","_a":48,"_c":[43.84,39.29],"_nz":"亚美尼亚王国","_sz":""}}
]}