{"type":"FeatureCollection", "features": [
{"type":"Feature","geometry":{"type":"Polygon","coordinates":[[[96.83,22.14],[96.86,22.79],[96.78,22.79],[96.87,23.3],[96.59,23.88],[96.17,24.01],[95.29,23.69],[94.66,22.08],[94.72,21.95],[94.55,21.82],[94.41,20.86],[94.65,20.47],[94.61,20.21],[94.84,19.7],[94.73,19.44],[94.89,19.06],[94.85,18.8],[95.09,18.35],[95.68,18.35],[96.19,18.86],[96.42,19.38],[96.4,19.76],[96.58,19.96],[96.48,20.28],[96.71,20.34],[96.62,20.73],[96.79,20.86],[96.95,21.95],[96.83,22.14]]]},"properties":{"NAME":"Pyu City-States","C":4,"name":"Pyu City-States","start_year":84,"end_year":849,"capital":"","type":"polity","region":"","event":"","source":"Cliopatria / Seshat Global History Databank (CC BY 4.0)","wikipedia":"Pyu city-states","wikidata":"Q1627675","_a":14,"_c":[95.68,21.18],"_nz":"骠国城邦","_sz":""}},
{"type":"Feature","geometry":{"type":"Polygon","coordinates":[[[-2.93,52.12],[-3.69,52.12],[-3.76,51.92],[-3.57,51.78],[-3.49,51.78],[-3.32,51.78],[-2.82,51.92],[-2.93,52.12]]]},"properties":{"NAME":"Kingdom of Brycheiniog","C":1,"name":"Kingdom of Brycheiniog","start_year":540,"end_year":946,"capital":"","type":"polity","region":"","event":"","source":"Cliopatria / Seshat Global History Databank (CC BY 4.0)","wikipedia":"Brycheiniog","wikidata":"Q954585","_a":0,"_c":[-3.3,51.95],"_nz":"布赖切尼奥格王国","_sz":""}},
{"type":"Feature","geometry":{"type":"Polygon","coordinates":[[[-3.89,51.58],[-3.7,51.38],[-3.11,51.45],[-3.13,51.58],[-3.3,51.65],[-3.32,51.78],[-3.49,51.78],[-3.57,51.78],[-3.89,51.58]]]},"properties":{"NAME":"Kingdom of Morgannwg","C":6,"name":"Kingdom of Morgannwg","start_year":540,"end_year":946,"capital":"","type":"polity","region":"","event":"","source":"Cliopatria / Seshat Global History Databank (CC BY 4.0)","wikipedia":"Kingdom of Morgannwg","wikidata":"Q13131807","_a":0,"_c":[-3.5,51.58],"_nz":"摩根沃格王国","_sz":""}},
{"type":"Feature","geometry":{"type":"Polygon","coordinates":[[[-86.72,20.92],[-86.75,21.5],[-86.92,21.63],[-87.22,21.63],[-87.34,21.5],[-88.48,21.63],[-89.18,21.37],[-89.98,21.31],[-90.17,21.11],[-90.32,21.11],[-90.42,20.41],[-90.43,20.02],[-90.74,19.7],[-90.81,19.25],[-91.35,18.93],[-91.3,18.61],[-91.5,18.48],[-91.79,18.48],[-91.84,18.74],[-92.5,18.74],[-92.62,18.54],[-93.49,18.48],[-93.84,18.35],[-93.57,18.03],[-93.57,17.58],[-93.37,17.26],[-93.49,17.13],[-93.4,17],[-93.64,16.68],[-93.59,16.36],[-93.82,15.91],[-92.75,15.14],[-92.47,14.69],[-91.35,13.91],[-90.47,13.91],[-89.92,13.59],[-89.87,13.79],[-89.57,13.72],[-89.59,13.91],[-89.19,14.24],[-88.82,14.24],[-88.69,14.43],[-88.63,15.07],[-88.38,15.39],[-88.51,15.84],[-88.82,15.97],[-88.64,16.23],[-88.49,16.23],[-88.24,16.49],[-88.14,16.81],[-88.19,17.64],[-88.03,18.03],[-87.91,18.22],[-87.7,18.29],[-87.73,18.48],[-87.45,19.06],[-87.49,19.31],[-87.39,19.57],[-87.55,19.64],[-87.29,19.89],[-87.35,20.21],[-86.71,20.86],[-86.72,20.92]]]},"properties":{"NAME":"Mayan City-States","C":2,"name":"Mayan City-States","start_year":555,"end_year":839,"capital":"","type":"polity","region":"","event":"","source":"Cliopatria / Seshat Global History Databank (CC BY 4.0)","wikipedia":"Maya civilization","wikidata":"Q28567","_a":57,"_c":[-90.27,17.61],"_nz":"玛雅城邦","_sz":""}},
{"type":"Feature","geometry":{"type":"Polygon","coordinates":[[[79.32,10.81],[78.72,10.78],[78.1,10.94],[77.04,10.95],[76.52,10.54],[76.24,9.93],[76.54,8.88],[77.29,8.13],[77.55,8.07],[78.1,8.38],[78.14,8.79],[78.29,9],[78.97,9.37],[78.92,9.57],[79.31,10.25],[79.89,10.3],[79.87,10.95],[79.32,10.81]]]},"properties":{"NAME":"Pandya Dynasty","C":3,"name":"Pandya Dynasty","start_year":592,"end_year":910,"capital":"","type":"polity","region":"","event":"","source":"Cliopatria / Seshat Global History Databank (CC BY 4.0)","wikipedia":"Pandya dynasty","wikidata":"Q844910","_a":11,"_c":[78.07,9.51],"_nz":"潘迪亚王朝","_sz":""}},
{"type":"Feature","geometry":{"type":"Polygon","coordinates":[[[-96.8,16.61],[-96.63,16.49],[-95.97,16.49],[-95.86,16.74],[-95.72,16.74],[-95.76,17],[-95.91,17],[-96.09,17.26],[-96.68,17.26],[-96.79,17],[-97.01,17],[-96.97,16.74],[-96.8,16.61]]]},"properties":{"NAME":"Zapotec Civilization","C":5,"name":"Zapotec Civilization","start_year":602,"end_year":891,"capital":"","type":"polity","region":"","event":"","source":"Cliopatria / Seshat Global History Databank (CC BY 4.0)","wikipedia":"Zapotec civilization","wikidata":"Q844750","_a":1,"_c":[-96.36,16.88],"_nz":"萨波特克文明","_sz":""}},
{"type":"Feature","geometry":{"type":"Polygon","coordinates":[[[31.1,18.29],[31.09,18.22],[31.21,17.32],[31.48,16.61],[31.39,16.36],[31.54,16.23],[31.53,15.97],[31.8,15.52],[32.53,15.33],[32.53,15.2],[33.86,15.46],[34.1,15.84],[34.68,15.78],[34.56,16.23],[34.71,16.49],[35.67,16.49],[36.05,16.81],[36,17.32],[35.5,17.64],[35.37,17.96],[35.29,17.96],[34.63,17.9],[34.48,18.03],[34.12,18.03],[33.24,18.29],[31.54,18.16],[31.1,18.29]]]},"properties":{"NAME":"Alodia","C":4,"name":"Alodia","start_year":602,"end_year":1501,"capital":"","type":"polity","region":"","event":"","source":"Cliopatria / Seshat Global History Databank (CC BY 4.0)","wikipedia":"Alodia","wikidata":"Q449639","_a":15,"_c":[33.57,16.74],"_nz":"阿洛迪亚","_sz":""}},
{"type":"Feature","geometry":{"type":"Polygon","coordinates":[[[40.82,14.81],[40.68,15.01],[40.31,14.94],[39.97,15.52],[39.82,15.52],[39.73,15.2],[39.61,15.59],[39.15,15.33],[38.93,15.39],[38.78,15.14],[38.63,15.07],[38.17,14.69],[38,14.17],[38.26,13.4],[38.4,13.08],[38.97,12.82],[41.32,12.82],[41.47,12.95],[41.91,13.01],[41.92,13.14],[42.22,13.27],[42.44,13.27],[42.38,13.59],[41.66,14.04],[41.39,14.56],[40.82,14.81]]]},"properties":{"NAME":"Kingdom of Axum","C":3,"name":"Kingdom of Axum","start_year":602,"end_year":805,"capital":"","type":"polity","region":"","event":"","source":"Cliopatria / Seshat Global History Databank (CC BY 4.0)","wikipedia":"Kingdom of Aksum","wikidata":"Q139377","_a":12,"_c":[40.22,14.21],"_nz":"阿克苏姆王国","_sz":""}},
{"type":"Feature","geometry":{"type":"Polygon","coordinates":[[[81.26,8.64],[80.99,8.96],[81,9.09],[80.73,9.48],[80.44,9.54],[80.45,9.74],[79.88,9.86],[79.86,9.67],[80.08,9.61],[79.99,9.41],[80.05,9.16],[79.81,8.77],[79.76,8.06],[79.62,8.06],[79.61,7.87],[79.74,7.68],[79.76,6.65],[79.95,6.14],[80.23,5.88],[80.67,5.88],[81.34,6.14],[81.88,6.71],[81.92,7.42],[81.77,7.49],[81.65,7.94],[81.45,8.13],[81.4,8.51],[81.26,8.64]]]},"properties":{"NAME":"Anurādhapura","C":2,"name":"Anurādhapura","start_year":617,"end_year":1014,"capital":"","type":"polity","region":"","event":"","source":"Cliopatria / Seshat Global History Databank (CC BY 4.0)","wikipedia":"Anurādhapura","wikidata":"Q5724","_a":9,"_c":[80.77,7.87],"_nz":"阿努拉德普勒","_sz":""}},
{"type":"Feature","geometry":{"type":"Polygon","coordinates":[[[109.05,11.47],[109.21,11.6],[109.23,12.37],[109.32,12.56],[109.47,12.56],[109.51,12.95],[109.33,13.27],[109.35,14.04],[109.18,14.36],[109.16,14.75],[108.97,15.01],[109.02,15.33],[108.68,15.52],[108.7,15.65],[108.37,15.91],[108.33,16.16],[108.14,16.36],[107.84,16.36],[107.86,16.49],[107.65,16.55],[107.67,16.68],[107.41,16.87],[107.1,17.26],[106.75,17.39],[106.59,17.77],[106.52,17.77],[106.3,17.77],[106.24,17.9],[105.87,17.9],[105.78,17.77],[105.77,17.71],[106.54,17],[106.57,16.68],[106.69,16.49],[106.97,16.42],[107.15,16.16],[107.5,16.04],[107.3,15.65],[107.69,15.33],[107.67,15.2],[107.9,15.2],[108.08,14.94],[108.06,14.24],[108.28,13.66],[108.24,13.34],[108.35,13.08],[108.25,12.18],[108.1,12.11],[108.14,11.79],[108.5,11.73],[108.62,11.54],[109.05,11.47]]]},"properties":{"NAME":"Chámpa","C":6,"name":"Chámpa","start_year":641,"end_year":874,"capital":"","type":"polity","region":"","event":"","source":"Cliopatria / Seshat Global History Databank (CC BY 4.0)","wikipedia":"Champa","wikidata":"Q216786","_a":24,"_c":[107.64,14.68],"_nz":"占婆","_sz":""}},
{"type":"Feature","geometry":{"type":"MultiPolygon","coordinates":[[[[-3.99,52.45],[-4.24,52.45],[-4.55,52.18],[-4.89,52.18],[-5.3,51.98],[-5.26,51.71],[-5.08,51.58],[-4.42,51.71],[-4.31,51.51],[-3.89,51.58],[-3.57,51.78],[-3.76,51.92],[-3.69,52.12],[-3.72,52.32],[-3.99,52.45]]],[[[-4.79,55.57],[-4.78,55.5],[-5.33,55.02],[-5.11,54.68],[-4.95,54.82],[-4.42,54.75],[-3.57,54.89],[-3.58,54.95],[-4.31,55.23],[-4.79,55.57]]]]},"properties":{"NAME":"Brythons","C":11,"name":"Brythons","start_year":644,"end_year":859,"capital":"","type":"polity","region":"","event":"","source":"Cliopatria / Seshat Global History Databank (CC BY 4.0)","wikipedia":"Celtic Britons","wikidata":"Q849967","_a":7,"_c":[-4.45,53.57],"_nz":"布立吞人","_sz":""}},
{"type":"Feature","geometry":{"type":"Polygon","coordinates":[[[101.33,17.13],[101.37,17.39],[101.24,17.51],[101.02,17.51],[101.24,18.03],[101.28,18.29],[101.14,18.35],[101.17,18.54],[101.34,18.67],[101.41,19.12],[101.19,19.64],[100.88,19.51],[100.59,19.57],[100.48,19.83],[100.67,20.09],[100.43,20.41],[100.21,20.47],[99.92,20.47],[99.6,20.34],[99.5,20.15],[99.2,20.15],[99.03,20.02],[99,19.83],[98.61,19.7],[98.11,19.83],[97.85,19.57],[97.78,18.61],[97.4,18.54],[97.38,18.41],[97.66,18.29],[97.77,18.03],[97.73,17.77],[98.12,17.39],[98.1,17.26],[98.56,16.87],[98.57,16.42],[98.83,16.16],[99.09,15.91],[99.91,15.97],[100.08,16.16],[100.21,16.04],[100.43,16.04],[100.55,16.36],[100.8,16.55],[100.84,16.81],[101.33,17.13]]]},"properties":{"NAME":"Haripuñjaya","C":11,"name":"Haripuñjaya","start_year":666,"end_year":1065,"capital":"","type":"polity","region":"","event":"","source":"Cliopatria / Seshat Global History Databank (CC BY 4.0)","wikipedia":"Haripuñjaya","wikidata":"Q255931","_a":18,"_c":[99.4,18.19],"_nz":"哈里奔猜","_sz":""}},
{"type":"Feature","geometry":{"type":"MultiPolygon","coordinates":[[[[126.7,33.26],[126.78,33.26],[127,33.59],[126.36,33.52],[126.14,33.2],[126.7,33.26]]],[[[125.19,38.74],[124.96,38.61],[124.79,38.29],[124.76,38.09],[125.08,38.09],[124.9,37.9],[125.21,37.9],[125.39,37.64],[125.68,37.9],[125.84,37.77],[126.35,37.84],[126.25,37.64],[126.6,37.58],[126.54,37.45],[126.7,37.32],[126.65,37.06],[126.3,37],[126.05,36.8],[126.26,36.61],[126.45,36.67],[126.43,36.16],[126.68,36.03],[126.3,35.26],[126.2,34.87],[126.48,34.81],[126.12,34.36],[126.42,34.36],[126.63,34.29],[127.13,34.55],[127.38,34.42],[127.76,34.74],[128.07,34.74],[128.08,34.94],[128.31,34.94],[128.33,34.81],[128.68,34.74],[128.81,35],[128.55,34.94],[128.53,35.07],[129.15,35.07],[129.62,35.71],[129.67,35.97],[129.42,36.1],[129.4,36.35],[129.54,36.93],[129.41,37.13],[129.47,37.25],[129.26,37.58],[129.1,37.58],[128.36,38.8],[128.21,38.8],[128.08,39],[127.8,39.19],[127.44,39.26],[127.67,39.64],[127.58,39.77],[127.93,39.97],[128.21,40.03],[128.29,40.16],[127.81,40.16],[126.64,39.77],[125.79,39.26],[125.57,38.87],[125.19,38.74]]]]},"properties":{"NAME":"Unified Silla","C":5,"name":"Unified Silla","start_year":682,"end_year":891,"capital":"","type":"polity","region":"","event":"","source":"Cliopatria / Seshat Global History Databank (CC BY 4.0)","wikipedia":"Unified Silla","wikidata":"Q715257","_a":34,"_c":[127.22,36.68],"_nz":"统一新罗","_sz":""}},
{"type":"Feature","geometry":{"type":"Polygon","coordinates":[[[51.38,55.91],[51.4,55.98],[50.57,56.11],[49.99,56.46],[48.8,56.59],[48.33,56.25],[47.82,54.95],[48.32,54.61],[49.69,54.55],[50.06,54.61],[50.39,54.55],[51.21,54.68],[51.35,54.82],[51.9,55.16],[51.97,55.84],[51.38,55.91]]]},"properties":{"NAME":"Volga Bulgaria","C":2,"name":"Volga Bulgaria","start_year":682,"end_year":1071,"capital":"","type":"polity","region":"","event":"","source":"Cliopatria / Seshat Global History Databank (CC BY 4.0)","wikipedia":"Volga Bulgaria","wikidata":"Q185488","_a":9,"_c":[49.93,55.54],"_nz":"伏尔加保加利亚","_sz":""}},
{"type":"Feature","geometry":{"type":"Polygon","coordinates":[[[34.31,35.71],[33.74,35.39],[32.89,35.39],[32.88,35.26],[32.55,35.13],[32.25,35.13],[32.23,34.94],[32.37,34.74],[33.04,34.55],[33.13,34.68],[33.52,34.74],[33.7,34.94],[34.09,35],[33.96,35.26],[34.53,35.58],[34.31,35.71]]]},"properties":{"NAME":"Cyprus Condominium","C":6,"name":"Cyprus Condominium","start_year":692,"end_year":874,"capital":"","type":"polity","region":"","event":"","source":"Cliopatria / Seshat Global History Databank (CC BY 4.0)","wikipedia":"Cyprus","wikidata":"Q229","_a":3,"_c":[33.39,35.13],"_nz":"塞浦路斯共治地","_sz":""}},
{"type":"Feature","geometry":{"type":"Polygon","coordinates":[[[35.29,17.96],[35.16,18.22],[34.94,18.29],[34.88,18.61],[34.6,18.93],[34.47,19.38],[34.26,19.64],[33.82,21.63],[33.88,23.17],[33.82,23.49],[33.68,23.69],[33.39,23.81],[32.04,23.69],[31.67,23.75],[30.54,23.36],[30.74,22.85],[30.72,22.27],[30.64,21.95],[30.69,21.31],[30.76,21.31],[30.74,20.79],[30.82,20.79],[30.91,19.31],[30.99,19.31],[31.1,18.29],[31.54,18.16],[33.24,18.29],[34.12,18.03],[34.48,18.03],[34.63,17.9],[35.29,17.96]]]},"properties":{"NAME":"Makuria","C":8,"name":"Makuria","start_year":692,"end_year":849,"capital":"","type":"polity","region":"","event":"","source":"Cliopatria / Seshat Global History Databank (CC BY 4.0)","wikipedia":"Makuria","wikidata":"Q829356","_a":28,"_c":[32.92,20.85],"_nz":"马库里亚","_sz":""}},
{"type":"Feature","geometry":{"type":"Polygon","coordinates":[[[-3.99,52.45],[-3.72,52.32],[-3.69,52.12],[-2.93,52.12],[-2.87,52.38],[-3.14,52.52],[-3.07,52.72],[-3.27,52.99],[-3.7,52.92],[-3.57,52.59],[-3.74,52.52],[-3.99,52.45]]]},"properties":{"NAME":"Kingdom of Powys","C":10,"name":"Kingdom of Powys","start_year":705,"end_year":859,"capital":"","type":"polity","region":"","event":"","source":"Cliopatria / Seshat Global History Databank (CC BY 4.0)","wikipedia":"Kingdom of Powys","wikidata":"Q769782","_a":1,"_c":[-3.43,52.56],"_nz":"波伊斯王国","_sz":""}},
{"type":"Feature","geometry":{"type":"Polygon","coordinates":[[[22.11,44.45],[22.17,44.12],[21.99,43.86],[22.15,43.8],[22.2,43.34],[22.59,43.28],[22.82,43.02],[23.06,43.02],[23.13,42.89],[23.61,42.95],[23.93,42.89],[24.08,42.76],[24.48,42.76],[24.55,42.56],[24.92,42.3],[24.97,41.91],[25.21,41.91],[25.8,42.24],[27.33,42.37],[27.53,42.82],[27.77,42.76],[27.87,42.95],[27.71,43.02],[27.74,43.28],[27.99,43.34],[28.16,43.47],[28.48,43.47],[28.62,43.99],[28.58,44.39],[28.84,44.58],[28.8,44.97],[29.05,44.97],[29.11,44.78],[29.53,44.91],[29.62,45.04],[29.61,45.69],[29.86,45.69],[30.04,45.89],[30.3,45.96],[30.88,46.68],[31.61,46.61],[31.79,46.74],[32.03,46.74],[32.17,46.55],[32.92,46.61],[33.69,46.87],[34.08,47.27],[34.12,47.53],[33.63,47.6],[30.67,47.66],[29.32,47.4],[29.12,47.14],[28.96,47.14],[28.92,46.81],[28.76,46.81],[28.81,46.55],[28.71,46.35],[28.66,45.89],[28.47,45.63],[28.29,45.5],[27.79,45.37],[27.77,45.24],[27.19,45.1],[26.79,45.17],[26.7,45.04],[26.45,45.04],[24.73,44.78],[24.33,44.84],[24.23,44.71],[22.37,44.65],[22.11,44.45]]]},"properties":{"NAME":"First Bulgarian Empire","C":5,"name":"First Bulgarian Empire","start_year":705,"end_year":805,"capital":"","type":"polity","region":"","event":"","source":"Cliopatria / Seshat Global History Databank (CC BY 4.0)","wikipedia":"First Bulgarian Empire","wikidata":"Q203817","_a":70,"_c":[28.06,44.79],"_nz":"保加利亚第一帝国","_sz":""}},
{"type":"Feature","geometry":{"type":"MultiPolygon","coordinates":[[[[13.63,45.5],[13.7,45.04],[13.95,45.04],[13.63,45.5]]],[[[12.98,45.82],[12.74,45.82],[12.16,45.69],[12,45.56],[12,45.37],[12.16,45.5],[12.65,45.56],[12.98,45.82]]]]},"properties":{"NAME":"Republic of Venice","C":9,"name":"Republic of Venice","start_year":705,"end_year":859,"capital":"","type":"polity","region":"","event":"","source":"Cliopatria / Seshat Global History Databank (CC BY 4.0)","wikipedia":"Republic of Venice","wikidata":"Q4948","_a":2,"_c":[12.98,45.36],"_nz":"威尼斯共和国","_sz":""}},
{"type":"Feature","geometry":{"type":"Polygon","coordinates":[[[-3.74,52.52],[-3.57,52.59],[-3.7,52.92],[-3.27,52.99],[-3.49,53.39],[-4.16,53.26],[-4.27,53.46],[-4.7,53.46],[-4.67,53.19],[-4.49,53.12],[-4.81,52.92],[-4.79,52.79],[-4.3,52.92],[-4.16,52.45],[-3.74,52.52]]]},"properties":{"NAME":"Kingdom of Gwynedd","C":4,"name":"Kingdom of Gwynedd","start_year":705,"end_year":859,"capital":"","type":"polity","region":"","event":"","source":"Cliopatria / Seshat Global History Databank (CC BY 4.0)","wikipedia":"Kingdom of Gwynedd","wikidata":"Q816814","_a":2,"_c":[-4.04,52.96],"_nz":"圭内斯王国","_sz":""}},
{"type":"Feature","geometry":{"type":"Polygon","coordinates":[[[-95.88,18.61],[-95.79,18.93],[-96.25,19.44],[-96.3,19.7],[-96.71,20.34],[-96.87,20.41],[-97.15,20.34],[-97.35,20.21],[-97.24,20.02],[-97.26,19.7],[-97.06,19.44],[-97.1,19.25],[-96.82,18.93],[-96.68,18.54],[-95.87,18.54],[-95.88,18.61]]]},"properties":{"NAME":"Classic Veracruz Culture","C":10,"name":"Classic Veracruz Culture","start_year":705,"end_year":1110,"capital":"","type":"polity","region":"","event":"","source":"Cliopatria / Seshat Global History Databank (CC BY 4.0)","wikipedia":"Classic Veracruz culture","wikidata":"Q2379418","_a":3,"_c":[-96.57,19.48],"_nz":"古典韦拉克鲁斯文化","_sz":""}},
{"type":"Feature","geometry":{"type":"Polygon","coordinates":[[[-4.66,50.85],[-4.88,50.58],[-5.13,50.58],[-5.28,50.38],[-5.6,50.25],[-5.75,50.05],[-5.15,49.98],[-4.93,50.25],[-4.27,50.38],[-4.31,50.71],[-4.66,50.85]]]},"properties":{"NAME":"Cornwall","C":10,"name":"Cornwall","start_year":710,"end_year":935,"capital":"","type":"polity","region":"","event":"","source":"Cliopatria / Seshat Global History Databank (CC BY 4.0)","wikipedia":"Cornwall","wikidata":"Q23148","_a":1,"_c":[-5.02,50.42],"_nz":"康沃尔","_sz":""}},
{"type":"Feature","geometry":{"type":"MultiPolygon","coordinates":[[[[108.18,-2.67],[108.03,-2.54],[107.52,-2.54],[107.45,-2.61],[107.47,-3.19],[108.12,-3.19],[108.18,-2.67]]],[[[106.58,-2.86],[106.72,-2.61],[106.21,-2.41],[105.97,-1.51],[105.6,-1.51],[105.6,-1.64],[105.24,-1.51],[105.24,-1.84],[104.96,-1.96],[105.11,-2.16],[105.62,-2.16],[105.77,-2.41],[105.78,-2.8],[106.45,-3.19],[106.81,-3.06],[106.8,-2.86],[106.58,-2.86]]],[[[101.61,1.76],[101.69,1.76],[101.7,2.09],[101.33,2.09],[101.26,2.02],[100.91,2.34],[100.69,2.34],[100.68,2.15],[100.39,2.21],[100.26,2.6],[99.83,2.73],[99.6,2.34],[99.49,1.44],[99.77,0.99],[99.68,0.54],[99.83,0.61],[99.96,0.29],[100.63,-0.36],[100.93,-1],[101.08,-1.06],[101.38,-1.58],[101.39,-1.84],[101.53,-1.77],[101.77,-2.54],[101.7,-2.67],[101.93,-3.12],[101.87,-3.57],[102.1,-3.7],[102.18,-4.02],[102.63,-4.41],[103.76,-5.18],[103.76,-5.31],[104,-5.56],[104.14,-5.56],[104.3,-5.89],[104.6,-5.95],[104.51,-5.56],[104.81,-5.76],[105.17,-5.76],[105.69,-5.89],[105.78,-4.73],[105.85,-4.73],[105.76,-4.15],[105.89,-3.96],[105.73,-3.57],[105.95,-3.38],[106.01,-3.06],[105.64,-2.8],[105.48,-2.35],[104.82,-2.29],[104.81,-2.03],[104.52,-1.96],[104.36,-1.19],[104.21,-1],[103.62,-1],[103.33,-0.74],[103.32,-0.42],[103.61,-0.36],[103.61,-0.23],[103.75,-0.04],[103.74,0.16],[103.32,0.54],[103.1,0.54],[102.95,0.41],[102.96,0.8],[103.11,0.93],[102.83,1.12],[102.39,1.12],[102.41,1.57],[101.68,1.64],[101.61,1.76]]],[[[104.55,0.03],[104.34,0.03],[104.34,-0.29],[104.12,-0.36],[104.13,-0.61],[104.42,-0.68],[104.49,-0.36],[104.92,-0.36],[104.92,-0.23],[104.55,0.03]]],[[[103.18,0.86],[103.18,0.67],[103.39,0.67],[103.4,0.86],[103.18,0.86]]],[[[104.21,1.19],[104.13,0.93],[104.34,0.8],[104.49,0.8],[104.57,1.12],[104.21,1.19]]],[[[103.77,1.12],[103.77,0.93],[104.06,0.99],[104.07,1.19],[103.92,1.25],[103.77,1.12]]],[[[100.47,7.68],[100.34,7.87],[100.3,8.39],[100.09,8.45],[99.96,8.71],[99.93,9.29],[99.64,9.35],[99.34,9.22],[99.18,9.86],[98.73,9.74],[98.56,9.48],[98.34,9.48],[98.13,8.64],[98.11,8.39],[98.24,8.19],[98.21,7.74],[98.43,7.81],[98.38,8.13],[98.47,8.32],[98.62,8.32],[98.67,8.06],[98.95,7.94],[98.94,7.68],[99.22,7.61],[99.28,7.29],[99.49,7.29],[99.48,7.1],[99.63,7.1],[99.61,6.84],[100.03,6.52],[100.02,6.33],[100.28,5.94],[100.24,5.11],[100.51,4.79],[100.48,4.21],[100.81,3.56],[101.23,3.18],[101.22,2.79],[101.43,2.6],[101.72,2.54],[101.71,2.41],[101.99,2.15],[102.35,2.09],[102.63,1.76],[103.06,1.64],[103.28,1.44],[103.27,1.31],[104.14,1.31],[104.23,1.7],[103.95,2.09],[103.96,2.28],[103.83,2.54],[103.4,2.86],[103.37,3.63],[103.48,4.46],[103.17,5.36],[102.4,6.01],[102.34,6.2],[101.84,6.39],[101.51,6.91],[100.85,6.91],[100.65,7.16],[100.51,7.16],[100.53,7.49],[100.47,7.68]]],[[[99.87,6.26],[99.88,6.52],[99.58,6.39],[99.65,6.26],[99.87,6.26]]]]},"properties":{"NAME":"Srivijaya","C":8,"name":"Srivijaya","start_year":718,"end_year":859,"capital":"","type":"polity","region":"","event":"","source":"Cliopatria / Seshat Global History Databank (CC BY 4.0)","wikipedia":"Srivijaya","wikidata":"Q234197","_a":159,"_c":[103.15,1.95],"_nz":"三佛齐","_sz":""}},
{"type":"Feature","geometry":{"type":"Polygon","coordinates":[[[101.87,14.11],[101.97,14.3],[101.55,14.49],[101.62,15.01],[101.51,15.26],[101.61,15.52],[102.32,16.87],[102,17.19],[101.61,17.06],[101.33,17.13],[100.84,16.81],[100.8,16.55],[100.55,16.36],[100.43,16.04],[100.21,16.04],[100.08,16.16],[99.91,15.97],[99.09,15.91],[98.83,16.16],[98.59,16.04],[98.59,15.46],[98.2,15.26],[98.16,15.01],[98.42,14.69],[98.4,14.56],[99.06,13.91],[99.18,13.66],[99.19,13.14],[99.6,12.82],[99.89,12.82],[100.03,12.69],[100.12,12.89],[100.1,13.4],[100.63,13.53],[100.99,13.46],[100.83,12.63],[101.55,12.56],[101.79,12.69],[101.81,12.95],[101.68,13.08],[101.87,14.04],[101.87,14.11]]]},"properties":{"NAME":"Lavo Kingdom","C":9,"name":"Lavo Kingdom","start_year":718,"end_year":805,"capital":"","type":"polity","region":"","event":"","source":"Cliopatria / Seshat Global History Databank (CC BY 4.0)","wikipedia":"Lavo Kingdom","wikidata":"Q1332305","_a":19,"_c":[100.24,14.88],"_nz":"罗涡王国","_sz":""}},
{"type":"Feature","geometry":{"type":"Polygon","coordinates":[[[67.17,30.37],[67.18,30.44],[67.56,31.27],[68.34,31.34],[69.09,31.66],[69.29,31.91],[69.34,32.49],[69.55,32.75],[69.54,33.07],[70.26,33.2],[70.32,33.46],[70.21,33.65],[69.93,33.78],[69.99,34.04],[70.73,33.91],[71.19,34.23],[71.05,34.61],[71.51,34.94],[71.68,35.32],[71.55,35.71],[71.23,35.97],[71.37,36.22],[72.19,36.67],[72.27,36.67],[72.34,36.93],[71.89,36.74],[71.58,36.74],[71.48,36.93],[70.24,36.67],[69,36.67],[68.6,36.61],[68.49,36.48],[67.8,36.55],[67.07,36.42],[66.9,36.03],[66.72,35.9],[66.37,35.07],[65.93,34.49],[64.74,33.97],[64.36,33.59],[64.25,33.07],[64.28,32.81],[64.22,32.49],[64.21,32.04],[64.28,32.04],[64.25,31.46],[64.33,31.46],[64.46,30.95],[64.59,30.82],[65.63,30.69],[66.34,30.44],[67.17,30.37]]]},"properties":{"NAME":"Turk Shahis","C":8,"name":"Turk Shahis","start_year":718,"end_year":849,"capital":"","type":"polity","region":"","event":"","source":"Cliopatria / Seshat Global History Databank (CC BY 4.0)","wikipedia":"Kabul Shahi","wikidata":"Q654380","_a":53,"_c":[68.28,33.65],"_nz":"突厥沙希王朝","_sz":""}},
{"type":"Feature","geometry":{"type":"Polygon","coordinates":[[[128.21,40.03],[128.29,40.03],[129.08,40.42],[129.24,40.68],[129.76,40.87],[129.88,41.2],[129.69,41.52],[129.78,41.78],[130.32,42.24],[130.61,42.3],[130.9,42.63],[131.23,42.63],[131.75,43.28],[131.91,43.28],[132.29,43.93],[131.26,44.06],[130.78,44.19],[130.47,44.32],[130.41,44.58],[130.26,44.71],[129.99,44.78],[130,44.91],[129.16,45.1],[128.69,44.78],[127.71,44.65],[127.43,44.71],[127.34,44.58],[126.97,44.52],[125.05,44.32],[124.25,43.47],[123.86,42.89],[123.82,42.56],[123.13,42.24],[122.65,41.85],[122.49,41.46],[121.94,41.2],[121.74,40.87],[121.83,40.74],[122.11,40.68],[122.23,40.48],[121.78,39.97],[121.5,39.9],[121.44,39.64],[121.21,39.51],[121.3,39.38],[121.69,39.38],[121.52,39.06],[121.2,39.06],[121.03,38.74],[121.42,38.74],[121.72,39],[121.95,39],[122.17,39.26],[122.94,39.64],[123.6,39.84],[124.03,39.77],[124.27,39.9],[124.51,39.64],[124.86,39.71],[124.99,39.51],[125.31,39.51],[125.39,39.38],[125.03,38.74],[125.19,38.74],[125.57,38.87],[125.79,39.26],[126.64,39.77],[127.81,40.16],[128.29,40.16],[128.21,40.03]]]},"properties":{"NAME":"Balhae","C":3,"name":"Balhae","start_year":741,"end_year":824,"capital":"","type":"polity","region":"","event":"","source":"Cliopatria / Seshat Global History Databank (CC BY 4.0)","wikipedia":"Balhae","wikidata":"Q28322","_a":72,"_c":[126.66,41.92],"_nz":"渤海国","_sz":""}},
{"type":"Feature","geometry":{"type":"Polygon","coordinates":[[[109.24,-6.85],[109.16,-6.79],[108.87,-6.79],[108.5,-6.72],[108.26,-6.27],[107.53,-6.21],[107.37,-6.01],[106.86,-5.95],[107.01,-6.01],[107.02,-6.21],[107.25,-6.4],[107.27,-6.79],[107.5,-6.98],[107.31,-7.56],[107.39,-7.56],[108.14,-7.88],[108.78,-7.69],[109.82,-7.94],[109.89,-7.94],[110.01,-7.56],[109.49,-7.36],[109.4,-7.11],[109.25,-7.04],[109.24,-6.85]]]},"properties":{"NAME":"Galuh Kingdom","C":4,"name":"Galuh Kingdom","start_year":741,"end_year":824,"capital":"","type":"polity","region":"","event":"","source":"Cliopatria / Seshat Global History Databank (CC BY 4.0)","wikipedia":"Galuh Kingdom","wikidata":"Q5519387","_a":6,"_c":[108.43,-6.91],"_nz":"加卢王国","_sz":""}},
{"type":"Feature","geometry":{"type":"Polygon","coordinates":[[[109.89,-7.94],[109.9,-8.01],[110.65,-8.26],[112.85,-8.46],[113.13,-8.26],[112.95,-7.81],[113.02,-7.69],[112.71,-7.56],[112.52,-6.85],[112.16,-6.91],[111.94,-6.79],[111.64,-6.79],[111.49,-6.59],[111.05,-6.66],[110.89,-6.4],[110.53,-6.46],[110.34,-6.91],[109.24,-6.85],[109.25,-7.04],[109.4,-7.11],[109.49,-7.36],[110.01,-7.56],[109.89,-7.94]]]},"properties":{"NAME":"Mataram Kingdom","C":4,"name":"Mataram Kingdom","start_year":741,"end_year":1002,"capital":"","type":"polity","region":"","event":"","source":"Cliopatria / Seshat Global History Databank (CC BY 4.0)","wikipedia":"Mataram Kingdom","wikidata":"Q402580","_a":8,"_c":[111.19,-7.43],"_nz":"马打兰王国","_sz":""}},
{"type":"Feature","geometry":{"type":"Polygon","coordinates":[[[107.31,-7.56],[107.5,-6.98],[107.27,-6.79],[107.25,-6.4],[107.02,-6.21],[107.01,-6.01],[106.86,-5.95],[106.65,-6.08],[106.49,-5.95],[105.91,-5.89],[105.7,-6.08],[105.65,-6.46],[105.43,-6.53],[105.37,-6.85],[105.89,-6.85],[106.33,-7.04],[106.28,-7.43],[106.43,-7.49],[107.31,-7.56]]]},"properties":{"NAME":"Sunda Kingdom","C":0,"name":"Sunda Kingdom","start_year":741,"end_year":824,"capital":"","type":"polity","region":"","event":"","source":"Cliopatria / Seshat Global History Databank (CC BY 4.0)","wikipedia":"Sunda Kingdom","wikidata":"Q1469742","_a":4,"_c":[106.44,-6.72],"_nz":"巽他王国","_sz":""}},
{"type":"Feature","geometry":{"type":"Polygon","coordinates":[[[0.02,53.66],[-0.39,54.41],[-0.67,54.61],[-1.11,54.61],[-1.29,54.68],[-1.49,54.95],[-1.63,55.57],[-2.02,55.91],[-2.66,56.11],[-3.26,56.05],[-3.78,55.98],[-3.38,55.57],[-3.36,55.36],[-3.08,55.23],[-3.06,55.02],[-3.4,54.95],[-3.65,54.82],[-3.59,54.27],[-3.32,54.21],[-3.1,53.73],[-3.15,53.46],[-2.88,53.33],[-2.54,53.33],[-1.7,53.6],[-1.33,53.33],[-1.09,53.53],[-0.75,53.53],[-0.68,53.73],[0.02,53.66]]]},"properties":{"NAME":"Kingdom of Northumbria","C":9,"name":"Kingdom of Northumbria","start_year":750,"end_year":865,"capital":"","type":"polity","region":"","event":"","source":"Cliopatria / Seshat Global History Databank (CC BY 4.0)","wikipedia":"Northumbria","wikidata":"Q107299","_a":11,"_c":[-1.88,54.72],"_nz":"诺森布里亚王国","_sz":""}},
{"type":"Feature","geometry":{"type":"Polygon","coordinates":[[[-3.4,54.95],[-3.06,55.02],[-3.08,55.23],[-3.36,55.36],[-3.38,55.57],[-3.78,55.98],[-3.96,55.98],[-4.25,56.18],[-4.86,56.18],[-4.85,56.05],[-5.01,55.91],[-4.98,55.7],[-4.79,55.57],[-4.31,55.23],[-3.58,54.95],[-3.4,54.95]]]},"properties":{"NAME":"Strathclyde","C":9,"name":"Strathclyde","start_year":750,"end_year":869,"capital":"","type":"polity","region":"","event":"","source":"Cliopatria / Seshat Global History Databank (CC BY 4.0)","wikipedia":"Strathclyde","wikidata":"Q124661","_a":2,"_c":[-4.03,55.57],"_nz":"斯特拉斯克莱德","_sz":""}},
{"type":"Feature","geometry":{"type":"MultiPolygon","coordinates":[[[[-6.19,55.57],[-6.13,55.77],[-5.87,55.84],[-5.89,55.98],[-6.59,55.91],[-6.56,55.7],[-6.19,55.57]]],[[[-3.26,56.05],[-2.67,56.25],[-2.79,56.52],[-2.53,56.59],[-2.21,56.87],[-2.08,57.28],[-1.82,57.42],[-1.85,57.7],[-3.73,57.77],[-4.12,57.97],[-3.43,58.18],[-3.02,58.53],[-3.14,58.74],[-3.68,58.74],[-4.02,58.6],[-5.2,58.67],[-5.17,58.46],[-5.42,58.32],[-5.46,57.97],[-5.73,57.97],[-5.89,57.83],[-5.92,57.42],[-5.73,57.35],[-5.7,57.14],[-5.96,57.08],[-5.91,56.73],[-6.34,56.66],[-6.12,56.32],[-5.68,56.39],[-5.66,56.18],[-5.81,56.05],[-5.69,55.77],[-5.86,55.7],[-5.89,55.29],[-5.38,55.43],[-5.12,55.43],[-5.16,55.77],[-5.43,55.77],[-5.44,55.91],[-5,55.84],[-4.85,56.05],[-4.86,56.18],[-4.25,56.18],[-3.96,55.98],[-3.78,55.98],[-3.26,56.05]]],[[[-6,57.35],[-6.32,57.77],[-6.47,57.56],[-6.74,57.56],[-6.41,57.14],[-5.97,57.14],[-6,57.35]]],[[[-3.53,59.02],[-3.42,58.81],[-2.79,58.88],[-2.81,59.02],[-3.38,59.22],[-3.53,59.02]]]]},"properties":{"NAME":"Dál Riata","C":6,"name":"Dál Riata","start_year":750,"end_year":839,"capital":"","type":"polity","region":"","event":"","source":"Cliopatria / Seshat Global History Databank (CC BY 4.0)","wikipedia":"Dál Riata","wikidata":"Q111471","_a":20,"_c":[-4.31,57.33],"_nz":"达尔里亚达","_sz":""}},
{"type":"Feature","geometry":{"type":"Polygon","coordinates":[[[89.67,25.95],[89.51,25.64],[89.57,25.52],[90.06,25.34],[92.95,25.16],[94.23,25.7],[94.82,26.31],[95.32,26.61],[94.61,27.65],[94.34,27.72],[93.51,27.12],[92.82,27.11],[92.17,26.86],[90.9,26.7],[90.65,26.77],[90.44,26.48],[89.67,25.95]]]},"properties":{"NAME":"Kamarupa Kingdom","C":1,"name":"Kamarupa Kingdom","start_year":751,"end_year":824,"capital":"","type":"polity","region":"","event":"","source":"Cliopatria / Seshat Global History Databank (CC BY 4.0)","wikipedia":"Kamarupa","wikidata":"Q1194765","_a":15,"_c":[92.42,26.44],"_nz":"迦摩缕波王国","_sz":""}},
{"type":"Feature","geometry":{"type":"Polygon","coordinates":[[[-3.14,43.41],[-4.99,43.41],[-5.65,43.54],[-7.18,43.54],[-7.28,43.73],[-8.24,43.73],[-8.39,43.6],[-8.37,43.41],[-8.85,43.41],[-9.16,43.28],[-9.3,43.15],[-9.28,42.89],[-9.1,42.76],[-9.08,42.56],[-8.66,42.37],[-8.96,42.17],[-8.89,41.52],[-8.42,41.59],[-8.36,41.78],[-7.25,41.85],[-7.18,41.98],[-6.61,41.91],[-6.39,42.04],[-4.96,42.11],[-4.02,42.37],[-3.71,42.56],[-3,42.63],[-3.03,43.02],[-3.19,43.08],[-3.14,43.41]]]},"properties":{"NAME":"Kingdom of Asturias","C":4,"name":"Kingdom of Asturias","start_year":755,"end_year":824,"capital":"","type":"polity","region":"","event":"","source":"Cliopatria / Seshat Global History Databank (CC BY 4.0)","wikipedia":"Kingdom of Asturias","wikidata":"Q231392","_a":14,"_c":[-6.11,42.63],"_nz":"阿斯图里亚斯王国","_sz":""}},
{"type":"Feature","geometry":{"type":"Polygon","coordinates":[[[14.03,41],[14.42,40.87],[14.42,40.68],[14.73,40.68],[14.5,41],[14.03,41]]]},"properties":{"NAME":"Duchy of Naples","C":5,"name":"Duchy of Naples","start_year":763,"end_year":839,"capital":"","type":"polity","region":"","event":"","source":"Cliopatria / Seshat Global History Databank (CC BY 4.0)","wikipedia":"Duchy of Naples","wikidata":"Q1051600","_a":0,"_c":[14.39,40.84],"_nz":"那不勒斯公国","_sz":""}},
{"type":"Feature","geometry":{"type":"Polygon","coordinates":[[[20.15,42.76],[20.4,42.89],[20.33,43.08],[20.5,43.28],[20.19,43.47],[20.12,43.67],[19.88,43.73],[19.82,43.99],[19.58,44.06],[18.59,43.67],[18.17,43.28],[18.32,43.08],[18.14,42.63],[18.62,42.43],[18.7,42.56],[19.02,42.43],[20.14,42.5],[20.15,42.76]]]},"properties":{"NAME":"Principality of Serbia","C":7,"name":"Principality of Serbia","start_year":768,"end_year":849,"capital":"","type":"polity","region":"","event":"","source":"Cliopatria / Seshat Global History Databank (CC BY 4.0)","wikipedia":"Principality of Serbia","wikidata":"Q1311990","_a":4,"_c":[19.32,43.25],"_nz":"塞尔维亚公国","_sz":""}},
{"type":"Feature","geometry":{"type":"MultiPolygon","coordinates":[[[[109.86,18.35],[110.18,18.48],[110.51,18.67],[110.68,19.25],[110.85,19.38],[110.88,19.57],[111.03,19.57],[111.09,19.89],[110.91,20.15],[110.61,20.15],[110.59,20.02],[110.16,20.09],[109.25,19.96],[109.2,19.7],[108.7,19.38],[108.64,18.54],[108.76,18.41],[109.12,18.35],[109.25,18.22],[109.84,18.22],[109.86,18.35]]],[[[106.52,17.77],[106.57,18.09],[106.29,18.22],[106.18,18.41],[105.73,18.86],[105.97,19.83],[106.54,20.15],[106.69,20.6],[106.83,20.6],[106.96,20.92],[107.42,20.99],[107.79,21.44],[108.56,21.56],[108.65,21.69],[109.09,21.63],[109.12,21.37],[109.81,21.5],[109.87,21.44],[109.7,20.86],[109.79,20.54],[109.93,20.47],[109.88,20.21],[110.49,20.28],[110.62,20.6],[110.36,20.86],[110.48,21.11],[110.72,21.18],[110.74,21.31],[110.98,21.44],[111.66,21.5],[111.86,21.76],[112.44,21.69],[112.77,21.89],[113.07,21.89],[113.11,22.08],[113.32,22.01],[113.42,22.14],[113.64,22.14],[113.7,22.46],[113.6,22.72],[113.75,22.72],[113.79,22.53],[114,22.46],[114,22.08],[114.37,22.08],[114.53,22.14],[114.64,22.72],[114.75,22.53],[114.9,22.53],[115.17,22.79],[115.37,22.66],[115.67,22.66],[115.7,22.79],[116.54,22.91],[116.59,23.17],[116.81,23.17],[116.78,23.36],[116.89,23.56],[117.18,23.49],[117.47,23.81],[117.69,23.81],[117.72,23.94],[118.08,24.2],[118.15,24.52],[118.76,24.59],[118.82,24.84],[119.07,24.97],[119.03,25.1],[119.34,25.16],[119.47,25.36],[119.87,25.49],[119.9,25.62],[119.53,25.62],[119.78,26],[119.59,26.13],[119.94,26.32],[119.84,26.52],[120.16,26.58],[120.25,26.9],[120.39,27.16],[120.55,27.16],[120.73,27.54],[120.71,27.74],[120.87,27.99],[121.15,28.19],[121.65,28.32],[121.71,28.77],[121.71,29.22],[121.94,29.22],[122.03,29.92],[121.62,30.05],[121.48,30.31],[121.1,30.31],[120.81,30.12],[120.68,30.18],[121.05,30.56],[121.2,30.56],[121.52,30.82],[121.9,30.82],[122,31.08],[121.74,31.4],[121.96,31.59],[121.96,31.98],[121.5,32.17],[121.4,32.49],[120.92,32.62],[120.93,33.2],[120.55,33.59],[120.49,34.16],[120.34,34.36],[119.73,34.55],[119.71,34.68],[119.23,34.81],[119.62,35.52],[119.99,35.64],[120.32,36.03],[120.66,36.1],[120.73,36.42],[120.96,36.42],[120.98,36.61],[121.21,36.61],[121.91,36.93],[122.39,36.8],[122.57,37],[122.47,37.13],[122.71,37.45],[122.12,37.51],[121.5,37.51],[121.48,37.64],[121.17,37.64],[121.11,37.84],[120.75,37.9],[120.19,37.71],[120.2,37.58],[119.83,37.45],[119.7,37.19],[119.16,37.19],[118.98,37.32],[119.24,37.84],[119.46,37.96],[118.77,38.16],[118.58,38.09],[118.07,38.16],[118.05,38.29],[117.6,38.48],[117.58,38.74],[117.89,39.19],[118.06,39.06],[118.99,39.19],[119.22,39.32],[119.38,39.77],[119.76,40.03],[119.55,40.36],[119,40.23],[118.2,40.36],[118.07,40.55],[117.83,40.68],[117.9,40.81],[117.77,41],[117.85,41.13],[117.6,41.39],[116.6,41.46],[116.64,41.52],[115.25,41.46],[114.62,41.33],[114.47,41.07],[114.31,41.2],[113.05,40.94],[112.97,40.94],[111.27,40.87],[110.87,41],[109.79,41.07],[108.51,40.74],[107.64,39.97],[107.44,39.71],[107.39,39.45],[106.38,38.09],[106.16,37.96],[105.43,37.9],[104.62,37.64],[104.77,37.45],[105.16,37.45],[105.47,37.25],[105.7,37.25],[105.86,37.06],[105.75,36.8],[105.93,36.67],[105.87,36.55],[106.13,36.22],[105.74,35.84],[104.95,35.58],[104.64,35.58],[103.89,35.26],[103.67,35.07],[103.45,34.49],[103.39,34.1],[103.49,33.97],[103.33,33.52],[103.03,33.33],[102.55,33.26],[101.69,32.75],[101.14,31.53],[100.92,30.56],[100.96,30.18],[101.06,29.99],[101.06,29.47],[101.2,29.41],[101.37,28.64],[101.7,27.87],[101.63,26.97],[101.66,26.77],[102.14,26.58],[102.19,26.13],[102.64,26.13],[102.91,26.32],[103.28,26.32],[103.42,26.58],[103.34,27.22],[103.27,27.22],[103.32,27.74],[103.55,27.74],[103.87,28.12],[103.9,28.51],[104.14,28.57],[104.64,28.44],[104.32,27.8],[104.6,27.74],[105.22,27.8],[105.42,27.99],[105.52,28.38],[106.18,28.57],[106.13,28.38],[106.26,28.32],[106.18,27.74],[106.46,27.35],[106.61,27.35],[106.9,27.03],[107.91,26.84],[107.97,26.45],[108.31,26.32],[108.18,25.42],[108.25,25.42],[107.97,24.46],[107.85,23.43],[107.95,23.17],[108.29,22.98],[108.36,22.59],[108.08,22.27],[106.9,21.89],[106.62,21.56],[106.1,21.56],[105.85,21.37],[105.24,21.31],[104.91,21.11],[105.11,20.92],[104.87,20.86],[104.91,20.6],[104.62,20.66],[104.44,20.47],[104.98,20.15],[104.86,19.89],[104.99,19.76],[104.97,19.19],[105.19,18.67],[105.14,18.41],[105.66,17.96],[105.78,17.77],[105.87,17.9],[106.24,17.9],[106.3,17.77],[106.52,17.77]]],[[[122.27,30.18],[122.05,30.18],[121.98,29.99],[122.28,29.99],[122.27,30.18]]]]},"properties":{"NAME":"Tang Dynasty","C":6,"name":"Tang Dynasty","start_year":768,"end_year":829,"capital":"","type":"polity","region":"","event":"","source":"Cliopatria / Seshat Global History Databank (CC BY 4.0)","wikipedia":"Tang dynasty","wikidata":"Q9683","_a":518,"_c":[111.82,29.65],"_nz":"唐","_sz":""}},
{"type":"Feature","geometry":{"type":"Polygon","coordinates":[[[73.17,35.26],[73.02,35.16],[72.91,34.6],[72.84,33.88],[73,33.7],[73.91,33.19],[74.36,32.78],[74.69,32.6],[75.32,33.03],[75.66,33.07],[76.25,32.4],[76.56,32.61],[76.8,33.84],[76.69,35.25],[76.09,35.59],[75.84,35.65],[74.85,36.32],[74.69,36.71],[74.14,36.78],[73.88,36.98],[73.25,36.98],[73.29,36.49],[73.15,36.15],[73.27,35.9],[73.3,35.34],[73.17,35.26]]]},"properties":{"NAME":"Karkota Dynasty","C":1,"name":"Karkota Dynasty","start_year":772,"end_year":849,"capital":"","type":"polity","region":"","event":"","source":"Cliopatria / Seshat Global History Databank (CC BY 4.0)","wikipedia":"Karkota dynasty","wikidata":"Q466433","_a":18,"_c":[74.82,34.69],"_nz":"卡尔科塔王朝","_sz":""}},
{"type":"Feature","geometry":{"type":"Polygon","coordinates":[[[78.75,31.59],[78.8,31.79],[78.46,32.3],[78.53,32.56],[78.32,32.94],[78.37,33.14],[78.16,33.52],[78.12,33.97],[78.05,33.97],[78.12,34.55],[78.23,34.94],[78.06,35.19],[77.98,35.45],[76.99,35.52],[76.72,35.64],[76.68,35.77],[76.1,35.64],[76.09,35.59],[76.69,35.25],[76.8,33.84],[76.56,32.61],[76.25,32.4],[75.66,33.07],[75.32,33.03],[74.72,32.62],[74.77,32.49],[75.21,32.43],[75.33,32.3],[76.4,32.3],[76.52,32.17],[77.04,32.11],[77.3,31.91],[78.68,31.59],[78.75,31.59]]]},"properties":{"NAME":"Kashmir","C":7,"name":"Kashmir","start_year":772,"end_year":849,"capital":"","type":"polity","region":"","event":"","source":"Cliopatria / Seshat Global History Databank (CC BY 4.0)","wikipedia":"Kashmir","wikidata":"Q43100","_a":17,"_c":[76.76,33.68],"_nz":"克什米尔","_sz":""}},
{"type":"Feature","geometry":{"type":"Polygon","coordinates":[[[-2.84,47.6],[-2.45,47.86],[-1.8,47.99],[-1.65,48.19],[-1.6,48.65],[-2.52,48.72],[-2.76,48.59],[-3.12,48.92],[-3.46,48.92],[-3.85,48.72],[-4.6,48.72],[-4.91,48.52],[-4.89,48.32],[-4.64,48.32],[-4.69,47.99],[-4.42,47.8],[-3.93,47.86],[-3.76,47.73],[-3.34,47.73],[-3.16,47.47],[-2.84,47.6]]]},"properties":{"NAME":"Breton Kingdoms","C":6,"name":"Breton Kingdoms","start_year":775,"end_year":813,"capital":"","type":"polity","region":"","event":"","source":"Cliopatria / Seshat Global History Databank (CC BY 4.0)","wikipedia":"Bretons","wikidata":"Q309197","_a":5,"_c":[-3.21,48.2],"_nz":"布列塔尼诸王国","_sz":""}},
{"type":"Feature","geometry":{"type":"Polygon","coordinates":[[[5.47,36.43],[5.38,36.71],[3.85,36.91],[3.42,36.74],[2.97,36.75],[2.71,36.59],[1.34,36.49],[0.65,36.3],[0.1,35.79],[-0.02,35.41],[-0.19,35.04],[0.8,33.08],[1.62,32.65],[7.82,31.11],[12.77,30.08],[16.16,30.08],[15.16,30.58],[14.21,31.68],[13.37,32.05],[12.37,31.9],[11.86,32.05],[11.5,32.32],[11.05,32.42],[10.14,32.9],[9.82,32.77],[9.66,33.13],[9.2,33.53],[9.26,34.05],[8.49,34.3],[6.15,34.71],[5.34,34.58],[5.53,35.62],[5.32,35.71],[5.32,36.1],[5.47,36.43]]]},"properties":{"NAME":"Rustamid dynasty","C":7,"name":"Rustamid dynasty","start_year":778,"end_year":899,"capital":"","type":"polity","region":"","event":"","source":"Cliopatria / Seshat Global History Databank (CC BY 4.0)","wikipedia":"Rustamid dynasty","wikidata":"Q940123","_a":112,"_c":[7.99,33.49],"_nz":"鲁斯塔姆王朝","_sz":""}},
{"type":"Feature","geometry":{"type":"MultiPolygon","coordinates":[[[[34.79,44.84],[35.3,44.97],[35.41,45.17],[35.73,45.17],[35.88,45.04],[36.37,45.1],[36.42,45.43],[35.02,45.3],[34.99,45.63],[34.74,45.63],[34.54,45.96],[34.15,46.09],[33.74,46.02],[33.71,45.82],[32.61,45.5],[33.22,45.24],[33.47,45.24],[33.6,45.04],[34.09,45.04],[34.08,44.97],[34.73,44.97],[34.79,44.84]]],[[[48.2,41.98],[48.21,42.04],[47.68,42.56],[47.66,42.82],[47.38,43.02],[47.46,43.41],[47.34,43.6],[47.34,43.99],[47.01,44.32],[46.63,44.45],[46.69,44.71],[47.04,44.84],[47.1,45.1],[47.48,45.37],[47.57,45.76],[48.06,45.76],[48.35,45.96],[48.59,45.96],[48.64,46.15],[49.06,46.22],[49.3,46.55],[49.99,46.68],[50.3,46.94],[50.84,47.14],[51.58,47.14],[51.81,47.07],[51.86,46.94],[53.11,47.01],[53.24,46.87],[53.27,46.35],[53.25,45.96],[53.07,45.89],[53.06,45.56],[53.42,45.37],[53.67,45.37],[53.88,45.56],[54.29,45.56],[54.52,46.74],[54.44,46.74],[54.52,47.33],[54.17,47.86],[54,47.86],[53.6,48.19],[51.28,48.19],[50.12,48.19],[48.78,48.46],[48.65,48.59],[48.1,48.72],[47.51,49.38],[46.81,49.58],[44.54,49.52],[43.57,49.65],[42.4,49.65],[41.74,49.71],[41.45,49.91],[40.93,49.85],[39.3,50.05],[38.95,49.98],[38.48,50.18],[37.9,50.18],[37.63,50.11],[37.69,49.98],[37.08,49.38],[36.37,49.18],[35.35,48.52],[35.03,47.53],[34.78,47.53],[34.63,47.66],[34.12,47.53],[34.08,47.27],[33.69,46.87],[32.92,46.61],[32.17,46.55],[32.06,46.35],[32.68,46.09],[32.95,46.22],[33.59,46.15],[33.61,46.28],[34.02,46.28],[34.08,46.15],[34.74,46.15],[34.76,46.28],[35.25,46.28],[35.63,46.68],[36.8,46.81],[36.91,46.94],[37.52,47.14],[38.68,47.2],[39.2,47.33],[39.27,47.27],[39.13,46.94],[38.89,47.01],[38.62,46.87],[38.49,46.61],[37.84,46.61],[37.9,46.48],[38.37,46.35],[38.33,46.15],[37.89,45.96],[37.86,45.76],[37.68,45.63],[37.7,45.3],[36.97,45.3],[36.78,45.1],[37.26,45.04],[37.53,44.71],[38.01,44.71],[38.22,44.45],[39.36,44.06],[39.35,43.99],[40.26,43.67],[40.4,43.54],[41.12,43.47],[41.35,43.41],[41.71,43.21],[42.5,43.15],[42.99,43.15],[43.42,42.89],[43.66,42.89],[43.85,42.63],[44.36,42.76],[44.74,42.69],[44.82,42.69],[45.23,42.69],[45.67,42.5],[45.75,42.11],[46.3,42.04],[46.35,41.91],[46.74,41.85],[47.27,41.33],[47.56,41.2],[47.89,41.26],[48.18,41.52],[48.2,41.98]]]]},"properties":{"NAME":"Khazaria","C":3,"name":"Khazaria","start_year":778,"end_year":813,"capital":"","type":"polity","region":"","event":"","source":"Cliopatria / Seshat Global History Databank (CC BY 4.0)","wikipedia":"Khazars","wikidata":"Q173282","_a":204,"_c":[43.17,45.69],"_nz":"可萨汗国","_sz":""}},
{"type":"Feature","geometry":{"type":"MultiPolygon","coordinates":[[[[42.5,43.15],[41.71,43.21],[41.35,43.41],[41.12,43.47],[40.4,43.54],[40.26,43.67],[39.35,43.99],[39.34,43.93],[39.98,43.41],[40.22,43.41],[40.42,43.15],[40.82,43.15],[41.12,43.02],[41.61,42.63],[41.48,42.37],[41.7,42.24],[41.82,41.98],[41.58,41.52],[41.74,41.52],[41.73,41.46],[42.61,41.52],[42.93,42.43],[42.72,42.56],[42.75,42.76],[42.61,42.82],[42.5,43.15]]],[[[39.36,44.06],[39.2,44.06],[39.35,43.99],[39.36,44.06]]]]},"properties":{"NAME":"Georgia","C":6,"name":"Georgia","start_year":783,"end_year":874,"capital":"","type":"polity","region":"","event":"","source":"Cliopatria / Seshat Global History Databank (CC BY 4.0)","wikipedia":"Georgia","wikidata":"Q4962","_a":11,"_c":[40.99,42.83],"_nz":"格鲁吉亚","_sz":""}},
{"type":"Feature","geometry":{"type":"Polygon","coordinates":[[[64.82,45.63],[64.98,46.35],[64.94,46.74],[64.82,46.87],[64.76,47.4],[64.53,47.47],[64.43,47.66],[64.23,47.8],[63.86,47.93],[61.82,47.99],[56.38,47.8],[54.52,47.33],[54.44,46.74],[54.52,46.74],[54.29,45.56],[54.22,45.3],[54.36,45.24],[54.3,44.97],[53.81,44.97],[53.88,45.24],[52.09,45.24],[51.88,45.37],[51.47,45.37],[51.06,45.04],[51.02,44.84],[51.47,44.71],[51.42,44.52],[50.86,44.52],[50.4,44.65],[50.19,44.45],[50.88,44.25],[51.07,44.06],[51.04,43.93],[51.32,43.73],[51.31,43.34],[51.44,43.21],[51.77,43.28],[51.94,42.95],[52.42,42.95],[52.79,42.82],[52.68,42.37],[52.44,42.04],[52.72,41.52],[52.81,41.91],[53.19,42.17],[53.91,42.17],[54.09,41.59],[54.73,41.26],[54.67,41],[54.39,40.81],[56.83,40.74],[57.46,41.39],[57.56,41.78],[57.96,42.37],[58.05,43.02],[58.34,43.47],[58.19,43.8],[57.96,43.86],[58.07,44.25],[57.96,44.45],[58.27,45.24],[58.49,45.43],[58.64,45.96],[59.31,46.02],[59.49,46.35],[59.84,46.41],[60.12,46.81],[60.53,46.81],[60.57,46.94],[61.23,46.94],[61.7,46.87],[61.25,45.96],[61.25,45.69],[61.34,45.43],[61.72,45.37],[61.58,44.91],[61.02,44.65],[60.76,44.06],[61.53,43.93],[61.57,43.8],[62.48,43.86],[63.39,44.19],[64.57,45.1],[64.82,45.63]]]},"properties":{"NAME":"Oghuz Turks","C":10,"name":"Oghuz Turks","start_year":783,"end_year":859,"capital":"无固定都城","type":"polity","region":"central_asia","event":"","source":"Cliopatria / Seshat Global History Databank (CC BY 4.0)","wikipedia":"Oghuz Khagan","wikidata":"Q2118293","_a":107,"_c":[57.59,44.37],"_nz":"乌古斯","_sz":""}},
{"type":"Feature","geometry":{"type":"Polygon","coordinates":[[[-2.95,51.51],[-2.63,51.65],[-2.82,51.92],[-3.32,51.78],[-3.3,51.65],[-3.13,51.58],[-2.95,51.51]]]},"properties":{"NAME":"Kingdom of Gwent","C":11,"name":"Kingdom of Gwent","start_year":788,"end_year":805,"capital":"","type":"polity","region":"","event":"","source":"Cliopatria / Seshat Global History Databank (CC BY 4.0)","wikipedia":"Kingdom of Gwent","wikidata":"Q2594661","_a":0,"_c":[-2.97,51.72],"_nz":"格温特王国","_sz":""}},
{"type":"Feature","geometry":{"type":"MultiPolygon","coordinates":[[[[14.34,36.03],[14.34,35.84],[14.57,35.77],[14.57,35.97],[14.34,36.03]]],[[[22.89,36.42],[22.87,36.16],[23.11,36.16],[23.12,36.35],[22.89,36.42]]],[[[20.62,37.9],[20.61,37.71],[20.92,37.64],[20.93,37.9],[20.62,37.9]]],[[[15.9,39.71],[16.05,39.45],[16.12,39.06],[16.27,38.93],[16.27,38.74],[15.95,38.67],[15.86,38.29],[14.06,37.96],[13.67,37.96],[13.35,38.16],[13.12,38.16],[13.04,38.03],[12.65,38.09],[12.49,37.9],[12.49,37.71],[13.19,37.58],[13.58,37.25],[14.28,37.13],[14.66,36.74],[15.05,36.74],[15.21,37.19],[15.06,37.25],[15.07,37.64],[15.39,38.16],[15.62,38.16],[15.7,37.96],[15.93,37.96],[16.49,38.42],[16.5,38.8],[17.14,39.06],[17.07,39.38],[16.84,39.51],[16.45,39.64],[16.45,39.71],[15.9,39.71]]],[[[20.33,38.35],[20.32,38.16],[20.79,38.09],[20.8,38.29],[20.57,38.42],[20.33,38.35]]],[[[9.75,39.64],[9.67,40.29],[9.82,40.36],[9.82,40.74],[9.5,41.2],[9.02,41.26],[8.55,40.87],[8.15,40.94],[8.16,40.55],[8.32,40.48],[8.4,40.29],[8.32,39.97],[8.48,39.9],[8.41,39.51],[8.33,39.51],[8.34,39],[8.73,38.87],[8.97,38.87],[9.12,39.19],[9.59,39.13],[9.67,39.64],[9.75,39.64]]],[[[17.42,40.36],[17.81,40.36],[18.11,39.9],[18.35,39.9],[18.44,40.16],[18.21,40.42],[17.83,40.68],[17.35,40.55],[17.42,40.36]]],[[[16.8,43.21],[16.72,43.08],[17.12,43.08],[17.12,43.21],[16.8,43.21]]],[[[15.93,43.67],[15.93,43.47],[16.17,43.47],[16.25,43.6],[16.65,43.54],[16.66,43.67],[15.93,43.67]]],[[[15.22,44.12],[15.39,44.32],[15.15,44.39],[15.22,44.12]]],[[[15.07,44.45],[15.15,44.39],[15.15,44.45],[15.07,44.45]]],[[[24.15,35.39],[24.16,35.52],[23.62,35.52],[23.68,35.26],[24.45,35.19],[24.76,35.19],[24.82,35],[26.14,35.07],[26.23,35.19],[25.68,35.13],[25.69,35.32],[24.3,35.32],[24.15,35.39]]],[[[27.69,36.29],[27.74,35.9],[28.14,36.03],[28.25,36.48],[28.02,36.48],[27.69,36.29]]],[[[24.99,37.71],[25.05,37.51],[25.29,37.51],[25.22,37.71],[24.99,37.71]]],[[[24.77,38.03],[24.68,37.84],[24.83,37.71],[25.07,37.77],[24.77,38.03]]],[[[25.82,38.48],[25.88,38.16],[26.11,38.16],[26.22,38.55],[25.91,38.67],[25.82,38.48]]],[[[24.36,39],[24.36,38.87],[24.66,38.74],[24.67,38.93],[24.36,39]]],[[[26.09,39],[26.25,38.93],[26.64,39],[26.51,39.32],[26.04,39.38],[25.79,39.19],[26.1,39.13],[26.09,39]]],[[[41.74,41.52],[41.16,41.39],[41.05,41.2],[40.37,40.94],[39.74,40.94],[39.05,41.13],[38.78,40.94],[38.3,40.87],[38.16,41],[37.83,40.94],[37.77,41.07],[37.21,41.07],[36.77,41.33],[36.21,41.26],[35.95,41.72],[35.31,41.65],[35.09,41.78],[35.12,42.04],[34.88,42.04],[34.78,41.91],[32.63,41.91],[32.69,41.78],[32.03,41.52],[31.53,41.39],[31.18,41.07],[30.62,41.07],[30.48,41.2],[28.96,41.13],[28.97,41.2],[28.35,41.39],[28.22,41.65],[27.98,41.65],[27.94,42.04],[27.49,42.43],[27.51,42.63],[27.77,42.76],[27.53,42.82],[27.33,42.37],[25.8,42.24],[25.21,41.91],[24.97,41.91],[24.65,41.85],[24.63,41.65],[22.78,41.39],[22.61,41.2],[22.06,41.2],[21.97,41.07],[21.32,40.81],[20.93,40.87],[20.68,40.74],[20.13,40.74],[20.06,40.94],[19.9,40.94],[19.99,41.26],[19.84,41.33],[19.85,41.65],[19.46,41.65],[19.53,41.52],[19.42,40.94],[19.25,40.74],[19.49,40.61],[19.47,40.29],[19.63,40.29],[20.01,39.97],[20,39.77],[20.15,39.71],[20.3,39.38],[20.91,39.06],[20.74,38.8],[20.97,38.74],[21.19,38.42],[21.74,38.35],[21.73,38.16],[21.42,38.16],[21.24,37.84],[21.7,37.51],[21.68,37.19],[21.74,36.87],[21.91,37.06],[22.22,37.06],[22.36,36.67],[22.51,36.67],[22.6,36.87],[22.83,36.87],[23.06,36.67],[22.85,37.25],[22.7,37.32],[22.71,37.58],[22.95,37.58],[23.4,37.32],[23.34,37.64],[23.11,37.64],[23.04,37.9],[23.21,38.03],[23.44,38.03],[23.98,37.84],[24,38.22],[24.16,38.22],[24.18,38.55],[24.03,38.67],[23.56,38.74],[23.63,38.48],[23.31,38.48],[23.17,38.67],[22.94,38.74],[23.03,38.93],[23.33,38.8],[23.49,38.87],[22.96,39.13],[22.82,39.38],[23.14,39.45],[22.61,39.9],[22.54,40.1],[22.57,40.55],[22.89,40.61],[22.96,40.42],[23.74,40.23],[23.84,40.55],[23.68,40.61],[23.7,40.81],[24.01,40.74],[24.35,41],[25.85,40.94],[26.08,40.87],[26.14,40.61],[26.55,40.74],[27.02,40.68],[27.53,41.07],[29.12,41.07],[29.1,40.94],[29.39,40.68],[28.91,40.61],[29.05,40.36],[27.94,40.36],[27.7,40.29],[27.47,40.42],[26.67,40.36],[26.6,40.48],[26.27,40.29],[26.13,39.51],[26.85,39.58],[26.74,39.26],[26.89,39.19],[26.96,39],[26.85,38.61],[27.08,38.55],[27.06,38.35],[26.59,38.35],[26.54,38.61],[26.38,38.67],[26.43,38.22],[26.82,38.22],[26.89,38.09],[27.28,38.03],[27.16,37.58],[27.54,37.38],[27.6,37.13],[28.07,37.13],[28.14,37.06],[28.03,36.67],[28.19,36.67],[28.36,36.87],[28.59,36.87],[28.74,36.74],[29.12,36.74],[29.24,36.22],[29.94,36.22],[30.03,36.35],[30.49,36.35],[30.62,36.93],[31.09,36.93],[32.07,36.61],[32.5,36.22],[32.56,36.03],[32.71,36.03],[33.27,36.22],[33.98,36.29],[34.25,36.67],[34.66,36.87],[34.78,37.25],[35.03,37.45],[35.35,37.51],[35.54,37.77],[35.69,37.77],[35.81,38.09],[35.74,38.22],[36.54,39],[36.56,39.13],[36.8,39.19],[36.82,39.32],[37.34,39.71],[37.76,39.9],[38.16,39.9],[38.3,39.77],[38.84,39.71],[39.59,39.97],[40.58,40.74],[41.08,40.94],[41.73,41.46],[41.74,41.52]]],[[[25.15,40.03],[24.97,39.84],[25.45,39.84],[25.46,40.03],[25.15,40.03]]],[[[24.49,40.81],[24.55,40.55],[24.79,40.61],[24.81,40.81],[24.49,40.81]]],[[[27.71,43.02],[27.99,43.34],[27.74,43.28],[27.71,43.02]]],[[[34.09,45.04],[33.6,45.04],[33.52,44.45],[33.76,44.45],[34.71,44.84],[34.79,44.84],[34.73,44.97],[34.08,44.97],[34.09,45.04]]]]},"properties":{"NAME":"Byzantine Empire","C":8,"name":"Byzantine Empire","start_year":788,"end_year":805,"capital":"","type":"polity","region":"","event":"","source":"Cliopatria / Seshat Global History Databank (CC BY 4.0)","wikipedia":"Byzantine Empire","wikidata":"Q112039853","_a":337,"_c":[24.95,40.02],"_nz":"拜占庭帝国","_sz":""}},
{"type":"Feature","geometry":{"type":"Polygon","coordinates":[[[-0.02,42.3],[0.13,42.56],[0.04,42.76],[-0.53,42.82],[-1.03,43.08],[-1.43,43.08],[-1.44,43.28],[-1.69,43.34],[-3.14,43.41],[-3.19,43.08],[-3.03,43.02],[-3,42.63],[-2.2,42.63],[-2.13,42.76],[-1.73,42.76],[-0.02,42.3]]]},"properties":{"NAME":"Duchy of Gascony","C":0,"name":"Duchy of Gascony","start_year":793,"end_year":805,"capital":"","type":"polity","region":"","event":"","source":"Cliopatria / Seshat Global History Databank (CC BY 4.0)","wikipedia":"Duchy of Gascony","wikidata":"Q2295939","_a":4,"_c":[-1.53,42.86],"_nz":"加斯科涅公国","_sz":""}},
{"type":"Feature","geometry":{"type":"MultiPolygon","coordinates":[[[[11.22,54],[10.88,53.73],[10.88,53.46],[11.05,53.26],[11.39,53.19],[11.9,53.19],[12.42,53.39],[12.34,53.8],[12.17,53.94],[12.01,54.27],[11.4,54.14],[11.22,54]]],[[[10.79,54],[11.05,54.21],[11.05,54.41],[10.53,54.41],[10.1,54.48],[10.1,54.07],[10.79,54]]]]},"properties":{"NAME":"Obotrites","C":3,"name":"Obotrites","start_year":793,"end_year":805,"capital":"","type":"polity","region":"","event":"","source":"Cliopatria / Seshat Global History Databank (CC BY 4.0)","wikipedia":"Obotrites","wikidata":"Q156108","_a":3,"_c":[11.26,53.77],"_nz":"奥博特里特人","_sz":""}},
{"type":"Feature","geometry":{"type":"MultiPolygon","coordinates":[[[[13.96,41.72],[13.8,41.85],[13.33,41.91],[13.01,42.04],[12.62,42.43],[12.38,42.43],[12.3,43.08],[12.14,43.08],[12.22,43.41],[11.82,43.34],[12.06,42.95],[11.98,42.56],[12.14,42.5],[12.05,42.24],[11.73,42.24],[11.73,42.17],[12.13,42.04],[12.13,41.91],[12.6,41.52],[12.92,41.46],[13,41.33],[13.4,41.33],[13.87,41.33],[14.04,41.52],[13.96,41.72]]],[[[10.54,43.15],[10.7,42.95],[10.94,42.89],[11.18,42.95],[11.18,43.08],[10.54,43.15]]]]},"properties":{"NAME":"Papal States","C":4,"name":"Papal States","start_year":793,"end_year":805,"capital":"","type":"polity","region":"","event":"","source":"Cliopatria / Seshat Global History Databank (CC BY 4.0)","wikipedia":"Papal States","wikidata":"Q170174","_a":7,"_c":[12.29,42.37],"_nz":"教皇国","_sz":""}},
{"type":"Feature","geometry":{"type":"Polygon","coordinates":[[[79.96,25.94],[80.04,25.94],[80.94,25.49],[81.87,25.23],[82.84,24.71],[83.06,24.71],[83.32,24.46],[84.89,23.94],[85.86,23.49],[85.92,23.36],[87.54,22.72],[87.6,22.59],[87.89,22.53],[88,22.27],[88.2,22.14],[88.2,21.56],[88.51,21.69],[88.64,22.08],[88.72,22.08],[88.73,21.63],[89.1,21.63],[89.12,21.76],[89.71,21.76],[89.87,21.82],[89.9,22.01],[90.23,21.76],[90.43,22.08],[90.86,22.01],[90.94,22.53],[91.24,22.59],[91.86,23.24],[92.04,23.88],[92.34,24.33],[92.49,25.18],[90.06,25.34],[89.57,25.52],[89.51,25.64],[89.67,25.95],[89.2,26.07],[89.12,26.39],[88.73,26.32],[88.55,26.58],[87.23,26.71],[86.02,27.09],[85.43,27.16],[85.03,27.42],[84.24,27.61],[83.86,27.54],[83.65,27.67],[82.93,27.8],[82.31,27.74],[81.9,27.93],[81.01,27.99],[79.65,27.99],[79.02,27.87],[78.69,27.67],[78.18,27.35],[78.16,26.84],[78.5,26.64],[78.8,26.64],[78.99,26.39],[79.96,25.94]]]},"properties":{"NAME":"Pala Empire","C":10,"name":"Pala Empire","start_year":793,"end_year":805,"capital":"","type":"polity","region":"","event":"","source":"Cliopatria / Seshat Global History Databank (CC BY 4.0)","wikipedia":"Pala Empire","wikidata":"Q668412","_a":92,"_c":[85.32,24.78],"_nz":"波罗王朝","_sz":""}},
{"type":"Feature","geometry":{"type":"Polygon","coordinates":[[[16.45,39.71],[16.46,39.97],[16.7,40.1],[16.62,40.29],[16.86,40.29],[16.87,40.48],[17.5,40.55],[17.67,40.74],[16.73,41.2],[15.94,41.39],[15.87,41.72],[16.11,41.78],[16.12,41.91],[15.24,41.91],[15.17,42.04],[14.92,41.98],[14.77,42.11],[14.69,42.11],[14.37,41.98],[14.12,41.72],[13.96,41.72],[14.04,41.52],[13.87,41.33],[13.4,41.33],[13.71,41.26],[14.03,41],[14.5,41],[14.73,40.68],[14.97,40.61],[14.96,40.29],[15.67,39.9],[15.9,39.71],[16.45,39.71]]]},"properties":{"NAME":"Duchy of Benevento","C":8,"name":"Duchy of Benevento","start_year":793,"end_year":839,"capital":"","type":"polity","region":"","event":"","source":"Cliopatria / Seshat Global History Databank (CC BY 4.0)","wikipedia":"Duchy of Benevento","wikidata":"Q267816","_a":10,"_c":[15.54,40.91],"_nz":"贝内文托公国","_sz":""}},
{"type":"Feature","geometry":{"type":"Polygon","coordinates":[[[100.64,52.99],[100.15,53.26],[100.26,53.53],[100.01,53.66],[100.02,53.8],[99.78,53.94],[98.86,54.34],[98.45,54.61],[96.82,54.89],[96.66,55.02],[94.38,54.89],[93.2,54.68],[92.14,54.27],[91.48,53.8],[91.52,53.73],[90.87,52.86],[89.86,51.92],[90.12,51.92],[90.21,51.78],[90.63,51.78],[90.72,51.65],[91.1,51.58],[92.38,51.58],[94.58,52.25],[96.38,52.52],[97.92,52.52],[98.3,52.32],[98.25,52.25],[99.01,52.12],[99.28,52.38],[100.07,52.79],[100.55,52.86],[100.64,52.99]]]},"properties":{"NAME":"Yenisei Kyrgyz","C":8,"name":"Yenisei Kyrgyz","start_year":793,"end_year":839,"capital":"无固定都城","type":"polity","region":"central_asia","event":"","source":"Cliopatria / Seshat Global History Databank (CC BY 4.0)","wikipedia":"Yenisei Kyrgyz","wikidata":"Q83142","_a":37,"_c":[95.25,53.3],"_nz":"黠戛斯","_sz":""}},
{"type":"Feature","geometry":{"type":"Polygon","coordinates":[[[78.75,31.59],[79.1,31.46],[79.45,31.01],[79.97,30.95],[80.26,30.56],[80.84,30.44],[81.07,30.12],[81.38,30.12],[81.76,29.79],[81.99,29.79],[82.46,29.54],[83.26,29.41],[83.58,29.15],[84.24,29.02],[84.41,28.77],[84.7,28.7],[84.74,28.57],[85.2,28.57],[85.14,28.32],[85.75,28.32],[85.97,27.93],[86.23,28.12],[86.34,27.93],[86.82,28.06],[87.37,27.8],[87.75,27.8],[88.21,27.87],[88.56,28.06],[88.84,27.99],[88.87,28.12],[89.62,28.12],[89.97,28.32],[90.33,28.25],[90.36,28.06],[90.82,28.06],[90.94,27.93],[91.19,28.06],[91.63,27.99],[91.61,27.54],[91.73,27.42],[92.03,27.42],[91.98,27.16],[92.15,26.9],[92.82,27.11],[93.51,27.12],[94.26,27.69],[94.57,27.67],[95.05,28.12],[95.69,28.25],[96.14,27.93],[96.08,27.67],[96.21,27.61],[96.12,27.22],[96.82,27.29],[97,27.09],[97.22,27.09],[97.62,26.84],[98.78,26.64],[99.41,26.77],[101.15,26.84],[101.63,26.97],[101.7,27.87],[101.37,28.64],[101.2,29.41],[101.06,29.47],[101.06,29.99],[100.96,30.18],[100.92,30.56],[101.14,31.53],[101.69,32.75],[102.55,33.26],[103.03,33.33],[103.33,33.52],[103.49,33.97],[103.39,34.1],[103.45,34.49],[103.67,35.07],[103.89,35.26],[104.64,35.58],[104.95,35.58],[105.74,35.84],[106.13,36.22],[105.87,36.55],[105.93,36.67],[105.75,36.8],[105.86,37.06],[105.7,37.25],[105.47,37.25],[105.16,37.45],[104.77,37.45],[104.62,37.64],[103.76,37.84],[103.69,38.03],[103.38,38.03],[102.76,38.42],[102.6,38.42],[102.4,38.67],[102.12,38.74],[102.12,38.93],[101.63,39.06],[101.48,39.26],[101.54,39.38],[101.26,39.64],[100.74,39.71],[100.38,39.97],[100.17,40.03],[99.38,40.03],[99.28,40.16],[98.95,40.29],[98.5,40.36],[98.27,40.55],[98.04,40.55],[97.63,40.87],[96.9,41],[96.93,41.07],[94.49,40.94],[94.26,41.13],[94.1,41.13],[93.54,41.85],[93.6,41.98],[93.2,42.5],[93.04,42.5],[92.97,42.69],[92.81,42.69],[92.74,42.89],[92.58,42.89],[92.52,43.08],[92.35,43.08],[92.24,43.34],[92.07,43.34],[92.01,43.54],[91.85,43.54],[91.78,43.73],[91.61,43.73],[91.55,43.93],[91.38,43.93],[91.32,44.12],[90.87,44.39],[90.53,44.52],[89.73,44.71],[89.63,44.84],[89.23,44.84],[89.13,44.97],[85.72,44.97],[81.62,44.12],[80.52,43.8],[78.66,42.76],[78.24,42.3],[77.85,42.11],[77.36,41.65],[77.29,41.46],[77.01,41.33],[74.75,41],[73.32,41],[73.08,40.74],[73.14,40.68],[73.53,40.42],[73.8,40.29],[73.57,39.58],[73.42,39.58],[73.16,39.26],[73,39.26],[72.32,38.8],[71.79,38.35],[71.5,37.58],[71.58,37.58],[71.48,36.93],[71.58,36.74],[71.89,36.74],[72.34,36.93],[72.27,36.67],[72.26,36.35],[72.5,36.1],[72.47,35.97],[72.74,35.84],[72.71,35.71],[73.17,35.26],[73.3,35.34],[73.27,35.9],[73.15,36.15],[73.29,36.49],[73.25,36.98],[73.88,36.98],[74.14,36.78],[74.69,36.71],[74.85,36.32],[75.84,35.65],[76.09,35.59],[76.1,35.64],[76.68,35.77],[76.72,35.64],[76.99,35.52],[77.98,35.45],[78.06,35.19],[78.23,34.94],[78.12,34.55],[78.05,33.97],[78.12,33.97],[78.16,33.52],[78.37,33.14],[78.32,32.94],[78.53,32.56],[78.46,32.3],[78.8,31.79],[78.75,31.59]]]},"properties":{"NAME":"Tibetan Empire","C":11,"name":"Tibetan Empire","start_year":793,"end_year":829,"capital":"","type":"polity","region":"","event":"","source":"Cliopatria / Seshat Global History Databank (CC BY 4.0)","wikipedia":"Tibetan Empire","wikidata":"Q2431480","_a":635,"_c":[88.81,35.81],"_nz":"吐蕃帝国","_sz":""}},
{"type":"Feature","geometry":{"type":"MultiPolygon","coordinates":[[[[16.86,44.91],[16.54,44.84],[16.46,44.97],[16.14,44.97],[15.98,45.1],[15.57,45.1],[15.42,45.3],[15.09,45.3],[14.93,45.43],[14.28,45.37],[14.6,45.37],[14.52,45.1],[14.92,44.97],[14.91,44.58],[15.15,44.45],[15.15,44.39],[15.39,44.32],[15.22,44.12],[15.62,43.93],[15.93,43.67],[16.66,43.67],[16.65,43.54],[16.82,43.8],[16.51,43.99],[16.44,44.39],[16.61,44.58],[16.86,44.65],[16.86,44.91]]],[[[14.35,44.97],[14.26,44.58],[14.5,44.52],[14.51,44.91],[14.35,44.97]]]]},"properties":{"NAME":"Duchy of Croatia","C":7,"name":"Duchy of Croatia","start_year":793,"end_year":805,"capital":"","type":"polity","region":"","event":"","source":"Cliopatria / Seshat Global History Databank (CC BY 4.0)","wikipedia":"Duchy of Croatia","wikidata":"Q2576305","_a":5,"_c":[15.68,44.49],"_nz":"克罗地亚公国","_sz":""}},
{"type":"Feature","geometry":{"type":"Polygon","coordinates":[[[72.76,21.69],[72.56,21.24],[72.9,20.92],[72.84,20.34],[72.63,19.83],[72.76,19.64],[72.73,19.38],[72.87,19.31],[72.96,18.03],[73.3,17.06],[73.25,16.61],[73.54,15.78],[73.75,15.65],[73.79,15.33],[73.93,15.26],[73.97,14.94],[74.37,14.49],[74.47,13.91],[74.66,13.59],[74.75,12.82],[75.53,11.54],[76.96,12.82],[77.44,14.46],[78.96,14.32],[79.24,14.6],[78.87,15.13],[79.06,15.4],[79.61,15.58],[80.21,15.53],[80.11,15.2],[80.2,15.46],[80.46,15.78],[81.12,15.78],[81.32,16.29],[82.07,16.36],[82.38,16.55],[82.45,17.13],[83.15,17.45],[83.56,17.77],[83.67,18.03],[84.05,18.16],[84.38,18.41],[85.09,19.38],[83.48,20.09],[83.29,20.34],[82.59,20.66],[81.92,20.66],[80.98,20.86],[81.16,21.11],[81.15,21.63],[81.27,22.01],[80.48,22.21],[80.29,22.46],[79.93,22.59],[79.95,22.72],[79.67,22.91],[78.01,22.72],[77.24,22.46],[76.49,22.46],[74.53,22.21],[73.52,21.82],[72.76,21.69]]]},"properties":{"NAME":"Rashtrakuta Dynasty","C":6,"name":"Rashtrakuta Dynasty","start_year":793,"end_year":805,"capital":"","type":"polity","region":"","event":"","source":"Cliopatria / Seshat Global History Databank (CC BY 4.0)","wikipedia":"Rashtrakuta dynasty","wikidata":"Q856691","_a":142,"_c":[78.83,17.23],"_nz":"罗湿陀罗拘陀王朝","_sz":""}},
{"type":"Feature","geometry":{"type":"Polygon","coordinates":[[[79.31,46.74],[79.09,46.61],[78.97,46.35],[78.46,46.28],[77.83,46.35],[77.39,46.48],[75.45,46.55],[75.32,46.41],[74.88,46.35],[74.75,46.02],[74.32,45.96],[74.12,45.43],[74.25,45.37],[74.13,45.04],[73.94,44.97],[73.74,45.3],[73.33,45.5],[73.63,46.28],[73.87,46.28],[73.95,46.48],[74.36,46.68],[73.91,46.81],[73.18,46.81],[72.03,46.61],[70.96,45.69],[69.93,44.19],[69.5,43.41],[69.54,43.28],[70.11,43.08],[70.42,42.56],[71.25,42.17],[71.42,41.98],[71.38,41.85],[71.69,41.59],[71.76,41.33],[73,40.74],[73.08,40.74],[73.32,41],[74.75,41],[77.01,41.33],[77.29,41.46],[77.36,41.65],[77.85,42.11],[77,42.17],[76.45,42.43],[76.53,42.63],[78.66,42.76],[80.52,43.8],[80.36,43.99],[80.3,44.25],[80.41,44.91],[80.3,45.24],[80.62,46.55],[80.04,46.74],[79.61,46.68],[79.31,46.74]]]},"properties":{"NAME":"Qarlugs","C":7,"name":"Qarlugs","start_year":793,"end_year":839,"capital":"","type":"polity","region":"","event":"","source":"Cliopatria / Seshat Global History Databank (CC BY 4.0)","wikipedia":"Mongol invasion of Central Asia","wikidata":"Q2330335","_a":67,"_c":[75.06,43.78],"_nz":"葛逻禄","_sz":""}},
{"type":"Feature","geometry":{"type":"Polygon","coordinates":[[[-2.2,35.07],[-2.42,34.94],[-3.12,34.94],[-3.5,34.81],[-4.51,34.94],[-4.45,35.26],[-4.91,35.26],[-5.24,35.52],[-5.34,35.84],[-5.88,35.77],[-6,35.32],[-6.29,35.07],[-6.33,34.55],[-6.47,34.36],[-6.7,34.29],[-6.61,34.16],[-6.9,33.91],[-7.73,33.59],[-7.8,33.59],[-7.79,33.46],[-7.56,33.39],[-7.37,32.81],[-7.42,32.49],[-7.63,32.24],[-7.62,32.04],[-7.91,31.85],[-8.05,31.59],[-7.97,31.59],[-7.65,31.34],[-6.22,31.53],[-5.7,31.79],[-5.39,31.72],[-5.25,31.91],[-4.27,32.17],[-3.97,32.36],[-3.82,32.3],[-3.6,32.49],[-2.54,32.81],[-1.88,33.33],[-1.57,33.33],[-1.43,33.59],[-1.28,33.59],[-0.99,33.91],[-0.83,33.91],[-0.69,34.16],[-0.09,34.61],[-0.2,35.26],[0.01,35.64],[-0.07,35.77],[-0.46,35.84],[-0.53,35.71],[-0.92,35.71],[-1.36,35.26],[-2.2,35.07]]]},"properties":{"NAME":"Idrisids","C":11,"name":"Idrisids","start_year":793,"end_year":910,"capital":"","type":"polity","region":"","event":"","source":"Cliopatria / Seshat Global History Databank (CC BY 4.0)","wikipedia":"Idrisid dynasty","wikidata":"Q431575","_a":36,"_c":[-4.02,33.59],"_nz":"伊德里斯王朝","_sz":""}},
{"type":"Feature","geometry":{"type":"Polygon","coordinates":[[[-4.86,17.26],[-5.01,17.39],[-5.6,17.45],[-5.6,17.58],[-6.12,17.51],[-6.57,17.64],[-7.89,17.58],[-8.18,17.39],[-8.53,16.61],[-8.58,15.46],[-8.35,14.81],[-8.41,14.49],[-7.89,13.98],[-7.89,13.85],[-6.71,13.34],[-5.31,13.34],[-5.09,13.46],[-4.8,13.46],[-4.36,13.72],[-4.29,13.98],[-4.07,14.04],[-4.15,14.17],[-3.86,14.49],[-3.8,15.78],[-3.88,15.78],[-3.88,16.23],[-4.19,16.74],[-4.79,17.26],[-4.86,17.26]]]},"properties":{"NAME":"Ghana Empire","C":1,"name":"Ghana Empire","start_year":793,"end_year":1084,"capital":"","type":"polity","region":"","event":"","source":"Cliopatria / Seshat Global History Databank (CC BY 4.0)","wikipedia":"Ghana Empire","wikidata":"Q206789","_a":21,"_c":[-6.19,15.49],"_nz":"加纳帝国","_sz":""}},
{"type":"Feature","geometry":{"type":"Polygon","coordinates":[[[85.64,48.32],[85.47,48.32],[85.52,48.59],[85.34,48.72],[85.3,48.99],[84.33,49.38],[83.9,49.52],[83.8,49.65],[79.02,49.98],[78.66,50.45],[78.49,50.45],[78.32,50.78],[78.15,50.78],[77.43,51.38],[77.31,51.65],[77.07,51.85],[76.58,52.05],[76.38,52.32],[74.84,52.99],[74.65,53.12],[73.43,53.26],[73.46,53.33],[72.69,53.33],[72.15,53.46],[71.29,53.46],[71.33,53.53],[67.17,53.66],[63.92,53.73],[62.77,53.66],[61.25,53.33],[61.11,53.39],[60.31,53.12],[59.44,52.65],[59.12,52.25],[59.05,52.05],[59.19,51.98],[59.01,51.71],[58.11,51.11],[56.41,51.31],[55.76,51.65],[54.59,51.71],[54.61,51.78],[53.57,51.71],[52.83,51.51],[52.43,51.58],[52.3,51.45],[51.94,51.38],[51.65,50.98],[51.44,49.98],[51.58,49.58],[51.81,49.52],[51.56,48.92],[51.3,48.59],[51.28,48.19],[53.6,48.19],[54,47.86],[54.17,47.86],[54.52,47.33],[56.38,47.8],[61.82,47.99],[63.86,47.93],[64.23,47.8],[64.43,47.66],[64.53,47.47],[64.76,47.4],[64.82,46.87],[64.94,46.74],[64.98,46.35],[64.82,45.63],[64.9,45.63],[66.09,45.3],[66.39,44.97],[67.54,44.52],[67.87,44.06],[68.09,43.99],[68.9,43.99],[69.93,44.19],[70.96,45.69],[72.03,46.61],[73.18,46.81],[73.91,46.81],[74.36,46.68],[74.6,46.87],[76.32,46.87],[76.35,46.74],[76.73,46.68],[77.91,46.74],[78.1,46.61],[78.7,46.87],[79.33,46.81],[79.31,46.74],[79.61,46.68],[80.04,46.74],[80.62,46.55],[80.73,46.81],[80.92,46.87],[85.17,47.53],[85.43,47.73],[85.64,48.32]]]},"properties":{"NAME":"Kimek-Kipchak confederation","C":2,"name":"Kimek-Kipchak confederation","start_year":793,"end_year":849,"capital":"无固定都城","type":"polity","region":"central_asia","event":"","source":"Cliopatria / Seshat Global History Databank (CC BY 4.0)","wikipedia":"Kimek-Kipchak confederation","wikidata":"Q2477776","_a":339,"_c":[68.46,48.86],"_nz":"基马克-钦察联盟","_sz":""}},
{"type":"Feature","geometry":{"type":"Polygon","coordinates":[[[-7.8,33.59],[-7.88,33.59],[-8.55,33.33],[-9.2,32.75],[-9.33,32.49],[-9.31,32.17],[-9.8,31.59],[-9.85,31.14],[-8.64,31.34],[-8.05,31.59],[-7.91,31.85],[-7.62,32.04],[-7.63,32.24],[-7.42,32.49],[-7.37,32.81],[-7.56,33.39],[-7.79,33.46],[-7.8,33.59]]]},"properties":{"NAME":"Barghawata Conference","C":0,"name":"Barghawata Conference","start_year":793,"end_year":1014,"capital":"","type":"polity","region":"","event":"","source":"Cliopatria / Seshat Global History Databank (CC BY 4.0)","wikipedia":"Casablanca","wikidata":"Q7903","_a":6,"_c":[-8.61,32.37],"_nz":"巴尔加瓦塔联盟","_sz":""}},
{"type":"Feature","geometry":{"type":"Polygon","coordinates":[[[78.69,27.67],[78.32,27.74],[77.72,27.74],[77.44,27.87],[76.7,27.93],[75.49,27.93],[72.64,27.54],[71.55,27.29],[71.15,26.64],[70.8,26.32],[70.18,26.19],[69.85,26],[69.29,25.16],[68.84,23.94],[68.35,23.56],[68.34,23.43],[68.55,23.36],[68.81,22.98],[69.45,22.72],[69.75,22.72],[70.07,22.91],[70.36,22.85],[70.18,22.59],[69.5,22.46],[69.41,22.34],[68.98,22.46],[69.01,22.08],[69.77,21.5],[70.3,20.86],[70.72,20.66],[71.32,20.73],[71.41,20.86],[72.18,21.18],[72.32,21.76],[72.38,22.27],[72.53,22.27],[72.49,21.95],[72.54,21.76],[72.76,21.69],[73.52,21.82],[74.53,22.21],[76.49,22.46],[77.24,22.46],[78.01,22.72],[79.67,22.91],[79.93,24.26],[79.86,24.26],[79.95,24.91],[79.88,24.91],[80.03,25.42],[79.95,25.42],[79.96,25.94],[78.99,26.39],[78.8,26.64],[78.5,26.64],[78.16,26.84],[78.18,27.35],[78.69,27.67]]]},"properties":{"NAME":"Gurjara-Pratihara Dynasty","C":1,"name":"Gurjara-Pratihara Dynasty","start_year":793,"end_year":805,"capital":"","type":"polity","region":"","event":"","source":"Cliopatria / Seshat Global History Databank (CC BY 4.0)","wikipedia":"Gurjara-Pratihara dynasty","wikidata":"Q5324","_a":85,"_c":[74.19,24.3],"_nz":"瞿折罗-波罗提诃罗王朝","_sz":""}},
{"type":"Feature","geometry":{"type":"Polygon","coordinates":[[[-4.45,35.26],[-4.51,34.94],[-3.5,34.81],[-3.12,34.94],[-2.42,34.94],[-2.2,35.07],[-2.82,35.13],[-2.98,35.26],[-3.13,35.19],[-4.45,35.26]]]},"properties":{"NAME":"Emirate of Nekor","C":5,"name":"Emirate of Nekor","start_year":793,"end_year":921,"capital":"","type":"polity","region":"","event":"","source":"Cliopatria / Seshat Global History Databank (CC BY 4.0)","wikipedia":"Emirate of Nekor","wikidata":"Q1709337","_a":1,"_c":[-3.35,35.13],"_nz":"内科尔埃米尔国","_sz":""}},
{"type":"Feature","geometry":{"type":"MultiPolygon","coordinates":[[[[73,40.74],[73.14,40.68],[73.08,40.74],[73,40.74]]],[[[112.97,40.94],[113.43,41.2],[114.66,42.11],[114.85,42.56],[116.44,44.39],[116.93,44.78],[118.02,46.22],[118.49,46.68],[118.55,47.01],[119.04,47.73],[119.06,47.99],[119.26,48.39],[120.17,49.85],[120.08,49.85],[120.72,50.98],[120.82,51.31],[120.76,51.45],[120.03,51.58],[119.42,51.98],[119.45,52.12],[118.85,52.32],[118.79,52.45],[118.34,52.52],[118.28,52.65],[117.05,52.72],[114.99,52.18],[113.86,52.05],[112.27,51.65],[110.36,51.58],[109.98,51.65],[110,51.78],[109.27,51.71],[108.72,51.78],[107.22,51.58],[104.93,50.98],[103.7,50.91],[103.5,50.98],[103.46,51.18],[103.22,51.31],[103.32,51.58],[103.19,51.65],[103.3,51.92],[102.8,52.05],[102.51,52.25],[101.88,52.32],[101.72,52.45],[101.65,52.72],[101.39,52.72],[101.23,52.86],[100.64,52.99],[100.55,52.86],[100.07,52.79],[99.28,52.38],[99.01,52.12],[98.25,52.25],[98.3,52.32],[97.92,52.52],[96.38,52.52],[94.58,52.25],[92.38,51.58],[91.1,51.58],[90.72,51.65],[90.63,51.78],[90.21,51.78],[90.12,51.92],[89.86,51.92],[89.41,51.58],[89.29,51.38],[88.43,50.91],[86.61,49.58],[85.67,48.39],[85.64,48.32],[85.43,47.73],[85.17,47.53],[80.92,46.87],[80.73,46.81],[80.62,46.55],[80.3,45.24],[80.41,44.91],[80.3,44.25],[80.36,43.99],[80.52,43.8],[81.62,44.12],[85.72,44.97],[89.13,44.97],[89.23,44.84],[89.63,44.84],[89.73,44.71],[90.53,44.52],[90.87,44.39],[91.32,44.12],[91.38,43.93],[91.55,43.93],[91.61,43.73],[91.78,43.73],[91.85,43.54],[92.01,43.54],[92.07,43.34],[92.24,43.34],[92.35,43.08],[92.52,43.08],[92.58,42.89],[92.74,42.89],[92.81,42.69],[92.97,42.69],[93.04,42.5],[93.2,42.5],[93.6,41.98],[93.54,41.85],[94.1,41.13],[94.26,41.13],[94.49,40.94],[96.93,41.07],[96.9,41],[97.63,40.87],[98.04,40.55],[98.27,40.55],[98.5,40.36],[98.95,40.29],[99.28,40.16],[99.38,40.03],[100.17,40.03],[100.38,39.97],[100.74,39.71],[101.26,39.64],[101.54,39.38],[101.48,39.26],[101.63,39.06],[102.12,38.93],[102.12,38.74],[102.4,38.67],[102.6,38.42],[102.76,38.42],[103.38,38.03],[103.69,38.03],[103.76,37.84],[104.62,37.64],[105.43,37.9],[106.16,37.96],[106.38,38.09],[107.39,39.45],[107.44,39.71],[107.64,39.97],[108.51,40.74],[109.79,41.07],[110.87,41],[111.27,40.87],[112.97,40.94]]]]},"properties":{"NAME":"Uyghur Khaganate","C":8,"name":"Uyghur Khaganate","start_year":793,"end_year":839,"capital":"","type":"polity","region":"","event":"","source":"Cliopatria / Seshat Global History Databank (CC BY 4.0)","wikipedia":"Uyghur Khaganate","wikidata":"Q831218","_a":734,"_c":[96.9,45.32],"_nz":"回鹘汗国","_sz":""}},
{"type":"Feature","geometry":{"type":"Polygon","coordinates":[[[76.96,12.82],[77.84,11.81],[79.8,11.85],[80.17,12.45],[80.37,13.28],[80.15,14.28],[80.2,14.6],[80.08,15.1],[80.11,15.2],[80.21,15.53],[79.61,15.58],[79.06,15.4],[78.87,15.13],[79.24,14.6],[78.96,14.32],[77.44,14.46],[76.96,12.82]]]},"properties":{"NAME":"Late Pallava Empire","C":3,"name":"Late Pallava Empire","start_year":800,"end_year":805,"capital":"","type":"polity","region":"","event":"","source":"Cliopatria / Seshat Global History Databank (CC BY 4.0)","wikipedia":"Pallava dynasty","wikidata":"Q466803","_a":13,"_c":[78.66,13.7],"_nz":"后期帕拉瓦帝国","_sz":""}},
{"type":"Feature","geometry":{"type":"Polygon","coordinates":[[[-4.27,50.38],[-4.09,50.25],[-3.58,50.25],[-3.46,50.65],[-2.79,50.71],[-2.61,50.58],[-1.52,50.71],[-1.51,50.58],[-1.18,50.58],[-1.11,50.78],[0.49,50.78],[1.31,51.11],[1.38,51.38],[0.86,51.51],[0.84,51.78],[1.18,51.78],[1.17,51.98],[1.43,51.98],[1.74,52.38],[1.62,52.86],[1.09,53.06],[0.49,53.06],[0.34,52.86],[0.07,52.99],[0.32,53.12],[0.3,53.39],[0.02,53.66],[-0.68,53.73],[-0.75,53.53],[-1.09,53.53],[-1.33,53.33],[-1.7,53.6],[-2.54,53.33],[-2.88,53.33],[-3.15,53.46],[-3.49,53.39],[-3.27,52.99],[-3.07,52.72],[-3.14,52.52],[-2.87,52.38],[-2.93,52.12],[-2.82,51.92],[-2.63,51.65],[-2.95,51.51],[-3.09,51.25],[-4.2,51.31],[-4.43,51.05],[-4.68,51.05],[-4.66,50.85],[-4.31,50.71],[-4.27,50.38]]]},"properties":{"NAME":"Kingdom of Mercia","C":9,"name":"Kingdom of Mercia","start_year":800,"end_year":805,"capital":"","type":"polity","region":"","event":"","source":"Cliopatria / Seshat Global History Databank (CC BY 4.0)","wikipedia":"Mercia","wikidata":"Q105092","_a":22,"_c":[-1.47,51.99],"_nz":"麦西亚王国","_sz":""}},
{"type":"Feature","geometry":{"type":"MultiPolygon","coordinates":[[[[104.12,10.44],[103.91,10.44],[103.81,10.25],[103.94,10.06],[104.09,10.06],[104.12,10.44]]],[[[108.24,13.34],[106.3,13.08],[106.24,13.21],[105.88,13.21],[105.54,13.46],[104.15,13.53],[104.12,13.27],[103.81,13.14],[103.8,13.01],[103.51,13.01],[103.39,13.27],[103.24,13.27],[103.35,13.59],[102.63,13.72],[102.58,13.85],[101.87,14.04],[101.68,13.08],[101.81,12.95],[101.79,12.69],[101.78,12.63],[102.11,12.31],[102.26,12.31],[102.22,11.99],[102.44,11.99],[102.6,12.11],[102.73,11.92],[102.87,11.86],[102.84,11.6],[103.05,11.47],[103.06,10.83],[103.36,10.83],[103.6,11.09],[103.64,10.76],[103.49,10.7],[103.55,10.51],[103.92,10.57],[104.12,10.44],[104.42,10.44],[104.54,10.19],[105.03,9.99],[104.79,9.74],[104.7,8.64],[104.76,8.51],[105.14,8.58],[105.62,9.16],[106.14,9.29],[106.23,9.48],[106.6,9.54],[106.55,9.8],[106.64,9.99],[106.79,10.06],[106.82,10.31],[106.76,10.44],[106.98,10.51],[107.34,10.38],[108.03,10.7],[108.12,10.89],[108.57,11.02],[109.05,11.41],[109.05,11.47],[108.62,11.54],[108.5,11.73],[108.14,11.79],[108.1,12.11],[108.25,12.18],[108.35,13.08],[108.24,13.34]]]]},"properties":{"NAME":"Water Chenla","C":8,"name":"Water Chenla","start_year":800,"end_year":805,"capital":"","type":"polity","region":"","event":"","source":"Cliopatria / Seshat Global History Databank (CC BY 4.0)","wikipedia":"Chenla","wikidata":"Q1057118","_a":41,"_c":[105.37,11.27],"_nz":"水真腊","_sz":""}},
{"type":"Feature","geometry":{"type":"MultiPolygon","coordinates":[[[[12.17,53.94],[12.69,54],[12.79,54.27],[12.7,54.41],[12.44,54.48],[12.01,54.27],[12.17,53.94]]],[[[39.08,57.63],[38.9,57.63],[38.83,57.35],[39.11,57.08],[39.75,57.14],[40.04,57.56],[39.79,57.63],[39.69,57.9],[39.33,57.9],[39.08,57.63]]],[[[31.82,60.14],[31,60.14],[30.84,59.78],[31.08,59.64],[31.9,59.64],[32.12,60.28],[31.82,60.14]]],[[[-1.28,60.77],[-1.63,60.63],[-1.67,60.21],[-1.2,60.07],[-1.16,60.56],[-0.81,60.63],[-0.83,60.84],[-1.28,60.77]]],[[[-7.32,62.33],[-7.28,62.05],[-6.69,61.9],[-6.66,62.26],[-6.96,62.4],[-7.32,62.33]]]]},"properties":{"NAME":"Viking settlements","C":4,"name":"Viking settlements","start_year":800,"end_year":805,"capital":"","type":"polity","region":"","event":"","source":"Cliopatria / Seshat Global History Databank (CC BY 4.0)","wikipedia":"Vikings","wikidata":"Q12567","_a":401,"_c":[16.36,58.17],"_nz":"维京定居点","_sz":""}},
{"type":"Feature","geometry":{"type":"Polygon","coordinates":[[[104.91,21.11],[105.24,21.31],[105.85,21.37],[106.1,21.56],[106.62,21.56],[106.9,21.89],[108.08,22.27],[108.36,22.59],[108.29,22.98],[107.95,23.17],[107.85,23.43],[107.97,24.46],[108.25,25.42],[108.18,25.42],[108.31,26.32],[107.97,26.45],[107.91,26.84],[106.9,27.03],[106.61,27.35],[106.46,27.35],[106.18,27.74],[106.26,28.32],[106.13,28.38],[106.18,28.57],[105.52,28.38],[105.42,27.99],[105.22,27.8],[104.6,27.74],[104.32,27.8],[104.64,28.44],[104.14,28.57],[103.9,28.51],[103.87,28.12],[103.55,27.74],[103.32,27.74],[103.27,27.22],[103.34,27.22],[103.42,26.58],[103.28,26.32],[102.91,26.32],[102.64,26.13],[102.19,26.13],[102.14,26.58],[101.66,26.77],[101.63,26.97],[101.15,26.84],[99.41,26.77],[98.78,26.64],[98.69,25.87],[98.1,25.55],[98.05,25.29],[97.8,25.16],[97.73,24.84],[97.57,24.78],[97.53,24.52],[97.73,24.39],[97.57,23.94],[97.71,23.88],[98.12,24.07],[98.88,24.14],[98.67,23.81],[98.81,23.75],[98.88,23.3],[99.07,23.11],[99.57,22.98],[99.4,22.85],[99.28,22.08],[100.01,22.01],[99.97,21.76],[100.17,21.63],[100.21,21.44],[100.66,21.44],[101.08,21.76],[101.38,21.76],[101.8,21.63],[101.78,21.5],[103.28,21.56],[103.48,21.44],[103.72,21.5],[104.28,21.31],[104.66,21.37],[104.93,21.18],[104.91,21.11]]]},"properties":{"NAME":"Nanzhao","C":7,"name":"Nanzhao","start_year":800,"end_year":829,"capital":"","type":"polity","region":"","event":"","source":"Cliopatria / Seshat Global History Databank (CC BY 4.0)","wikipedia":"Nanzhao","wikidata":"Q1045322","_a":81,"_c":[102.95,24.84],"_nz":"南诏","_sz":""}},
{"type":"Feature","geometry":{"type":"Polygon","coordinates":[[[108.24,13.34],[108.28,13.66],[108.06,14.24],[108.08,14.94],[107.9,15.2],[107.67,15.2],[107.69,15.33],[107.3,15.65],[107.5,16.04],[107.15,16.16],[106.97,16.42],[106.69,16.49],[106.57,16.68],[106.49,16.68],[104.89,16.29],[104.3,16.29],[104.28,16.16],[103.66,15.91],[103.52,15.97],[103.26,15.71],[102.28,15.01],[101.87,14.11],[101.87,14.04],[102.58,13.85],[102.63,13.72],[103.35,13.59],[103.58,13.66],[103.6,13.79],[103.89,13.79],[103.87,13.66],[104.15,13.53],[105.54,13.46],[105.88,13.21],[106.24,13.21],[106.3,13.08],[108.24,13.34]]]},"properties":{"NAME":"Land Chenla","C":4,"name":"Land Chenla","start_year":800,"end_year":805,"capital":"","type":"polity","region":"","event":"","source":"Cliopatria / Seshat Global History Databank (CC BY 4.0)","wikipedia":"Chenla","wikidata":"Q1057118","_a":23,"_c":[105.08,14.88],"_nz":"陆真腊","_sz":""}},
{"type":"Feature","geometry":{"type":"Polygon","coordinates":[[[26.45,45.04],[26.47,45.24],[26.23,45.3],[26.19,45.69],[25.95,45.76],[25.9,46.09],[25.75,46.28],[25.71,46.68],[25.41,47.01],[25.51,47.2],[25.28,47.33],[24.89,47.66],[24.67,47.99],[23.68,47.99],[23.28,48.13],[22.77,47.99],[22.58,47.6],[22.32,47.53],[22.17,47.66],[21.99,47.53],[21.58,47.53],[21.52,47.8],[20.54,47.99],[19.86,47.66],[19.53,47.66],[19.45,47.8],[18.95,47.73],[19.03,47.53],[19.19,47.47],[19.17,47.2],[18.84,47.07],[18.81,46.61],[19.05,46.41],[18.86,45.89],[18.93,45.56],[19,45.5],[19,45.37],[19.24,45.3],[19.14,44.91],[19.62,44.91],[19.62,44.78],[20.02,44.71],[20.11,44.97],[20.37,45.17],[20.44,44.97],[20.67,44.71],[21.41,44.84],[21.87,44.52],[22.11,44.45],[22.37,44.65],[24.23,44.71],[24.33,44.84],[24.73,44.78],[26.45,45.04]]]},"properties":{"NAME":"Avar Khaganate","C":4,"name":"Avar Khaganate","start_year":800,"end_year":805,"capital":"","type":"polity","region":"","event":"","source":"Cliopatria / Seshat Global History Databank (CC BY 4.0)","wikipedia":"Pannonian Avars","wikidata":"Q68962","_a":28,"_c":[22.63,46.29],"_nz":"阿瓦尔汗国","_sz":""}},
{"type":"Feature","geometry":{"type":"MultiPolygon","coordinates":[[[[14.64,55.29],[14.64,55.09],[15.07,55.02],[15.08,55.23],[14.64,55.29]]],[[[10.28,56.25],[10.81,56.18],[10.9,56.52],[10.28,56.59],[10.28,57.08],[10.55,57.28],[10.46,57.77],[9.92,57.7],[9.83,57.56],[9.39,57.21],[8.5,57.21],[7.98,56.66],[8,55.63],[8.53,55.36],[8.53,54.82],[8.8,54.61],[8.8,54.48],[9.93,54.55],[10.01,55.02],[10.54,55.02],[10.54,54.75],[10.8,54.82],[10.89,55.16],[10.8,55.43],[10.63,55.63],[9.75,55.57],[9.93,55.84],[10.28,55.98],[10.28,56.25]]],[[[17.06,68.12],[17.27,68.27],[17.29,68.5],[18,68.65],[18.02,68.88],[18.43,68.95],[18.65,69.18],[19.16,69.26],[19.38,69.41],[18.79,69.56],[18.92,69.79],[18.31,69.79],[17.89,69.64],[16.87,69.49],[17.04,69.11],[17.65,69.18],[17.52,68.88],[16.61,68.73],[16.62,68.88],[15.92,68.88],[15.94,69.11],[15.75,69.33],[14.52,68.88],[14.4,68.5],[14.19,68.2],[15.58,68.27],[15.36,67.97],[15.07,67.97],[14.95,67.67],[14.55,67.52],[14.44,67.3],[14.13,67.07],[13.64,67.07],[13.63,66.77],[13.24,66.77],[12.94,66.62],[13.12,66.25],[12.35,66.25],[12.34,65.88],[12.53,65.74],[12.14,65.59],[12.04,65.44],[12.13,65.15],[11.45,65],[11.35,64.86],[11.44,64.57],[10.87,64.64],[10.3,64.42],[10.3,64.28],[9.92,64.13],[9.92,63.99],[9.54,63.91],[9.54,63.62],[9.26,63.41],[8.98,63.48],[9.07,63.7],[8.5,63.7],[8.22,63.48],[7.84,63.55],[7.75,63.34],[7.95,63.05],[6.92,63.05],[6.92,62.83],[7.39,62.76],[7.4,62.62],[6.64,62.76],[6.56,62.47],[5.91,62.4],[5.44,62.4],[5.45,62.19],[5.08,62.26],[5.19,61.9],[4.91,61.76],[5.03,61.19],[4.95,61.05],[5.16,60.49],[4.89,60.42],[4.9,60.21],[5.26,60.28],[5.45,60.14],[5.18,60],[5.28,59.78],[5.21,59.29],[5.85,59.29],[5.95,59.02],[5.5,59.02],[5.51,58.6],[5.97,58.32],[6.52,58.25],[6.61,58.04],[7.6,57.97],[8.67,58.32],[9.11,58.74],[9.38,58.74],[9.65,59.02],[10.01,58.95],[10.37,59.16],[10.47,59.43],[10.83,59.16],[11.1,59.16],[11.18,58.39],[11.45,58.32],[11.45,58.11],[11.71,58.11],[11.79,57.42],[12.06,57.35],[12.14,57.08],[12.41,56.94],[12.4,56.8],[12.75,56.66],[12.57,56.52],[12.66,56.32],[12.48,56.18],[11.33,56.05],[11.24,55.84],[10.89,55.77],[11.06,55.57],[10.97,55.29],[11.5,55.23],[11.67,55.09],[11.67,54.89],[10.97,55.02],[10.88,54.75],[12.1,54.75],[12.11,55.16],[12.37,55.23],[12.38,55.43],[12.2,55.57],[12.56,55.7],[12.56,55.98],[12.91,55.77],[12.81,55.36],[14.3,55.36],[14.23,55.91],[14.76,55.98],[14.77,56.18],[15.82,56.11],[16.63,56.39],[16.74,56.8],[16.92,56.94],[16.5,57.28],[16.69,57.42],[16.63,57.9],[16.81,58.04],[16.85,58.6],[17.13,58.74],[17.49,58.74],[17.5,58.88],[17.95,58.88],[18.14,59.09],[18.41,59.09],[18.35,59.43],[18.63,59.5],[19.01,59.71],[19.03,60],[18.61,60.42],[18.07,60.49],[17.99,60.63],[17.62,60.63],[17.13,60.21],[16.76,60.14],[16.57,59.92],[15.84,59.85],[15.65,59.71],[15.38,59.78],[14.65,59.71],[14.2,59.78],[13.84,59.92],[12.66,60.07],[11.93,60.35],[11.39,60.77],[11.21,61.19],[10.94,61.48],[10.57,62.62],[10.85,62.69],[10.86,63.12],[11.43,63.84],[11.44,64.06],[11.73,64.35],[11.73,64.49],[12.02,64.64],[12.02,64.79],[12.41,65.08],[12.7,65.15],[12.9,65.44],[13.6,65.96],[13.79,65.96],[15.72,67.37],[16.32,67.52],[16.43,67.74],[16.43,67.67],[16.43,67.74],[16.64,67.82],[16.74,67.89],[16.74,67.82],[16.84,67.89],[16.94,67.97],[17.05,68.05],[17.06,68.12]],[[16.85,67.97],[16.84,67.89],[16.74,67.89],[16.85,67.97]]],[[[14.09,68.2],[14.1,68.42],[13.7,68.42],[13.39,68.2],[13.59,68.12],[14.09,68.2]]],[[[19.05,57.97],[18.6,57.97],[18.23,57.83],[18.03,57.56],[18.08,56.94],[18.34,56.94],[18.45,57.21],[18.91,57.42],[18.84,57.7],[19.05,57.97]]]]},"properties":{"NAME":"Scandinavian minor kingdoms","C":2,"name":"Scandinavian minor kingdoms","start_year":800,"end_year":805,"capital":"","type":"polity","region":"","event":"","source":"Cliopatria / Seshat Global History Databank (CC BY 4.0)","wikipedia":"Viking Age","wikidata":"Q213649","_a":222,"_c":[12.14,62.14],"_nz":"斯堪的纳维亚小王国","_sz":""}},
{"type":"Feature","geometry":{"type":"Polygon","coordinates":[[[18.89,30.31],[18.59,30.37],[18.22,30.76],[17.47,31.08],[16.18,31.21],[15.65,31.4],[15.58,31.59],[15.42,31.66],[15.28,32.3],[15.06,32.43],[14.75,32.43],[14.67,32.56],[14.44,32.49],[14.07,32.75],[13.76,32.75],[13.76,32.88],[13.45,32.81],[13.3,32.94],[12.84,32.88],[12.84,32.75],[12.53,32.75],[12.23,32.81],[11.46,33.2],[11.16,33.2],[11.08,33.59],[10.7,33.52],[10.54,33.71],[10.24,33.71],[10.01,33.91],[10.08,34.23],[10,34.29],[10.54,34.55],[10.85,34.81],[10.85,34.94],[11.08,35],[11.01,35.39],[10.85,35.77],[10.7,35.71],[10.46,35.9],[10.54,36.35],[10.46,36.42],[11.01,36.8],[11.01,37],[10.46,36.74],[10.23,36.8],[10.31,37.06],[10.23,37.25],[9.99,37.19],[9.6,37.32],[9.06,37.06],[8.9,37.13],[8.52,36.87],[7.74,36.87],[7.66,37],[7.35,37.06],[7.19,36.87],[6.8,36.87],[6.33,37.06],[6.1,36.93],[6.11,36.8],[5.64,36.8],[5.56,36.67],[5.33,36.74],[5.47,36.43],[5.32,36.1],[5.32,35.71],[5.53,35.62],[5.35,34.61],[6.15,34.71],[7.23,34.5],[7.61,34.55],[9.16,34.1],[9.26,34.05],[9.24,33.52],[9.7,33.14],[9.86,32.81],[10.14,32.9],[12.33,31.91],[13.37,32.05],[14.21,31.68],[15.16,30.58],[16.16,30.12],[17.44,29.86],[17.82,29.67],[18.04,29.34],[18.71,29.15],[18.87,29.34],[18.72,29.54],[18.81,29.79],[18.89,30.31]]]},"properties":{"NAME":"Aghlabid Dynasty","C":6,"name":"Aghlabid Dynasty","start_year":800,"end_year":829,"capital":"","type":"polity","region":"","event":"","source":"Cliopatria / Seshat Global History Databank (CC BY 4.0)","wikipedia":"Aghlabids","wikidata":"Q207600","_a":112,"_c":[12.11,33.21],"_nz":"阿格拉布王朝","_sz":""}},
{"type":"Feature","geometry":{"type":"MultiPolygon","coordinates":[[[[42.01,16.61],[42.23,16.61],[42.17,16.81],[42.02,16.81],[42.01,16.61]]],[[[59,20.66],[58.77,20.6],[58.67,20.21],[58.82,20.21],[58.98,20.41],[59,20.66]]],[[[50.65,25.87],[50.69,26.26],[50.46,26.26],[50.43,25.94],[50.65,25.87]]],[[[69.5,43.41],[69.42,43.41],[68.11,42.11],[66.89,41.26],[66.28,40.81],[65.69,40.68],[65.39,40.74],[65.35,40.61],[63.26,40.23],[62.74,40.03],[62.5,40.03],[62.47,40.23],[62.33,40.29],[62.4,40.55],[62.3,40.74],[62.53,41],[62.39,41.07],[62.46,41.33],[62.15,41.65],[62.19,41.78],[60.82,42.89],[60.84,42.95],[60.39,43.34],[60.37,43.54],[59.12,43.41],[58.63,43.67],[58.34,43.47],[58.05,43.02],[57.96,42.37],[57.56,41.78],[57.46,41.39],[56.83,40.74],[54.39,40.81],[54.37,40.74],[53.4,40.68],[53.34,40.74],[52.94,40.74],[52.78,40.36],[52.79,40.03],[53.5,40.03],[53.52,39.38],[53.99,39],[53.83,37.84],[53.91,37.45],[54.09,37.19],[54.03,36.87],[53.09,36.8],[52.19,36.55],[51.26,36.61],[50.53,36.87],[50.32,37],[50,37.38],[49.09,37.51],[48.88,37.71],[48.84,38.35],[48.76,38.35],[48.8,39],[48.92,39.19],[49.15,39.19],[49.27,39.38],[49.51,40.23],[49.69,40.36],[50.26,40.42],[50.05,40.55],[49.51,40.61],[49.24,40.87],[49.27,41],[49.06,41.13],[49.09,41.26],[48.28,41.98],[48.2,41.98],[48.18,41.52],[47.89,41.26],[47.56,41.2],[47.27,41.33],[46.74,41.85],[46.35,41.91],[46.3,42.04],[45.75,42.11],[45.67,42.5],[45.23,42.69],[44.82,42.69],[44.74,42.69],[44.36,42.76],[43.85,42.63],[43.66,42.89],[43.42,42.89],[42.99,43.15],[42.5,43.15],[42.61,42.82],[42.75,42.76],[42.72,42.56],[42.93,42.43],[42.61,41.52],[41.73,41.46],[41.08,40.94],[40.58,40.74],[39.59,39.97],[38.84,39.71],[38.3,39.77],[38.16,39.9],[38.15,39.84],[37.68,39.26],[37.43,39.19],[37.31,38.87],[37.07,38.8],[37.13,38.67],[36.79,38.48],[36.61,38.22],[36.46,38.29],[36.15,37.71],[35.82,37.51],[35.35,37.51],[35.03,37.45],[34.78,37.25],[34.66,36.87],[34.89,36.87],[35.33,36.61],[35.49,36.61],[35.83,36.93],[36.14,36.93],[36.29,36.8],[36.26,36.61],[35.84,36.29],[35.99,36.22],[35.84,35.58],[35.99,35.52],[35.93,34.87],[36.07,34.74],[36.05,34.55],[35.79,34.29],[35.64,34.36],[35.68,33.97],[35.45,33.91],[35.5,33.65],[35.35,33.65],[35.4,33.39],[35.22,33.07],[35.06,33.01],[35.02,32.62],[34.77,32.36],[34.81,31.98],[34.57,31.85],[34.63,31.66],[34.31,31.4],[34.3,31.27],[33.75,31.08],[32.83,31.01],[32.77,31.14],[32.53,31.08],[32,31.08],[31.88,31.46],[31.27,31.46],[30.97,31.53],[30.81,31.46],[30.35,31.46],[30.34,31.27],[29.88,31.27],[29.87,31.08],[29.63,30.95],[29.49,31.01],[29.4,30.82],[28.87,30.82],[28.5,31.01],[27.51,31.14],[27.3,31.34],[26.85,31.46],[25.25,31.46],[25.1,31.59],[25.11,31.79],[24.89,31.98],[24.13,31.98],[23.68,32.17],[23.3,32.17],[23.08,32.36],[23.09,32.62],[21.88,32.94],[21.41,32.75],[21.11,32.81],[20.87,32.62],[20.33,32.49],[20.25,32.24],[20.09,32.11],[20,31.59],[20.21,31.27],[20.13,31.14],[20.2,30.89],[19.97,30.69],[19.96,30.56],[19.66,30.37],[19.27,30.24],[18.89,30.31],[18.81,29.79],[18.72,29.54],[18.87,29.34],[18.71,29.15],[19.77,29.22],[21.23,29.86],[22.45,30.05],[23.74,29.99],[24.78,29.54],[24.85,29.34],[25,29.41],[25.15,29.28],[25.37,29.28],[25.59,28.96],[27.14,28.25],[28.15,27.35],[28.27,26.58],[28.35,26.58],[28.24,25.94],[28.29,25.16],[28.57,24.65],[29.67,24.2],[30.1,23.75],[30.4,23.56],[30.54,23.36],[31.67,23.75],[32.04,23.69],[33.39,23.81],[33.68,23.69],[35.11,23.88],[35.55,23.81],[35.56,23.94],[35.85,23.88],[35.86,24.01],[35.15,24.65],[34.61,25.81],[34.46,25.87],[34.2,26.52],[34.05,26.58],[34.07,26.97],[33.93,27.03],[33.8,27.42],[33.59,27.61],[33.61,27.99],[33.11,28.38],[32.84,28.89],[32.69,28.96],[32.64,29.34],[32.43,29.6],[32.53,29.92],[32.86,29.22],[33.21,28.89],[33.19,28.51],[33.4,28.32],[33.55,28.32],[33.62,28.12],[34.12,27.74],[34.35,27.74],[34.36,27.93],[34.52,28.06],[34.75,29.28],[34.91,29.41],[34.85,28.57],[34.61,28.25],[34.59,28.06],[35.05,28.12],[35.41,27.87],[35.47,27.61],[35.61,27.54],[35.67,27.29],[36.16,26.77],[36.43,26.19],[36.72,26],[36.77,25.68],[37.27,25.23],[37.33,24.97],[37.17,24.78],[37.39,24.65],[37.44,24.33],[38.03,24.14],[38.6,23.62],[38.87,23.04],[38.86,22.85],[39.14,22.53],[39.03,21.76],[39.17,21.63],[39.15,21.18],[39.35,20.79],[39.84,20.28],[40.14,20.28],[40.56,19.83],[40.85,19.7],[40.84,19.51],[40.99,19.44],[41.04,19.12],[41.25,18.86],[41.24,18.61],[41.45,18.48],[41.78,17.84],[42.28,17.45],[42.34,17.13],[42.82,16.61],[42.78,15.84],[42.71,15.84],[42.75,15.14],[42.89,15.07],[42.95,14.88],[43.06,13.98],[43.26,13.72],[43.24,13.08],[43.45,12.89],[43.44,12.69],[44.39,12.63],[44.61,12.76],[45.05,12.76],[45.74,13.34],[47.07,13.46],[47.67,13.72],[47.75,13.91],[48.79,14.04],[49.41,14.69],[50.23,14.81],[50.76,15.07],[51.27,15.14],[51.88,15.46],[52.1,15.46],[52.26,15.59],[52.38,16.29],[53.13,16.55],[53.22,16.68],[53.59,16.68],[54.2,17],[55.16,17],[55.31,17.13],[55.35,17.58],[55.59,17.84],[56.41,17.9],[56.64,18.09],[56.75,18.54],[57,18.8],[57.9,18.99],[57.87,19.51],[57.79,19.51],[57.93,20.28],[58.1,20.54],[58.25,20.54],[58.31,20.34],[58.61,20.41],[58.8,20.92],[59.44,21.44],[59.86,22.08],[59.9,22.53],[59.54,22.66],[59.27,22.91],[59.28,23.04],[59.07,23.17],[59.08,23.3],[58.81,23.62],[57.49,23.88],[56.79,24.33],[56.54,24.91],[56.4,24.97],[56.46,25.55],[56.39,25.55],[56.54,26.32],[56.48,26.39],[56.17,26.32],[55.97,25.87],[55.41,25.55],[55.14,25.1],[54.74,24.84],[54.56,24.46],[54.32,24.26],[54.1,24.33],[54.08,24.14],[53.11,24.14],[52.6,24.26],[52.28,24.01],[51.91,24.01],[51.85,24.26],[51.41,24.33],[51.52,24.78],[51.69,24.97],[51.72,25.29],[51.57,25.36],[51.7,25.87],[51.42,26.13],[51.12,26.13],[50.95,25.94],[50.92,25.62],[50.61,25.42],[50.33,25.62],[50.21,26],[50.25,26.45],[50.12,26.58],[50.13,26.77],[49.36,27.29],[49.24,27.61],[48.87,27.67],[48.97,27.93],[48.56,28.32],[48.46,28.77],[48.19,29.09],[48.22,29.28],[47.87,29.54],[48.4,29.6],[48.37,29.92],[48.9,29.99],[48.99,30.05],[48.94,30.31],[49.59,29.99],[50.06,30.18],[50.24,29.73],[50.65,29.41],[50.62,29.15],[50.92,29.09],[50.81,28.83],[51.03,28.77],[51.07,28.44],[51.33,28.12],[51.32,27.99],[51.6,27.8],[52.05,27.8],[52.48,27.61],[52.74,27.22],[53.46,26.97],[53.66,26.71],[54.26,26.71],[54.46,26.52],[54.83,26.45],[55.24,26.77],[55.29,26.52],[55.6,26.64],[56.06,26.71],[56.31,26.9],[56.19,27.16],[56.71,27.16],[57.05,26.84],[57.11,26.07],[57.38,25.74],[57.68,25.74],[57.74,25.62],[57.96,25.55],[58.78,25.55],[59.06,25.36],[60.63,25.36],[60.62,25.23],[60.92,25.23],[61.13,25.1],[61.66,25.16],[61.72,25.04],[62.02,25.04],[62.18,25.16],[62.47,25.1],[62.56,25.23],[63.54,25.23],[63.63,25.36],[64.23,25.36],[64.28,25.23],[64.8,25.16],[64.82,25.29],[66.02,25.36],[66.35,25.55],[66.68,25.23],[66.63,24.84],[67.21,24.71],[67.29,24.07],[67.54,24.26],[67.76,24.91],[68.22,25.55],[68.19,25.94],[68.06,26.07],[67.99,26.64],[67.92,26.64],[68.09,27.29],[68.52,27.67],[69.23,27.87],[70.17,28.51],[70.39,28.96],[70.56,29.86],[68.43,30.24],[67.15,30.31],[67.17,30.37],[66.34,30.44],[65.63,30.69],[64.59,30.82],[64.46,30.95],[64.33,31.46],[64.25,31.46],[64.28,32.04],[64.21,32.04],[64.22,32.49],[64.28,32.81],[64.25,33.07],[64.36,33.59],[64.74,33.97],[65.93,34.49],[66.37,35.07],[66.72,35.9],[66.9,36.03],[67.07,36.42],[67.8,36.55],[68.49,36.48],[68.6,36.61],[69,36.67],[70.24,36.67],[71.48,36.93],[71.58,37.58],[71.5,37.58],[71.79,38.35],[72.32,38.8],[73,39.26],[73.16,39.26],[73.42,39.58],[73.57,39.58],[73.8,40.29],[73.53,40.42],[73.14,40.68],[73,40.74],[71.76,41.33],[71.69,41.59],[71.38,41.85],[71.42,41.98],[71.25,42.17],[70.42,42.56],[70.11,43.08],[69.54,43.28],[69.5,43.41]]]]},"properties":{"NAME":"Abbasid Caliphate","C":1,"name":"Abbasid Caliphate","start_year":800,"end_year":813,"capital":"","type":"polity","region":"","event":"","source":"Cliopatria / Seshat Global History Databank (CC BY 4.0)","wikipedia":"Abbasid Caliphate","wikidata":"Q12536","_a":1710,"_c":[46.26,28.15],"_nz":"阿拔斯王朝","_sz":""}},
{"type":"Feature","geometry":{"type":"MultiPolygon","coordinates":[[[[9.49,43.02],[9.25,43.02],[9.17,42.76],[8.77,42.69],[8.53,42.5],[8.54,42.11],[8.78,41.72],[8.78,41.52],[9.1,41.33],[9.26,41.39],[9.58,41.98],[9.57,42.76],[9.49,43.02]]],[[[10.46,42.89],[10.13,42.89],[10.21,42.69],[10.46,42.69],[10.46,42.89]]],[[[18.95,47.73],[18.8,47.93],[18.63,47.8],[17.63,47.8],[17.31,47.93],[16.91,48.26],[16.84,48.52],[16.93,48.72],[16.68,48.85],[16.1,48.79],[15.61,48.99],[14.94,49.05],[14.68,48.65],[14.1,48.65],[14.02,48.79],[13.69,48.85],[13.53,49.05],[13.36,49.05],[13.2,49.25],[12.78,49.38],[12.37,49.78],[12.45,49.98],[12.04,50.31],[12.04,50.58],[12.3,50.65],[12.13,50.85],[12.13,51.05],[11.29,51.38],[11.38,51.58],[11.55,51.65],[11.55,51.85],[11.8,51.98],[11.55,52.18],[11.73,53.12],[11.39,53.19],[11.05,53.26],[10.88,53.46],[10.88,53.73],[11.22,54],[10.79,54],[10.1,54.07],[9.32,54.14],[8.89,54.48],[8.63,54.48],[8.54,54.27],[8.8,54.21],[8.89,53.87],[8.46,53.94],[8.38,53.66],[8.21,53.6],[7.94,53.73],[7.08,53.73],[6.92,53.46],[6.23,53.53],[5.54,53.39],[5.21,53.12],[5.39,52.86],[4.97,52.65],[4.87,52.99],[4.7,52.99],[4.45,52.72],[4.46,52.52],[4.22,52.32],[4.22,52.18],[3.81,51.92],[3.74,51.65],[3.4,51.65],[3.41,51.51],[3.16,51.45],[2.58,51.18],[1.66,51.05],[1.42,50.71],[1.45,50.25],[1.05,49.98],[0.22,49.85],[-0.01,49.65],[0.01,49.38],[-1.25,49.45],[-1.36,49.78],[-2.03,49.78],[-1.91,49.38],[-1.65,49.25],[-1.72,49.05],[-1.6,48.65],[-1.65,48.19],[-1.8,47.99],[-2.45,47.86],[-2.84,47.6],[-2.58,47.47],[-2.56,47.27],[-2.23,47.27],[-2.14,47.14],[-2.19,46.81],[-1.67,46.35],[-1.25,46.28],[-1.21,45.76],[-1.05,45.69],[-1.03,45.5],[-1.19,45.43],[-1.25,45.17],[-1.21,44.52],[-1.35,44.25],[-1.32,43.86],[-1.46,43.54],[-1.69,43.34],[-1.44,43.28],[-1.43,43.08],[-1.03,43.08],[-0.53,42.82],[0.04,42.76],[0.13,42.56],[-0.02,42.3],[-0.01,42.11],[0.16,41.98],[0.56,42.04],[0.72,41.91],[1.44,41.85],[1.6,41.98],[1.99,42.04],[2.4,41.85],[2.41,41.59],[2.49,41.59],[3.12,41.91],[3.18,42.37],[3.01,42.56],[2.98,43.15],[3.85,43.6],[4.17,43.6],[4.18,43.47],[5.06,43.47],[5.39,43.41],[5.8,43.15],[6.28,43.15],[6.52,43.21],[6.67,43.47],[6.99,43.54],[7.15,43.73],[8.03,43.93],[8.43,44.39],[9.16,44.45],[9.89,43.99],[10.21,43.99],[10.54,43.15],[11.18,43.08],[11.18,42.95],[10.94,42.89],[10.94,42.82],[11.26,42.43],[11.73,42.3],[11.73,42.24],[12.05,42.24],[12.14,42.5],[11.98,42.56],[12.06,42.95],[11.82,43.34],[12.22,43.41],[12.14,43.08],[12.3,43.08],[12.38,42.43],[12.62,42.43],[13.01,42.04],[13.33,41.91],[13.8,41.85],[13.96,41.72],[14.12,41.72],[14.37,41.98],[14.69,42.11],[14.61,42.11],[14.06,42.5],[13.9,42.76],[13.99,42.95],[13.75,43.08],[13.67,43.41],[13.36,43.67],[12.87,43.8],[12.31,44.19],[12.15,44.45],[12.16,44.84],[12.4,44.78],[12.4,45.04],[12.16,45.17],[12,45.37],[12,45.56],[12.16,45.69],[12.74,45.82],[12.98,45.82],[13.71,45.76],[13.63,45.5],[13.95,45.04],[14.19,45.04],[14.28,45.37],[14.93,45.43],[15.09,45.3],[15.42,45.3],[15.57,45.1],[15.98,45.1],[16.14,44.97],[16.46,44.97],[16.54,44.84],[16.86,44.91],[17.35,44.91],[17.52,45.04],[17.76,44.97],[17.93,45.1],[18.74,45.04],[18.81,44.84],[19.14,44.91],[19.24,45.3],[19,45.37],[19,45.5],[18.93,45.56],[18.86,45.89],[19.05,46.41],[18.81,46.61],[18.84,47.07],[19.17,47.2],[19.19,47.47],[19.03,47.53],[18.95,47.73]]]]},"properties":{"NAME":"Kingdom of the Franks","C":0,"name":"Kingdom of the Franks","start_year":800,"end_year":805,"capital":"","type":"polity","region":"","event":"","source":"Cliopatria / Seshat Global History Databank (CC BY 4.0)","wikipedia":"Francia","wikidata":"Q146246","_a":290,"_c":[8.2,47.91],"_nz":"法兰克王国","_sz":""}},
{"type":"Feature","geometry":{"type":"Polygon","coordinates":[[[-2.2,42.63],[-1.94,42.3],[-1.83,41.91],[-3.98,41.85],[-4.75,41.52],[-5.15,41.52],[-5.29,41.39],[-6.49,41.39],[-6.63,41.26],[-7.03,41.2],[-7.82,41.2],[-7.89,41.07],[-8.12,41.07],[-8.26,40.81],[-8.74,40.87],[-9.03,39.77],[-9.16,39.51],[-9.39,39.45],[-9.43,39.06],[-9.57,38.93],[-9.55,38.74],[-9.21,38.42],[-8.82,38.48],[-8.82,37.58],[-8.9,37.58],[-9,37],[-8.7,37.13],[-8.31,37.13],[-8.07,37],[-7.68,37],[-7.45,37.13],[-7.47,37.25],[-6.84,37.25],[-6.59,37],[-6.35,36.93],[-6.33,36.67],[-6.06,36.22],[-5.83,36.22],[-5.66,36.03],[-5.29,36.22],[-5.23,36.48],[-4.69,36.55],[-4.47,36.74],[-2.68,36.74],[-2.53,36.87],[-2.06,36.8],[-1.86,37.32],[-1.71,37.45],[-0.7,37.64],[-0.8,38.03],[-0.66,38.29],[0.1,38.74],[-0.31,39.13],[-0.35,39.71],[-0.2,39.97],[0.18,40.16],[0.25,40.42],[0.47,40.61],[0.71,40.68],[0.7,40.94],[1.24,41.2],[2.11,41.33],[2.41,41.59],[2.4,41.85],[1.99,42.04],[1.6,41.98],[1.44,41.85],[0.72,41.91],[0.56,42.04],[0.16,41.98],[-0.01,42.11],[-0.02,42.3],[-1.73,42.76],[-2.13,42.76],[-2.2,42.63]]]},"properties":{"NAME":"Emirate of Córdoba","C":6,"name":"Emirate of Córdoba","start_year":800,"end_year":805,"capital":"","type":"polity","region":"","event":"","source":"Cliopatria / Seshat Global History Databank (CC BY 4.0)","wikipedia":"Emirate of Córdoba","wikidata":"Q1337854","_a":81,"_c":[-3.58,39.39],"_nz":"科尔多瓦埃米尔国","_sz":""}},
{"type":"Feature","geometry":{"type":"Polygon","coordinates":[[[103.35,13.59],[103.24,13.27],[103.39,13.27],[103.51,13.01],[103.8,13.01],[103.81,13.14],[104.12,13.27],[104.15,13.53],[103.87,13.66],[103.89,13.79],[103.6,13.79],[103.58,13.66],[103.35,13.59]]]},"properties":{"NAME":"Khmer Empire","C":11,"name":"Khmer Empire","start_year":800,"end_year":805,"capital":"","type":"polity","region":"","event":"","source":"Cliopatria / Seshat Global History Databank (CC BY 4.0)","wikipedia":"Khmer Empire","wikidata":"Q201705","_a":1,"_c":[103.7,13.4],"_nz":"高棉帝国","_sz":""}},
{"type":"Feature","geometry":{"type":"Polygon","coordinates":[[[140.92,37.9],[141,38.16],[140.53,38.03],[140.34,37.84],[139.32,37.96],[139.35,38.16],[138.77,37.84],[138.51,37.38],[137.63,37.06],[137.25,36.8],[137.1,36.8],[137.15,37.19],[137.37,37.58],[136.95,37.51],[136.72,37.38],[136.57,37.13],[136.7,36.93],[136.64,36.67],[136,36.22],[135.91,35.9],[136.04,35.71],[135.78,35.64],[135.71,35.52],[135.28,35.58],[135.38,35.77],[133.47,35.52],[132.96,35.58],[132.69,35.52],[132.56,35.26],[131.48,34.61],[131.41,34.49],[130.92,34.42],[130.8,34.16],[130.86,33.97],[130.42,33.84],[130.33,33.65],[129.92,33.59],[129.83,33.39],[129.6,33.39],[129.56,33.14],[129.68,33.07],[129.68,32.88],[130.11,32.81],[130.37,33.07],[130.57,32.81],[130.52,32.36],[130.21,32.17],[130.1,31.91],[130.27,31.59],[130.14,31.27],[130.47,31.14],[130.72,31.21],[130.79,31.01],[131.41,31.4],[131.6,31.85],[131.58,32.17],[131.78,32.62],[132.08,32.94],[132.09,33.14],[131.64,33.33],[131.82,33.71],[131.1,33.65],[131.09,33.97],[131.94,33.97],[132.19,33.84],[132.32,34.29],[133.25,34.29],[134.47,34.74],[134.7,34.74],[134.91,34.55],[135.44,34.68],[135.34,34.49],[135.02,34.29],[135.15,34.1],[135.03,33.84],[135.35,33.71],[135.41,33.52],[135.81,33.39],[136.45,34.23],[136.91,34.23],[136.97,34.36],[136.79,34.61],[136.6,34.68],[136.73,34.94],[136.94,34.74],[137.24,34.74],[137.07,34.55],[138.26,34.61],[138.42,34.94],[138.8,35.07],[138.68,34.68],[138.95,34.61],[139.23,35],[139.21,35.26],[139.72,35.19],[139.7,35.45],[139.96,35.64],[140.08,35.58],[139.7,34.87],[140.41,35.19],[140.54,35.58],[140.91,35.84],[140.67,35.97],[140.61,36.42],[140.79,36.87],[141.13,37.32],[141.12,37.58],[140.96,37.71],[140.92,37.9]]]},"properties":{"NAME":"Heian Japan","C":7,"name":"Heian Japan","start_year":800,"end_year":813,"capital":"京都（平安京）","type":"dynasty","region":"japan","event":"","source":"Cliopatria / Seshat Global History Databank (CC BY 4.0)","wikipedia":"Heian period","wikidata":"Q193292","_a":83,"_c":[135.33,34.59],"_nz":"日本","_sz":""}}
]}