{"type":"FeatureCollection", "features": [
{"type":"Feature","geometry":{"type":"Polygon","coordinates":[[[30.54,23.36],[30.53,23.3],[30.74,22.85],[30.72,22.27],[30.64,21.95],[30.69,21.31],[30.76,21.31],[30.74,20.79],[30.82,20.79],[30.8,20.34],[30.88,20.34],[31.15,17.64],[31.22,17.64],[31.34,16.81],[31.48,16.61],[31.39,16.36],[31.54,16.23],[31.53,15.97],[31.73,15.59],[32.09,15.39],[32.53,15.33],[32.53,15.2],[33.86,15.46],[34.1,15.84],[34.68,15.78],[34.56,16.23],[34.71,16.49],[35.67,16.49],[36.05,16.81],[36,17.32],[35.5,17.64],[35.3,18.09],[34.94,18.29],[34.88,18.61],[34.6,18.93],[34.47,19.38],[34.26,19.64],[33.82,21.63],[33.88,23.17],[33.82,23.49],[33.68,23.69],[33.39,23.81],[32.04,23.69],[31.67,23.75],[30.54,23.36]]]},"properties":{"NAME":"Kingdom of Kush","C":3,"name":"Kingdom of Kush","start_year":-630,"end_year":337,"capital":"","type":"polity","region":"","event":"","source":"Cliopatria / Seshat Global History Databank (CC BY 4.0)","wikipedia":"Kingdom of Kush","wikidata":"Q241790","_a":48,"_c":[33.29,19.51],"_nz":"库施王国","_sz":""}},
{"type":"Feature","geometry":{"type":"Polygon","coordinates":[[[45.21,15.91],[45.23,16.1],[44.81,16.55],[44.81,16.61],[44.09,16.81],[43.82,17.26],[43.9,17.39],[43.48,17.77],[43.25,17.64],[43.03,17.71],[43.02,17.51],[42.63,17.19],[42.49,17.19],[42.48,17],[42.76,16.74],[42.81,16.42],[43.11,16.42],[43.39,16.23],[44.12,16.16],[44.33,15.91],[45.21,15.91]]]},"properties":{"NAME":"Minaeans","C":0,"name":"Minaeans","start_year":-383,"end_year":-189,"capital":"","type":"polity","region":"","event":"","source":"Cliopatria / Seshat Global History Databank (CC BY 4.0)","wikipedia":"Minaeans","wikidata":"Q1177379","_a":5,"_c":[43.86,16.84],"_nz":"米奈人","_sz":""}},
{"type":"Feature","geometry":{"type":"Polygon","coordinates":[[[45.21,15.91],[44.33,15.91],[44.12,16.16],[43.39,16.23],[43.11,16.42],[42.81,16.42],[42.69,15.52],[42.77,15.52],[42.82,15.07],[44.29,15.14],[45.02,15.14],[45.18,15.26],[45.85,15.39],[45.86,15.52],[46.15,15.52],[46.38,15.71],[46.47,15.97],[46.18,15.97],[46.02,15.84],[45.58,15.84],[45.37,15.97],[45.21,15.91]]]},"properties":{"NAME":"Sabaeans","C":6,"name":"Sabaeans","start_year":-350,"end_year":-111,"capital":"","type":"polity","region":"","event":"","source":"Cliopatria / Seshat Global History Databank (CC BY 4.0)","wikipedia":"Sabaeans","wikidata":"Q940785","_a":5,"_c":[44.58,15.75],"_nz":"萨巴人","_sz":""}},
{"type":"Feature","geometry":{"type":"Polygon","coordinates":[[[46.58,15.33],[47.53,15.2],[47.52,15.07],[48.32,14.94],[48.54,14.81],[49.63,14.69],[50.75,15.01],[50.85,15.33],[51.07,15.46],[51.24,15.78],[51.86,16.23],[51.95,16.49],[51.89,16.61],[51.08,16.68],[50.48,16.55],[50.12,16.61],[49.59,16.49],[48.12,16.42],[46.7,16.1],[46.55,16.16],[46.47,15.97],[46.38,15.71],[46.15,15.52],[46.58,15.33]]]},"properties":{"NAME":"Hadhramaut","C":11,"name":"Hadhramaut","start_year":-350,"end_year":183,"capital":"","type":"polity","region":"","event":"","source":"Cliopatria / Seshat Global History Databank (CC BY 4.0)","wikipedia":"Hadhramaut","wikidata":"Q1517159","_a":12,"_c":[49.05,15.68],"_nz":"哈德拉毛","_sz":""}},
{"type":"Feature","geometry":{"type":"Polygon","coordinates":[[[44.29,15.14],[44.21,14.94],[44.78,14.62],[45.15,14.81],[45.3,14.75],[45.75,14.94],[46.34,15.01],[46.58,15.33],[46.15,15.52],[45.86,15.52],[45.85,15.39],[45.18,15.26],[45.02,15.14],[44.29,15.14]]]},"properties":{"NAME":"Qataban","C":10,"name":"Qataban","start_year":-350,"end_year":-111,"capital":"","type":"polity","region":"","event":"","source":"Cliopatria / Seshat Global History Databank (CC BY 4.0)","wikipedia":"Qataban","wikidata":"Q748595","_a":2,"_c":[45.4,15.07],"_nz":"盖特班","_sz":""}},
{"type":"Feature","geometry":{"type":"Polygon","coordinates":[[[-97.18,17.13],[-96.9,16.74],[-96.54,16.81],[-96.56,16.94],[-96.26,16.94],[-96.31,17.19],[-96.86,17.45],[-96.96,17.58],[-97.41,17.64],[-97.23,17.45],[-97.35,17.26],[-97.18,17.13]]]},"properties":{"NAME":"Zapotec Civilization","C":5,"name":"Zapotec Civilization","start_year":-291,"end_year":-92,"capital":"","type":"polity","region":"","event":"","source":"Cliopatria / Seshat Global History Databank (CC BY 4.0)","wikipedia":"Zapotec civilization","wikidata":"Q844750","_a":1,"_c":[-96.83,17.23],"_nz":"萨波特克文明","_sz":""}},
{"type":"Feature","geometry":{"type":"Polygon","coordinates":[[[75.99,10.6],[76.55,8.92],[77.15,8.26],[77.25,8.39],[77.34,9.58],[77.23,9.76],[77.41,10.21],[76.85,10.45],[76.89,10.76],[76.71,10.91],[75.99,10.63],[75.99,10.6]]]},"properties":{"NAME":"Early Cheras","C":9,"name":"Early Cheras","start_year":-291,"end_year":298,"capital":"","type":"polity","region":"","event":"","source":"Cliopatria / Seshat Global History Databank (CC BY 4.0)","wikipedia":"Chera dynasty","wikidata":"Q877155","_a":4,"_c":[76.7,9.59],"_nz":"早期哲罗","_sz":""}},
{"type":"Feature","geometry":{"type":"Polygon","coordinates":[[[79.29,10.27],[78.92,10.13],[77.44,10.19],[77.24,9.77],[77.36,9.58],[77.27,8.39],[77.16,8.29],[77.26,8.15],[77.53,8.08],[77.84,8.17],[78.18,8.51],[78.25,8.91],[78.54,9.1],[79.15,9.26],[78.91,9.45],[78.94,9.67],[79.27,9.99],[79.29,10.27]]]},"properties":{"NAME":"Early Pandyas","C":3,"name":"Early Pandyas","start_year":-291,"end_year":298,"capital":"","type":"polity","region":"","event":"","source":"Cliopatria / Seshat Global History Databank (CC BY 4.0)","wikipedia":"Early Pandyas","wikidata":"Q3532152","_a":5,"_c":[78.22,9.18],"_nz":"早期潘迪亚","_sz":""}},
{"type":"Feature","geometry":{"type":"Polygon","coordinates":[[[81.26,8.64],[80.99,8.96],[81,9.09],[80.85,9.16],[80.86,9.29],[80.73,9.48],[80.44,9.54],[80.45,9.74],[79.88,9.86],[79.86,9.67],[80.08,9.61],[79.99,9.41],[80.05,9.16],[79.81,8.77],[79.76,8.06],[79.62,8.06],[79.61,7.87],[79.74,7.68],[79.76,6.65],[79.95,6.14],[80.23,5.88],[80.67,5.88],[81.34,6.14],[81.88,6.71],[81.92,7.42],[81.77,7.49],[81.65,7.94],[81.45,8.13],[81.4,8.51],[81.26,8.64]]]},"properties":{"NAME":"Anurādhapura","C":2,"name":"Anurādhapura","start_year":-291,"end_year":77,"capital":"","type":"polity","region":"","event":"","source":"Cliopatria / Seshat Global History Databank (CC BY 4.0)","wikipedia":"Anurādhapura","wikidata":"Q5724","_a":9,"_c":[80.77,7.87],"_nz":"阿努拉德普勒","_sz":""}},
{"type":"Feature","geometry":{"type":"Polygon","coordinates":[[[79.83,11.36],[78.96,10.84],[77.88,10.94],[77.59,11.14],[77.02,11.17],[76.68,10.94],[76.9,10.77],[76.85,10.48],[77.4,10.21],[78.92,10.16],[79.39,10.32],[79.85,10.27],[79.87,11.2],[79.83,11.36]]]},"properties":{"NAME":"Early Cholas","C":1,"name":"Early Cholas","start_year":-291,"end_year":298,"capital":"","type":"polity","region":"","event":"","source":"Cliopatria / Seshat Global History Databank (CC BY 4.0)","wikipedia":"Early Cholas","wikidata":"Q3532146","_a":4,"_c":[78.28,10.76],"_nz":"早期朱罗","_sz":""}},
{"type":"Feature","geometry":{"type":"Polygon","coordinates":[[[34.57,40.23],[34.6,40.48],[34.38,40.61],[34.4,40.81],[34.26,40.94],[34.41,41.46],[34.33,41.52],[33.31,41.59],[33.13,41.46],[32.66,41.46],[32.31,41.2],[32.14,41.13],[32.1,40.81],[32.3,40.48],[32.76,40.36],[33.41,40.48],[33.56,40.36],[34.57,40.23]]]},"properties":{"NAME":"Paphlagonia","C":8,"name":"Paphlagonia","start_year":-279,"end_year":-145,"capital":"","type":"polity","region":"","event":"","source":"Cliopatria / Seshat Global History Databank (CC BY 4.0)","wikipedia":"Paphlagonia","wikidata":"Q622032","_a":3,"_c":[33.35,40.91],"_nz":"帕夫拉戈尼亚","_sz":""}},
{"type":"Feature","geometry":{"type":"Polygon","coordinates":[[[-88.5,17.77],[-88.95,17.77],[-89.34,17.9],[-90.21,18.29],[-91.66,18.09],[-91.7,17.9],[-91.92,17.9],[-91.95,17.64],[-92.48,17.26],[-92.46,17.13],[-92.71,16.87],[-93.15,15.84],[-93.12,15.65],[-93.32,15.52],[-92.75,15.14],[-92.47,14.69],[-91.5,13.98],[-90.47,13.91],[-89.99,13.59],[-89.87,13.79],[-89.57,13.72],[-89.59,13.91],[-89.19,14.24],[-88.82,14.24],[-88.91,14.36],[-88.69,14.43],[-88.63,15.07],[-88.38,15.39],[-88.51,15.84],[-88.82,15.97],[-88.64,16.23],[-88.49,16.23],[-88.24,16.49],[-88.14,16.81],[-88.18,17.58],[-88.32,17.51],[-88.47,17.58],[-88.5,17.77]]]},"properties":{"NAME":"Mayan City-States","C":2,"name":"Mayan City-States","start_year":-247,"end_year":259,"capital":"","type":"polity","region":"","event":"","source":"Cliopatria / Seshat Global History Databank (CC BY 4.0)","wikipedia":"Maya civilization","wikidata":"Q28567","_a":24,"_c":[-90.73,15.94],"_nz":"玛雅城邦","_sz":""}},
{"type":"Feature","geometry":{"type":"Polygon","coordinates":[[[34.83,39.77],[34.54,39.97],[34.57,40.23],[33.56,40.36],[33.41,40.48],[32.76,40.36],[32.3,40.48],[32.11,40.16],[31.71,40.1],[31.7,40.03],[31.3,39.97],[31.38,39.97],[31.23,39.32],[31.44,39.06],[31.42,38.87],[31.74,38.87],[31.8,38.74],[32.19,38.67],[33.59,38.55],[33.68,38.67],[34.48,38.8],[34.77,39.26],[34.73,39.58],[34.83,39.77]]]},"properties":{"NAME":"Galatia","C":1,"name":"Galatia","start_year":-239,"end_year":-127,"capital":"","type":"polity","region":"","event":"","source":"Cliopatria / Seshat Global History Databank (CC BY 4.0)","wikipedia":"Galatia","wikidata":"Q26847","_a":7,"_c":[33.03,39.52],"_nz":"加拉太","_sz":""}},
{"type":"Feature","geometry":{"type":"MultiPolygon","coordinates":[[[[35.24,45.1],[35.41,45.17],[35.73,45.17],[35.88,45.04],[36.37,45.1],[36.42,45.43],[36.01,45.37],[35.18,45.3],[35.24,45.1]]],[[[39.09,46.28],[39.29,46.48],[39.55,47.01],[39.74,47.14],[39.72,47.47],[39.24,47.6],[38.49,47.53],[38.35,47.2],[39.2,47.33],[39.22,47.01],[38.89,47.01],[38.62,46.87],[38.49,46.61],[37.84,46.61],[37.9,46.48],[38.37,46.35],[38.33,46.15],[37.89,45.96],[37.76,45.63],[37.7,45.3],[36.97,45.3],[36.75,45.43],[36.78,45.1],[37.26,45.04],[37.53,44.71],[37.93,44.71],[38.12,44.84],[38.39,45.5],[38.7,45.89],[38.86,45.89],[39.09,46.28]]]]},"properties":{"NAME":"Cimmerian Bosporus","C":0,"name":"Cimmerian Bosporus","start_year":-230,"end_year":-92,"capital":"","type":"polity","region":"","event":"","source":"Cliopatria / Seshat Global History Databank (CC BY 4.0)","wikipedia":"Bosporan Kingdom","wikidata":"Q321371","_a":13,"_c":[37.45,46.16],"_nz":"辛梅里安博斯普鲁斯王国","_sz":""}},
{"type":"Feature","geometry":{"type":"Polygon","coordinates":[[[36.53,41.26],[36.21,41.26],[36.1,41.59],[35.87,41.65],[35.31,41.65],[34.94,41.91],[34.47,41.98],[33.28,41.98],[32.86,41.85],[32.19,41.59],[32.11,41.59],[32.26,41.46],[32.31,41.2],[32.66,41.46],[33.13,41.46],[33.31,41.59],[34.33,41.52],[34.41,41.46],[34.26,40.94],[34.4,40.81],[34.38,40.61],[34.6,40.48],[34.57,40.23],[34.54,39.97],[34.83,39.77],[35.29,39.71],[35.44,39.58],[36.93,39.58],[37.86,39.45],[38.75,39.06],[38.93,39.19],[38.95,39.38],[38.74,39.58],[38.93,39.77],[38.79,39.9],[40.4,40.1],[40.51,40.29],[40.75,40.36],[40.77,40.48],[40.57,40.68],[41.01,40.94],[41.35,41.13],[41.24,41.39],[41.05,41.2],[40.46,41],[40.6,40.87],[40.41,40.68],[39.62,40.68],[39.4,40.81],[39,40.81],[38.82,40.68],[37.87,40.68],[37.36,40.94],[36.51,41.13],[36.53,41.26]]]},"properties":{"NAME":"Kingdom of Pontus","C":11,"name":"Kingdom of Pontus","start_year":-230,"end_year":-171,"capital":"","type":"polity","region":"","event":"","source":"Cliopatria / Seshat Global History Databank (CC BY 4.0)","wikipedia":"Kingdom of Pontus","wikidata":"Q7380487","_a":27,"_c":[36.73,40.52],"_nz":"本都王国","_sz":""}},
{"type":"Feature","geometry":{"type":"Polygon","coordinates":[[[77.1,22.59],[76.6,22.72],[75.47,22.66],[74.38,22.21],[74.05,21.95],[73.76,21.31],[73.71,20.86],[73.4,20.02],[72.75,19.57],[72.73,19.38],[72.87,19.31],[72.87,18.61],[72.95,18.61],[73.07,17.71],[73.88,17.64],[74.43,17.96],[74.88,18.03],[75.08,17.84],[75.07,17.71],[75.47,17.39],[75.46,17.26],[75.73,17],[76.08,16.87],[76.01,16.23],[76.28,15.97],[76.43,15.97],[76.69,15.65],[78.99,15.14],[78.78,14.49],[79.27,14.24],[79.26,14.11],[80.24,14.43],[80.22,14.88],[80.09,15.07],[80.38,15.71],[80.61,15.84],[81.12,15.78],[81.23,16.16],[81.48,16.36],[82.22,16.42],[82.38,16.55],[82.36,17],[82.08,17.13],[81.88,17.32],[81.9,17.45],[81.69,17.58],[81.52,17.96],[81.55,18.22],[82.86,19.25],[82.17,19.64],[81.78,20.09],[80.84,20.34],[80.45,20.79],[80.16,20.79],[79.78,20.15],[79.1,20.02],[79.07,19.76],[78.84,19.7],[78.72,19.89],[78.74,20.09],[78.6,20.15],[78.62,20.34],[78.42,20.54],[78.39,20.92],[77.31,21.24],[77.22,21.69],[77.08,21.76],[77.1,22.59]]]},"properties":{"NAME":"Satavahana Dynasty","C":10,"name":"Satavahana Dynasty","start_year":-225,"end_year":-171,"capital":"","type":"polity","region":"","event":"","source":"Cliopatria / Seshat Global History Databank (CC BY 4.0)","wikipedia":"Satavahana dynasty","wikidata":"Q5257","_a":87,"_c":[77.8,18.42],"_nz":"萨塔瓦哈纳王朝","_sz":""}},
{"type":"Feature","geometry":{"type":"Polygon","coordinates":[[[86.44,20.02],[86.51,20.02],[86.84,20.28],[86.79,20.47],[87.03,20.6],[86.96,21.18],[87.07,21.44],[87.76,21.63],[88.1,21.95],[88.13,21.63],[88.35,21.56],[88.51,21.69],[88.64,22.08],[88.72,22.08],[88.73,21.63],[89.87,21.82],[89.95,22.4],[89.73,22.91],[89.59,22.98],[89.96,23.94],[89.82,24.01],[89.93,24.2],[89.95,24.78],[89.79,25.16],[89.95,25.62],[89.87,25.62],[89.88,26.07],[89.74,26.13],[89.94,26.77],[89.07,26.9],[88.82,27.16],[88.84,27.29],[88.29,27.16],[88.09,27.29],[87.41,27.61],[87.21,27.74],[87.11,27.99],[86.78,27.87],[86.57,27.93],[86.23,27.74],[85.85,27.74],[85.21,27.93],[84.81,28.19],[84.83,28.64],[84.48,28.77],[84.25,29.09],[84.01,29.02],[83.75,29.22],[83.52,29.22],[83.49,29.41],[83.25,29.34],[83.05,29.47],[82.46,29.54],[82.34,29.67],[81.7,29.86],[81.39,30.18],[81.09,30.18],[80.92,30.44],[80.34,30.56],[80.05,30.95],[79.53,31.01],[79.48,31.14],[77.94,29.99],[77.94,28.89],[78.01,28.89],[77.99,27.99],[78.84,27.29],[78.81,27.09],[78.99,26.84],[77.93,25.87],[77.43,25.04],[77.2,23.94],[77.1,22.59],[77.08,21.76],[77.22,21.69],[77.31,21.24],[78.39,20.92],[78.42,20.54],[78.62,20.34],[78.6,20.15],[78.74,20.09],[78.72,19.89],[78.84,19.7],[79.07,19.76],[79.1,20.02],[79.78,20.15],[80.16,20.79],[80.45,20.79],[80.84,20.34],[81.78,20.09],[82.17,19.64],[82.86,19.25],[85.35,20.79],[86.14,20.6],[86.16,20.15],[86.44,20.02]]]},"properties":{"NAME":"Maurya Empire","C":3,"name":"Maurya Empire","start_year":-225,"end_year":-189,"capital":"","type":"polity","region":"","event":"","source":"Cliopatria / Seshat Global History Databank (CC BY 4.0)","wikipedia":"Maurya Empire","wikidata":"Q62943","_a":153,"_c":[83.52,25.2],"_nz":"孔雀帝国","_sz":""}},
{"type":"Feature","geometry":{"type":"Polygon","coordinates":[[[82.36,17],[82.44,17],[82.61,17.26],[82.92,17.32],[83.56,17.77],[83.75,18.09],[84.05,18.16],[84.38,18.41],[84.75,18.99],[85.41,19.57],[85.37,19.83],[85.52,19.83],[85.5,19.64],[85.8,19.7],[86.43,19.96],[86.44,20.02],[86.16,20.15],[86.14,20.6],[85.35,20.79],[82.86,19.25],[81.55,18.22],[81.52,17.96],[81.69,17.58],[81.9,17.45],[81.88,17.32],[82.08,17.13],[82.36,17]]]},"properties":{"NAME":"Kalinga","C":1,"name":"Kalinga","start_year":-225,"end_year":-189,"capital":"","type":"polity","region":"","event":"","source":"Cliopatria / Seshat Global History Databank (CC BY 4.0)","wikipedia":"Kalinga","wikidata":"Q356524","_a":19,"_c":[83.98,18.9],"_nz":"羯陵伽","_sz":""}},
{"type":"Feature","geometry":{"type":"Polygon","coordinates":[[[60.71,39.51],[60.68,39.71],[60.05,39.71],[60.08,39.84],[59.77,39.84],[59.77,40.16],[58.98,40.16],[58.85,40.29],[58.17,40.42],[57.35,40.29],[56.81,40.36],[54.54,40.81],[53.4,40.68],[53.34,40.74],[52.94,40.74],[52.79,40.42],[52.72,40.1],[53.5,40.03],[53.52,39.38],[53.99,39],[53.83,37.84],[53.91,37.84],[53.91,37.45],[54.09,37.19],[54.03,36.87],[54.77,36.67],[55.78,36.67],[56.21,36.87],[56.83,36.87],[57.44,36.8],[57.7,36.55],[58.45,36.42],[59.07,36.42],[60.05,36.61],[61.21,36.61],[61.47,36.74],[61.03,37.19],[60.98,37.32],[60.66,37.64],[60.74,37.96],[60.53,38.09],[60.56,38.22],[60.37,38.42],[60.43,38.67],[60.32,38.87],[60.41,39.26],[60.71,39.51]]]},"properties":{"NAME":"Parthian Empire","C":7,"name":"Parthian Empire","start_year":-218,"end_year":-165,"capital":"","type":"polity","region":"","event":"","source":"Cliopatria / Seshat Global History Databank (CC BY 4.0)","wikipedia":"Parthian Empire","wikidata":"Q1986139","_a":39,"_c":[57.09,38.64],"_nz":"帕提亚帝国","_sz":""}},
{"type":"Feature","geometry":{"type":"Polygon","coordinates":[[[38.81,38.93],[38.75,39.06],[37.86,39.45],[36.93,39.58],[35.44,39.58],[35.29,39.71],[34.83,39.77],[34.73,39.58],[34.77,39.26],[34.48,38.8],[33.68,38.67],[33.59,38.55],[33.67,37.84],[35.67,37.58],[36,37.71],[36.35,38.03],[37.11,37.9],[37.32,38.29],[38.13,38.48],[38.81,38.93]]]},"properties":{"NAME":"Kingdom of Cappadocia","C":9,"name":"Kingdom of Cappadocia","start_year":-212,"end_year":-189,"capital":"","type":"polity","region":"","event":"","source":"Cliopatria / Seshat Global History Databank (CC BY 4.0)","wikipedia":"Kingdom of Cappadocia","wikidata":"Q29654286","_a":11,"_c":[36.21,38.67],"_nz":"卡帕多西亚王国","_sz":""}},
{"type":"Feature","geometry":{"type":"Polygon","coordinates":[[[38.75,39.06],[38.81,38.93],[39.11,38.8],[39.39,38.55],[39.45,38.42],[40.52,38.22],[40.51,38.74],[40.66,39.19],[40.51,39.26],[40.48,39.58],[39.85,39.58],[39.75,39.45],[39.21,39.51],[38.95,39.38],[38.93,39.19],[38.75,39.06]]]},"properties":{"NAME":"Kingdom of Sophene","C":4,"name":"Kingdom of Sophene","start_year":-212,"end_year":-189,"capital":"","type":"polity","region":"","event":"","source":"Cliopatria / Seshat Global History Databank (CC BY 4.0)","wikipedia":"Kingdom of Sophene","wikidata":"Q2626105","_a":3,"_c":[39.7,38.9],"_nz":"索菲尼王国","_sz":""}},
{"type":"Feature","geometry":{"type":"Polygon","coordinates":[[[-2.46,34.16],[-2.85,34.36],[-2.79,34.55],[-2.95,34.61],[-2.89,34.94],[-4.74,34.94],[-5.21,35.13],[-5.39,35.45],[-5.63,35.52],[-6.23,34.23],[-6.6,33.97],[-6.59,33.84],[-6.88,33.59],[-7.55,33.33],[-7.8,33.59],[-8.4,33.39],[-8.47,33.26],[-8.15,33.14],[-8.06,32.94],[-7.53,32.94],[-6.94,33.26],[-6.7,33.2],[-6.63,33.33],[-6.03,33.52],[-5.8,33.46],[-5.27,33.65],[-5.04,33.59],[-4.37,33.91],[-3.76,34.1],[-2.46,34.16]]]},"properties":{"NAME":"Mauretania","C":1,"name":"Mauretania","start_year":-212,"end_year":-198,"capital":"","type":"polity","region":"","event":"","source":"Cliopatria / Seshat Global History Databank (CC BY 4.0)","wikipedia":"Mauretania","wikidata":"Q309272","_a":16,"_c":[-5.46,34.23],"_nz":"毛里塔尼亚","_sz":""}},
{"type":"Feature","geometry":{"type":"Polygon","coordinates":[[[26.84,39.51],[26.74,39.26],[26.89,39.19],[26.96,39],[26.85,38.61],[27.08,38.55],[27.06,38.35],[26.59,38.35],[26.54,38.61],[26.38,38.67],[26.43,38.22],[26.82,38.22],[26.89,38.09],[27.28,38.03],[27.73,37.84],[27.97,37.9],[28.14,38.09],[28.53,38.03],[28.86,38.29],[28.96,38.55],[29.21,38.67],[29.32,39],[29.3,39.71],[28.84,39.84],[27.97,39.84],[27.41,39.71],[27.24,39.51],[26.84,39.51]]]},"properties":{"NAME":"Kingdom of Pergamon","C":9,"name":"Kingdom of Pergamon","start_year":-212,"end_year":-189,"capital":"","type":"polity","region":"","event":"","source":"Cliopatria / Seshat Global History Databank (CC BY 4.0)","wikipedia":"Kingdom of Pergamon","wikidata":"Q2022162","_a":6,"_c":[27.85,38.84],"_nz":"帕加马王国","_sz":""}},
{"type":"Feature","geometry":{"type":"Polygon","coordinates":[[[52.11,36.55],[50.82,36.74],[50.53,36.87],[50.57,37.06],[50.32,37],[50,37.38],[49.02,37.58],[48.83,37.84],[48.8,38.09],[48.33,38.09],[47.25,38.67],[46.12,38.48],[45.85,38.29],[45.63,37.9],[45.22,37.77],[45.17,37.45],[45.29,37.19],[45.15,35.71],[46.03,35.39],[47.95,35.32],[49.08,35.13],[49.5,35.32],[49.61,35.52],[50.48,35.64],[50.85,36.03],[52.01,36.42],[52.11,36.55]]]},"properties":{"NAME":"Atropatene","C":9,"name":"Atropatene","start_year":-206,"end_year":-198,"capital":"","type":"polity","region":"","event":"","source":"Cliopatria / Seshat Global History Databank (CC BY 4.0)","wikipedia":"Atropatene","wikidata":"Q260437","_a":25,"_c":[48.63,36.9],"_nz":"阿特罗帕特尼","_sz":""}},
{"type":"Feature","geometry":{"type":"Polygon","coordinates":[[[22.4,37.51],[22.7,37.38],[22.71,37.58],[22.95,37.58],[23.4,37.32],[23.41,37.51],[23.11,37.64],[23.04,37.9],[23.29,38.03],[23.22,38.16],[22.98,38.09],[22.97,37.96],[22.66,37.96],[22.59,38.16],[22.44,38.29],[22.13,38.42],[21.74,38.42],[21.73,38.16],[21.41,38.09],[21.64,37.9],[21.4,37.77],[21.47,37.64],[21.7,37.51],[22.09,37.51],[22.24,37.38],[22.4,37.51]]]},"properties":{"NAME":"Achaean League","C":0,"name":"Achaean League","start_year":-206,"end_year":-165,"capital":"","type":"polity","region":"","event":"","source":"Cliopatria / Seshat Global History Databank (CC BY 4.0)","wikipedia":"Achaean League","wikidata":"Q244796","_a":2,"_c":[22.4,37.87],"_nz":"亚该亚同盟","_sz":""}},
{"type":"Feature","geometry":{"type":"MultiPolygon","coordinates":[[[[33.68,23.69],[35.11,23.88],[35.55,23.81],[35.56,23.94],[35.85,23.88],[35.86,24.01],[35.15,24.65],[34.61,25.81],[34.46,25.87],[34.2,26.52],[34.05,26.58],[34.07,26.97],[33.93,27.03],[33.8,27.42],[33.59,27.61],[33.61,27.99],[33.11,28.38],[32.84,28.89],[32.69,28.96],[32.44,29.79],[32.67,29.86],[32.92,30.12],[33.84,30.24],[34.3,30.37],[34.39,30.5],[34.62,30.56],[35.35,31.14],[35.5,31.08],[35.66,31.21],[36.42,31.21],[36.39,31.66],[36.49,31.98],[36.66,32.11],[36.75,32.3],[36.72,32.75],[36.9,33.07],[37.05,33.07],[37.07,33.26],[37.57,33.65],[37.65,33.65],[37.6,33.91],[37.39,34.1],[37,34.1],[36.87,34.29],[36.56,34.29],[36.44,34.61],[36.29,34.68],[36.31,34.87],[36.17,34.94],[36.27,35.19],[35.89,35.26],[35.96,35.19],[35.93,34.87],[36.07,34.74],[36.05,34.55],[35.79,34.29],[35.64,34.36],[35.68,33.97],[35.45,33.91],[35.5,33.65],[35.35,33.65],[35.4,33.39],[35.22,33.07],[35.06,33.01],[35.02,32.62],[34.77,32.36],[34.81,31.98],[34.57,31.85],[34.63,31.66],[34.31,31.4],[34.3,31.27],[33.98,31.14],[32.83,31.01],[32.77,31.14],[32.53,31.08],[32,31.08],[31.88,31.46],[31.27,31.46],[30.97,31.53],[30.81,31.46],[30.35,31.46],[30.34,31.27],[29.88,31.27],[29.87,31.08],[29.63,30.95],[29.49,31.01],[29.4,30.82],[28.87,30.82],[28.5,31.01],[27.51,31.14],[27.3,31.34],[26.85,31.46],[25.25,31.46],[25.1,31.59],[25.11,31.79],[24.89,31.98],[24.13,31.98],[23.68,32.17],[23.3,32.17],[23.15,32.24],[23.09,32.62],[21.88,32.94],[21.41,32.75],[21.11,32.81],[20.87,32.62],[20.33,32.49],[20.25,32.24],[20.09,32.11],[20,31.59],[20.21,31.27],[20.13,31.14],[20.2,30.89],[19.97,30.69],[19.96,30.56],[19.66,30.37],[19.27,30.24],[18.89,30.31],[18.74,30.12],[18.73,29.99],[19.57,30.12],[19.65,30.24],[19.96,30.31],[20.58,30.89],[21.95,30.89],[22.85,30.63],[22.85,30.5],[23.23,30.5],[23.67,30.12],[24.26,29.86],[24.41,29.67],[24.85,29.54],[24.92,29.34],[25.22,29.34],[25.88,28.83],[26.85,28.44],[27.29,28.12],[28.15,27.35],[28.27,26.58],[28.35,26.58],[28.24,25.94],[28.29,25.16],[28.57,24.65],[29.67,24.2],[30.1,23.75],[30.4,23.56],[30.54,23.36],[31.67,23.75],[32.04,23.69],[33.39,23.81],[33.68,23.69]]],[[[28.14,36.03],[28.25,36.48],[28.02,36.48],[27.69,36.29],[27.74,35.9],[28.14,36.03]]],[[[26.87,36.67],[27.19,36.8],[27.04,36.93],[26.87,36.67]]],[[[27.19,36.93],[27.35,36.93],[27.44,37.13],[27.21,37.13],[27.19,36.93]]],[[[25.99,37.51],[26.3,37.58],[26.08,37.71],[25.99,37.51]]],[[[27.01,37.64],[27.03,37.84],[26.56,37.84],[26.62,37.64],[27.01,37.64]]],[[[33.96,35.26],[34.53,35.58],[34.31,35.71],[33.74,35.39],[32.89,35.39],[32.88,35.26],[32.55,35.13],[32.25,35.13],[32.23,34.94],[32.37,34.74],[33.04,34.55],[33.13,34.68],[33.52,34.74],[33.7,34.94],[34.09,35],[33.96,35.26]]],[[[34.34,36.74],[34.22,37.13],[33.67,37.13],[33.61,37.25],[33.38,37.25],[32.07,36.61],[32.5,36.22],[32.56,36.03],[32.71,36.03],[33.27,36.22],[33.98,36.29],[34.33,36.67],[34.34,36.74]]],[[[28.23,37.19],[28.03,36.67],[28.19,36.67],[28.36,36.87],[29.12,36.74],[29.24,36.22],[29.94,36.22],[30.03,36.35],[30.49,36.35],[30.54,36.87],[30.62,36.93],[29.45,36.87],[29.37,36.87],[28.3,37.19],[28.23,37.19]]],[[[35.83,36.93],[35.29,36.93],[35.03,36.74],[35.49,36.61],[35.83,36.93]]]]},"properties":{"NAME":"Ptolemaic Kingdom","C":9,"name":"Ptolemaic Kingdom","start_year":-203,"end_year":-198,"capital":"","type":"polity","region":"","event":"","source":"Cliopatria / Seshat Global History Databank (CC BY 4.0)","wikipedia":"Ptolemaic Kingdom","wikidata":"Q2320005","_a":274,"_c":[28.19,30.6],"_nz":"托勒密王国","_sz":""}},
{"type":"Feature","geometry":{"type":"Polygon","coordinates":[[[73.1,40.81],[72.72,40.87],[72.77,41],[72.46,41.26],[72.48,41.33],[72.13,41.72],[71.97,41.72],[71.88,41.91],[71.17,42.17],[70.93,42.43],[70.71,42.24],[68.69,41.91],[67.55,41.59],[66.89,41.26],[66.65,41.26],[66.61,41.13],[65.8,40.81],[65.59,40.61],[65.27,40.61],[65.24,40.48],[64.39,40.29],[64.02,40.1],[62.88,39.97],[62.5,40.03],[60.79,39.51],[60.71,39.51],[60.41,39.26],[60.32,38.87],[60.43,38.67],[60.37,38.42],[60.56,38.22],[60.53,38.09],[60.74,37.96],[60.66,37.64],[60.98,37.32],[61.03,37.19],[61.47,36.74],[61.21,36.61],[61.3,35.58],[61.8,35.39],[62.19,35.39],[62.62,34.87],[63.15,34.81],[63.28,34.68],[63.83,34.74],[63.96,34.61],[64.19,34.61],[64.37,34.74],[64.76,34.74],[65.41,34.94],[65.62,34.81],[66.14,34.74],[66.56,34.55],[66.53,34.42],[67.09,34.49],[67.61,34.74],[67.83,34.68],[68.1,34.87],[68.39,34.81],[68.52,35],[69.03,35.19],[69.33,35.19],[69.37,35.32],[69.6,35.32],[69.88,35.52],[70.09,35.45],[70.14,35.64],[70.51,35.9],[71.22,36.22],[71.83,37.06],[72.4,37.45],[72.66,37.84],[73.49,38.55],[73.75,39.13],[73.63,39.26],[73.77,39.45],[73.95,40.03],[73.86,40.23],[73.49,40.55],[73.1,40.81]]]},"properties":{"NAME":"Greco-Bactrian Kingdom","C":10,"name":"Greco-Bactrian Kingdom","start_year":-203,"end_year":-171,"capital":"","type":"polity","region":"","event":"","source":"Cliopatria / Seshat Global History Databank (CC BY 4.0)","wikipedia":"Greco-Bactrian Kingdom","wikidata":"Q488880","_a":397,"_c":[51.66,37.98],"_nz":"希腊-巴克特里亚王国","_sz":""}},
{"type":"Feature","geometry":{"type":"Polygon","coordinates":[[[93.44,40.55],[93.23,40.61],[92.61,41],[92.35,41.13],[91.27,41.39],[90.78,41.72],[90.54,41.72],[90.22,41.91],[89.61,41.98],[89.64,42.04],[88.82,42.17],[88.85,42.24],[88.08,42.3],[88.11,42.37],[85.76,42.69],[85.79,42.76],[84.11,42.76],[82.56,42.3],[81.12,42.3],[81.04,42.5],[81.09,42.82],[80.79,43.08],[80.87,43.28],[80.74,43.34],[80.76,43.6],[80.38,44.06],[80.41,44.52],[80.49,44.71],[80.38,44.84],[80.06,44.84],[79.95,44.97],[79.54,44.97],[78.57,45.17],[78.35,45.43],[78,45.56],[78.02,45.82],[77.83,45.96],[77.75,46.35],[77.39,46.48],[75.45,46.55],[75.32,46.41],[74.88,46.35],[74.75,46.02],[74.32,45.96],[74.12,45.43],[74.25,45.37],[74.13,45.04],[73.97,44.84],[74.44,44.58],[74.56,44.25],[75,44.12],[74.79,43.8],[75.2,43.6],[75.14,43.21],[75.39,43.02],[75.77,42.95],[75.88,42.82],[75.7,42.56],[75.81,42.43],[76.16,42.5],[76.14,42.24],[76.28,42.17],[76.21,41.98],[76,41.85],[75.09,41.52],[74.59,41.46],[74.46,41.33],[73.89,41.26],[73.58,41.07],[73.34,41.07],[73.1,40.81],[73.49,40.55],[73.86,40.23],[73.95,40.03],[73.77,39.45],[73.85,39.45],[75.79,39.13],[77.03,38.8],[77.26,38.55],[77.41,38.55],[77.51,38.35],[77.67,38.35],[77.84,38.16],[77.8,38.03],[78.09,37.71],[78.39,37.64],[78.42,37.51],[79.15,37.32],[79.4,37.13],[80.37,37],[81.03,36.61],[81.26,36.61],[81.71,36.8],[82.1,36.8],[85.11,37.45],[85.36,37.71],[85.81,37.9],[86.08,38.22],[86.44,38.35],[87.66,38.48],[88.75,38.87],[90.81,39.13],[93.06,39.84],[93.09,39.9],[93.44,40.55]]]},"properties":{"NAME":"Yuezhi","C":2,"name":"Yuezhi","start_year":-203,"end_year":-171,"capital":"","type":"polity","region":"","event":"","source":"Cliopatria / Seshat Global History Databank (CC BY 4.0)","wikipedia":"Yuezhi","wikidata":"Q467985","_a":202,"_c":[83.29,41.58],"_nz":"月氏","_sz":""}},
{"type":"Feature","geometry":{"type":"Polygon","coordinates":[[[124.84,41.13],[125.51,41.33],[125.68,41.72],[127.99,44.12],[128.24,44.25],[128.43,44.65],[129.63,45.76],[129.86,46.41],[129.89,46.68],[129.35,46.94],[128.21,47.4],[127.85,47.47],[127.78,47.6],[127.3,47.73],[127.35,47.8],[126.79,47.93],[126.72,48.06],[125.89,48.39],[125.3,48.59],[125.03,48.79],[124.64,48.92],[124.57,49.05],[124.24,49.05],[123.67,49.18],[123.72,49.25],[122.67,49.52],[122.61,49.65],[121.56,49.91],[121.5,50.05],[121.1,50.18],[119.9,49.71],[119.58,49.85],[119.1,49.98],[118.83,50.18],[118.34,50.31],[116.75,50.65],[116.6,50.78],[116.06,50.85],[115.82,50.98],[113.86,51.18],[113.92,51.25],[110.46,51.38],[109.39,51.65],[109.23,51.78],[108.02,51.98],[107.95,52.12],[107.63,52.25],[107.17,52.32],[106.4,52.32],[106.01,51.78],[105.74,51.65],[104.83,51.45],[104.07,51.45],[103.57,51.58],[103.84,51.85],[104.44,51.85],[105.26,52.05],[105.91,52.59],[106.41,52.79],[105.03,53.12],[104.96,53.26],[104.29,53.39],[104.34,53.46],[101.71,53.87],[101.76,53.94],[100.43,54],[100.48,54.07],[98.75,54.07],[95.38,54.07],[93.94,53.87],[91.44,53.87],[89.45,53.6],[89.06,53.66],[88.98,53.53],[87.95,53.39],[85.31,52.72],[84.65,52.32],[84.19,51.65],[83.91,51.45],[83.74,50.98],[83.92,50.85],[84.27,50.25],[84.88,50.11],[85.19,49.58],[86.24,49.52],[86.52,49.58],[86.74,49.52],[86.8,49.32],[87.19,49.25],[87.12,49.12],[87.78,49.12],[87.68,48.92],[87.95,48.79],[87.98,48.52],[88.36,48.46],[88.37,48.32],[88.67,48.26],[88.95,47.99],[89.53,47.99],[89.63,47.86],[90.22,47.73],[90.96,46.74],[90.86,46.22],[90.96,46.09],[90.54,45.56],[90.81,45.1],[90.97,45.1],[91.09,44.84],[91.73,44.65],[91.96,44.45],[92.25,44.39],[93.19,43.99],[93.21,43.86],[93.55,43.73],[93.62,43.54],[93.91,43.47],[94.3,42.95],[94.37,42.76],[94.39,42.3],[94.79,41.78],[94.18,41.33],[93.82,40.68],[93.44,40.55],[93.09,39.9],[93.17,39.9],[93.19,39.38],[93.95,39.51],[94.51,39.51],[94.98,39.32],[95.32,39.38],[95.68,38.93],[96.31,38.74],[96.41,38.61],[96.65,38.61],[96.76,38.87],[96.68,39.06],[96.76,39.45],[97.47,39.26],[97.49,39.13],[97.86,39.06],[98.12,38.93],[98.38,39.19],[98.96,39.06],[99.09,39.19],[99.38,39.13],[99.86,38.42],[100.2,38.29],[100.41,38.61],[100.64,38.22],[100.8,38.03],[101.29,37.9],[101.31,37.77],[101.6,37.71],[101.76,37.51],[102.1,37.77],[102.12,37.45],[102.59,37.25],[102.87,37.19],[104.17,36.74],[106.03,36.35],[106.08,36.29],[105.85,35.9],[105.95,35.77],[105.28,35.26],[105.26,35.19],[106.18,35.39],[106.49,35.58],[106.7,35.52],[107.27,35.77],[108.3,36.03],[108.75,36.74],[110.13,38.09],[111.49,38.8],[112.08,39.84],[112.63,40.29],[113.49,40.42],[114.04,40.42],[114.76,40.29],[115.28,40.23],[115.55,39.84],[116.1,39.84],[117.11,40.1],[117.45,40.29],[118.98,40.61],[122.93,41.91],[123.6,41.72],[123.8,41.52],[124.48,41.33],[124.44,41.26],[124.84,41.13]]]},"properties":{"NAME":"Xiongnu","C":6,"name":"Xiongnu","start_year":-203,"end_year":-198,"capital":"","type":"polity","region":"","event":"","source":"Cliopatria / Seshat Global History Databank (CC BY 4.0)","wikipedia":"Xiongnu","wikidata":"Q188836","_a":874,"_c":[106.76,44.63],"_nz":"匈奴","_sz":""}},
{"type":"Feature","geometry":{"type":"Polygon","coordinates":[[[31.3,39.97],[31.7,40.03],[31.71,40.1],[32.11,40.16],[32.3,40.48],[32.1,40.81],[32.14,41.13],[32.31,41.2],[32.26,41.46],[32.11,41.59],[31.7,41.46],[31.59,41.2],[31.35,41.2],[31.18,41.07],[30.62,41.07],[30.48,41.2],[29.37,41.2],[29.25,40.81],[28.91,40.61],[28.73,40.36],[28.95,40.23],[29.35,40.23],[29.45,40.48],[29.94,40.55],[29.92,40.42],[30.07,40.29],[30.46,40.23],[30.59,39.97],[31.3,39.97]]]},"properties":{"NAME":"Kingdom of Bithynia","C":4,"name":"Kingdom of Bithynia","start_year":-203,"end_year":-127,"capital":"","type":"polity","region":"","event":"","source":"Cliopatria / Seshat Global History Databank (CC BY 4.0)","wikipedia":"Kingdom of Bithynia","wikidata":"Q3762571","_a":6,"_c":[30.52,40.81],"_nz":"比提尼亚王国","_sz":""}},
{"type":"Feature","geometry":{"type":"MultiPolygon","coordinates":[[[[8.93,34.16],[8.92,34.68],[8.77,34.81],[8.15,34.87],[7.99,35.07],[7.99,35.39],[7.82,36.42],[7.66,36.61],[7.12,36.61],[6.96,36.87],[6.73,36.93],[6.34,36.74],[5.95,36.74],[5.64,36.55],[5.41,36.61],[5.26,36.48],[4.87,36.61],[3.16,36.61],[2.77,36.48],[1.92,36.48],[1.91,36.61],[1.53,36.48],[1.22,36.55],[0.91,36.35],[0.45,36.22],[0.39,35.97],[0.16,35.9],[-0.15,35.77],[-0.46,35.84],[-0.53,35.71],[-0.92,35.71],[-1.36,35.26],[-1.59,35.26],[-1.66,35.13],[-2.74,35.13],[-2.89,34.94],[-2.95,34.61],[-2.79,34.55],[-2.85,34.36],[-2.46,34.16],[-1.54,34.23],[-1.31,34.16],[-1.24,34.36],[0.3,34.36],[0.45,34.49],[0.68,34.42],[1.29,34.61],[2.45,34.61],[2.92,34.36],[3.15,34.36],[3.46,34.49],[3.84,34.42],[4.45,34.61],[5.15,34.55],[5.38,34.68],[6.15,34.68],[6.46,34.55],[6.92,34.61],[7.15,34.49],[7.61,34.55],[8,34.42],[8.08,34.23],[8.31,34.29],[8.93,34.16]]],[[[9.45,37.25],[9.6,37.06],[9.53,36.8],[9.76,36.67],[10,36.67],[10.07,36.48],[10.31,36.48],[10.38,36.67],[10.07,36.8],[10.07,36.93],[10.31,36.93],[10.23,37.25],[9.45,37.25]]],[[[2.33,41.59],[2.89,41.72],[2.95,41.98],[2.72,41.91],[2,41.98],[1.42,42.3],[0.86,42.37],[0.77,42.5],[0.3,42.37],[0.18,41.65],[-0.05,41.46],[-0.18,41.07],[-0.42,41],[-0.41,40.87],[-1.01,40.29],[-1,40.16],[-1.23,40.03],[-1.22,39.84],[-1.45,39.71],[-1.35,39.38],[-1.63,38.8],[-1.94,38.74],[-2.24,38.48],[-4.2,38.55],[-4.85,38.87],[-4.94,39],[-5.34,39.06],[-5.48,38.87],[-5.87,38.8],[-6.01,38.61],[-7.22,38.09],[-7.28,37.9],[-7.58,37.64],[-7.47,37.25],[-6.84,37.25],[-6.59,37],[-6.43,37],[-6.06,36.22],[-5.83,36.22],[-5.66,36.03],[-5.29,36.22],[-5.23,36.48],[-4.69,36.55],[-4.47,36.74],[-2.68,36.74],[-2.53,36.87],[-2.06,36.8],[-1.86,37.32],[-1.71,37.45],[-0.7,37.64],[-0.8,38.03],[-0.66,38.29],[0.1,38.74],[-0.31,39.13],[-0.35,39.71],[-0.13,40.03],[0.18,40.16],[0.25,40.42],[0.71,40.68],[0.7,40.94],[1.24,41.2],[2.11,41.33],[2.33,41.59]]],[[[9.82,40.36],[9.82,40.74],[9.5,41.2],[9.02,41.26],[8.55,40.87],[8.15,40.94],[8.16,40.55],[8.32,40.48],[8.4,40.29],[8.32,39.97],[8.48,39.9],[8.41,39.51],[8.33,39.51],[8.34,39],[8.73,38.87],[8.97,38.87],[9.12,39.19],[9.59,39.13],[9.67,39.64],[9.75,39.64],[9.67,40.29],[9.82,40.36]]],[[[9.57,42.76],[9.49,43.02],[9.25,43.02],[9.17,42.76],[8.77,42.69],[8.53,42.5],[8.54,42.11],[8.78,41.72],[8.78,41.52],[9.1,41.33],[9.26,41.39],[9.58,41.98],[9.57,42.76]]],[[[14.57,35.77],[14.57,35.97],[14.34,36.03],[14.34,35.84],[14.57,35.77]]],[[[19.47,41.85],[19.54,41.78],[19.45,41.52],[19.44,41.26],[19.5,40.87],[19.25,40.74],[19.56,40.55],[19.57,40.81],[19.81,40.81],[19.98,40.94],[20.08,41.33],[19.78,41.85],[19.47,41.85]]],[[[12.15,44.45],[12.16,44.84],[12.4,44.78],[12.4,45.04],[12.16,45.17],[12.16,45.5],[12.65,45.56],[12.82,45.69],[13.06,45.63],[13.14,45.82],[13.39,45.82],[13.15,46.22],[12.74,46.15],[12.08,45.63],[11.51,45.5],[10.86,45.5],[10.53,45.63],[8.9,45.63],[8.58,45.5],[8.58,45.37],[8.91,45.1],[10.21,44.97],[10.62,44.71],[10.7,44.45],[10.54,44.25],[10.21,44.06],[10.21,43.86],[10.37,43.67],[10.54,43.08],[11.02,42.82],[11.26,42.43],[11.65,42.37],[11.81,42.11],[12.13,42.04],[12.13,41.91],[13,41.33],[13.71,41.26],[13.95,41.13],[14.1,40.87],[14.42,40.87],[14.42,40.68],[14.89,40.68],[15.04,40.23],[15.2,40.23],[15.43,40.03],[15.9,39.77],[16.12,39.06],[16.27,38.93],[16.27,38.74],[15.95,38.67],[15.86,38.29],[14.06,37.96],[13.67,37.96],[13.35,38.16],[13.12,38.16],[13.04,38.03],[12.65,38.09],[12.49,37.9],[12.49,37.71],[13.19,37.58],[13.58,37.25],[14.28,37.13],[14.66,36.74],[15.05,36.74],[15.21,37.19],[15.06,37.25],[15.07,37.64],[15.39,38.16],[15.62,38.16],[15.7,37.96],[15.93,37.96],[16.49,38.42],[16.5,38.8],[17.14,39.06],[17.07,39.38],[16.92,39.51],[16.45,39.64],[16.46,39.97],[16.7,40.1],[16.62,40.29],[16.86,40.29],[17.03,40.55],[17.35,40.55],[17.42,40.36],[17.81,40.36],[18.11,39.9],[18.35,39.9],[18.44,40.16],[17.98,40.61],[17.51,40.74],[17.2,41],[15.94,41.39],[15.87,41.72],[16.11,41.78],[16.12,41.91],[15.24,41.91],[15.17,42.04],[14.92,41.98],[14.37,42.24],[14.06,42.5],[13.9,42.76],[13.99,42.95],[13.75,43.08],[13.67,43.41],[13.36,43.67],[12.87,43.8],[12.31,44.19],[12.15,44.45]]],[[[10.21,42.69],[10.46,42.69],[10.46,42.89],[10.13,42.89],[10.21,42.69]]],[[[16.8,43.02],[16.79,42.89],[17.19,42.89],[17.2,43.08],[16.8,43.02]]]]},"properties":{"NAME":"Roman Republic","C":3,"name":"Roman Republic","start_year":-202,"end_year":-198,"capital":"","type":"polity","region":"","event":"","source":"Cliopatria / Seshat Global History Databank (CC BY 4.0)","wikipedia":"Roman Republic","wikidata":"Q175881","_a":335,"_c":[6.25,40.16],"_nz":"罗马共和国","_sz":""}},
{"type":"Feature","geometry":{"type":"MultiPolygon","coordinates":[[[[8.93,34.16],[9.24,33.84],[9.32,33.59],[9.85,33.39],[10.47,33.26],[11.08,32.88],[11.62,32.94],[12.08,32.75],[12,32.62],[13.76,32.62],[14.44,32.36],[14.52,32.17],[14.9,32.24],[15.05,32.11],[15.19,31.46],[15.57,31.14],[15.95,31.01],[16.56,31.01],[17.76,30.69],[18.22,30.5],[18.59,30.12],[18.81,30.12],[18.89,30.24],[18.9,30.37],[18.59,30.37],[18.22,30.76],[17.85,30.95],[16.86,31.21],[16.18,31.21],[15.65,31.4],[15.58,31.59],[15.42,31.66],[15.28,32.3],[15.06,32.43],[14.75,32.43],[14.67,32.56],[14.44,32.49],[14.07,32.75],[13.76,32.75],[13.76,32.88],[13.45,32.81],[13.3,32.94],[12.84,32.88],[12.84,32.75],[12.53,32.75],[12.23,32.81],[11.46,33.2],[11.16,33.2],[11.08,33.59],[10.7,33.52],[10.54,33.71],[10.24,33.71],[10.01,33.91],[10.08,34.23],[10,34.29],[10.54,34.55],[10.85,34.81],[10.85,34.94],[11.08,35],[11.01,35.39],[10.85,35.77],[10.7,35.71],[10.46,35.9],[10.54,36.35],[10.46,36.42],[11.01,36.8],[11.01,37],[10.85,37],[10.54,36.74],[10.23,36.8],[10.31,36.93],[10.07,36.93],[10.07,36.8],[10.38,36.67],[10.31,36.48],[10.07,36.48],[10,36.67],[9.76,36.67],[9.53,36.8],[9.6,37.06],[9.45,37.25],[9.06,37.06],[8.9,37.13],[8.52,36.87],[7.74,36.87],[7.66,37],[7.35,37.06],[7.19,36.87],[6.96,36.87],[7.12,36.61],[7.66,36.61],[7.82,36.42],[7.99,35.39],[7.99,35.07],[8.15,34.87],[8.77,34.81],[8.92,34.68],[8.93,34.16]]],[[[-2.74,35.13],[-2.84,35.45],[-2.98,35.26],[-3.29,35.19],[-4.75,35.19],[-5.24,35.52],[-5.34,35.84],[-5.88,35.77],[-6,35.32],[-6.29,35.07],[-6.33,34.55],[-6.47,34.36],[-6.7,34.29],[-6.61,34.16],[-6.9,33.91],[-7.73,33.59],[-7.8,33.59],[-7.55,33.33],[-6.88,33.59],[-6.59,33.84],[-6.6,33.97],[-6.23,34.23],[-5.63,35.52],[-5.39,35.45],[-5.21,35.13],[-4.74,34.94],[-2.89,34.94],[-2.74,35.13]]],[[[0.16,35.9],[0.39,35.97],[0.45,36.22],[0.16,35.9]]],[[[6.73,36.93],[6.33,37.06],[6.1,36.93],[6.11,36.8],[5.64,36.8],[5.56,36.67],[5.1,36.67],[4.86,36.87],[4.24,36.93],[3.85,36.8],[3.46,36.87],[3.23,36.74],[2.84,36.74],[2.69,36.61],[1.91,36.61],[1.92,36.48],[2.77,36.48],[3.16,36.61],[4.87,36.61],[5.26,36.48],[5.41,36.61],[5.64,36.55],[5.95,36.74],[6.34,36.74],[6.73,36.93]]],[[[1.66,39],[1.65,39.13],[1.26,39.13],[1.18,39.06],[1.27,38.8],[1.43,38.8],[1.66,39]]],[[[3.2,39.84],[3.19,39.97],[2.88,39.97],[2.34,39.64],[2.35,39.45],[2.66,39.51],[2.82,39.32],[3.3,39.32],[3.52,39.77],[3.2,39.84]]],[[[4.3,39.84],[4.22,40.1],[3.74,40.1],[3.83,39.9],[4.3,39.84]]]]},"properties":{"NAME":"Carthage","C":7,"name":"Carthage","start_year":-202,"end_year":-198,"capital":"","type":"polity","region":"","event":"","source":"Cliopatria / Seshat Global History Databank (CC BY 4.0)","wikipedia":"Ancient Carthage","wikidata":"Q2429397","_a":266,"_c":[5.55,35.11],"_nz":"迦太基","_sz":""}},
{"type":"Feature","geometry":{"type":"Polygon","coordinates":[[[21.35,38.42],[22.45,38.42],[22.55,38.8],[22.4,38.93],[22.56,39.06],[22.49,39.19],[21.7,39.13],[21.32,39.32],[21.07,39.19],[20.85,39.32],[20.53,39.32],[20.68,39.13],[21.14,39],[21.14,38.93],[21.29,38.8],[21.35,38.42]]]},"properties":{"NAME":"Aetolian League","C":6,"name":"Aetolian League","start_year":-202,"end_year":-198,"capital":"","type":"polity","region":"","event":"","source":"Cliopatria / Seshat Global History Databank (CC BY 4.0)","wikipedia":"Aetolian League","wikidata":"Q245273","_a":2,"_c":[21.55,38.87],"_nz":"埃托利亚同盟","_sz":""}},
{"type":"Feature","geometry":{"type":"MultiPolygon","coordinates":[[[[122.05,30.18],[121.98,29.99],[122.28,29.99],[122.27,30.18],[122.05,30.18]]],[[[119.57,26.07],[119.94,26.32],[119.84,26.52],[120.16,26.58],[120.25,26.9],[120.39,27.16],[120.55,27.16],[120.73,27.54],[120.71,27.74],[120.87,27.99],[121.15,28.19],[121.65,28.32],[121.71,28.77],[121.71,29.22],[121.94,29.22],[122.03,29.92],[121.62,30.05],[121.48,30.31],[121.1,30.31],[120.81,30.12],[120.68,30.18],[121.05,30.56],[121.2,30.56],[121.52,30.82],[121.9,30.82],[122,31.08],[121.74,31.4],[121.58,31.4],[121.45,31.66],[120.92,31.85],[121.58,31.79],[121.84,31.66],[121.99,31.85],[121.78,32.11],[121.5,32.17],[121.4,32.49],[120.92,32.62],[120.93,33.2],[120.55,33.59],[120.49,34.16],[120.34,34.36],[119.73,34.55],[119.71,34.68],[119.23,34.81],[119.62,35.52],[119.99,35.64],[120.32,36.03],[120.66,36.1],[120.73,36.42],[120.96,36.42],[120.98,36.61],[121.21,36.61],[121.91,36.93],[122.39,36.8],[122.57,37],[122.47,37.13],[122.71,37.45],[122.12,37.51],[121.5,37.51],[121.48,37.64],[121.17,37.64],[121.11,37.84],[120.75,37.9],[120.19,37.71],[120.2,37.58],[119.83,37.45],[119.7,37.19],[119.16,37.19],[118.98,37.32],[119.24,37.84],[119.46,37.96],[118.77,38.16],[118.58,38.09],[118.07,38.16],[118.05,38.29],[117.6,38.48],[117.58,38.74],[117.89,39.19],[118.06,39.06],[118.45,39.06],[119.22,39.32],[119.38,39.77],[120.5,40.23],[120.65,40.48],[121,40.68],[121.11,40.87],[121.82,40.87],[121.83,40.74],[122.11,40.68],[122.23,40.48],[121.78,39.97],[121.5,39.9],[121.44,39.64],[121.21,39.51],[121.3,39.38],[121.69,39.38],[121.52,39.06],[121.2,39.06],[121.03,38.74],[121.42,38.74],[121.72,39],[121.95,39],[122.17,39.26],[122.94,39.64],[123.87,39.9],[124.41,40.29],[124.84,41.13],[124.44,41.26],[124.48,41.33],[123.8,41.52],[123.6,41.72],[122.93,41.91],[118.98,40.61],[117.45,40.29],[117.11,40.1],[116.1,39.84],[115.55,39.84],[115.28,40.23],[114.76,40.29],[114.04,40.42],[113.49,40.42],[112.63,40.29],[112.08,39.84],[111.49,38.8],[110.13,38.09],[108.75,36.74],[108.3,36.03],[107.27,35.77],[106.7,35.52],[106.49,35.58],[106.18,35.39],[105.26,35.19],[105.23,35.13],[103.6,34.68],[103.38,34.29],[103.09,34.36],[102.41,34.16],[102.25,33.71],[102.31,33.46],[102.16,32.56],[101.84,32.04],[101.33,31.66],[100.85,31.08],[100.6,30.5],[100.67,30.24],[100.86,30.12],[100.83,29.99],[101.02,29.86],[100.98,29.73],[101.16,29.54],[101.44,29.47],[101.61,29.28],[102.6,29.02],[102.93,28.83],[103.86,28.64],[104.62,28.38],[105.43,28.32],[105.62,28.44],[106.07,28.44],[106.03,28.57],[106.27,28.64],[106.73,28.64],[107.65,28.96],[108.27,29.02],[110.44,28.96],[110.8,28.89],[111.73,28.44],[111.96,28.19],[111.94,27.87],[112.06,27.74],[111.89,26.84],[111.97,26.84],[111.82,26.26],[111.55,25.74],[111.61,25.68],[111.36,24.91],[111.02,24.39],[111.46,24.33],[112.11,24.59],[113.83,24.59],[114.53,24.39],[114.78,25.49],[115.23,26.39],[114.96,26.52],[114.95,26.77],[115.33,28.89],[115.26,28.89],[115.64,29.86],[115.8,30.12],[116.13,30.18],[116.27,29.92],[116.53,29.79],[117.7,29.67],[117.81,29.54],[118.04,29.54],[118.16,28.77],[118.35,28.64],[118.29,28.44],[118.42,28.38],[118.49,27.87],[118.63,27.8],[118.88,26.84],[119.01,26.77],[119.14,26.13],[119.25,26],[119.57,26.07]]]]},"properties":{"NAME":"Han Dynasty","C":9,"name":"Han Dynasty","start_year":-202,"end_year":-198,"capital":"","type":"polity","region":"","event":"","source":"Cliopatria / Seshat Global History Databank (CC BY 4.0)","wikipedia":"Han dynasty","wikidata":"Q1068371","_a":426,"_c":[112.72,33.12],"_nz":"汉","_sz":""}},
{"type":"Feature","geometry":{"type":"MultiPolygon","coordinates":[[[[24.16,35.52],[23.62,35.52],[23.68,35.26],[24.45,35.19],[24.76,35.19],[24.82,35],[26.14,35.07],[26.23,35.19],[25.68,35.13],[25.69,35.32],[24.3,35.32],[24.16,35.52]]],[[[22.87,36.16],[23.11,36.16],[23.12,36.35],[22.89,36.42],[22.87,36.16]]],[[[21.7,37.51],[21.68,37.19],[21.74,36.87],[21.9,36.87],[21.91,37.06],[22.22,37.06],[22.36,36.67],[22.51,36.67],[22.6,36.87],[22.83,36.87],[23.06,36.67],[22.85,37.25],[22.4,37.51],[22.24,37.38],[22.09,37.51],[21.7,37.51]]],[[[21.4,37.77],[21.64,37.9],[21.41,38.09],[21.24,37.84],[21.4,37.77]]],[[[20.33,38.35],[20.32,38.16],[20.79,38.09],[20.8,38.29],[20.57,38.42],[20.33,38.35]]],[[[25.88,38.16],[26.11,38.16],[26.22,38.55],[25.91,38.67],[25.88,38.16]]],[[[22.45,38.42],[22.99,38.29],[23.22,38.16],[23.44,38.03],[23.98,37.84],[24.08,38.29],[23.7,38.48],[23.31,38.48],[22.94,38.8],[22.94,38.87],[22.79,39],[22.56,39.06],[22.4,38.93],[22.55,38.8],[22.45,38.42]]],[[[21.14,38.93],[20.83,39],[20.9,38.8],[21.2,38.48],[21.35,38.42],[21.29,38.8],[21.14,38.93]]],[[[27.46,42.04],[27.54,42.04],[27.92,41.91],[27.8,42.24],[27.49,42.43],[27.51,42.63],[27.85,42.76],[27.8,43.15],[27.9,43.28],[28.23,43.34],[28.48,43.47],[28.62,43.99],[28.58,44.39],[28.84,44.58],[28.8,44.97],[28.64,44.97],[28.37,44.71],[28.3,44.06],[28.12,43.86],[28,43.47],[27.66,43.28],[27.19,42.63],[27.17,42.43],[27.46,42.11],[27.46,42.04]],[[27.54,42.04],[27.46,42.04],[27.46,42.11],[27.54,42.04]]],[[[5.39,43.28],[5.63,43.28],[5.8,43.15],[6.28,43.15],[6.6,43.28],[6.59,43.41],[5.87,43.41],[4.73,43.86],[3.45,43.67],[2.74,43.21],[2.67,43.02],[2.78,42.43],[2.7,42.37],[3.04,41.85],[3.18,42.37],[3.01,42.56],[2.98,43.15],[3.85,43.6],[4.17,43.6],[4.18,43.47],[5.06,43.47],[5.39,43.41],[5.39,43.28]]],[[[27.61,37.32],[27.6,37.13],[28.22,37.13],[28.23,37.19],[28.3,37.19],[28.24,37.38],[27.61,37.32]]],[[[40.38,41],[39.74,40.94],[39.21,41.13],[38.95,41],[38.3,40.87],[38.16,41],[37.83,40.94],[37.77,41.07],[37.21,41.07],[36.77,41.33],[36.53,41.26],[36.51,41.13],[37.36,40.94],[37.87,40.68],[38.82,40.68],[39,40.81],[39.4,40.81],[39.62,40.68],[40.41,40.68],[40.6,40.87],[40.46,41],[40.38,41]]],[[[28.29,41.52],[28.21,41.52],[28.08,41.07],[29.12,41.07],[29.37,41.2],[28.96,41.13],[28.98,41.26],[28.28,41.46],[28.29,41.52]]],[[[35.09,41.78],[35.12,42.04],[34.79,41.98],[35.02,41.85],[35.09,41.78]]],[[[40.42,43.15],[40.82,43.15],[41.12,43.02],[41.17,42.89],[41.41,42.89],[41.44,43.02],[41.21,43.08],[41.15,43.21],[40.38,43.41],[40.41,43.6],[39.63,43.73],[39.98,43.41],[40.22,43.41],[40.42,43.15]]],[[[35.18,45.3],[34.6,45.24],[33.92,44.97],[33.64,45.3],[33.23,45.3],[33.61,45.1],[33.52,44.45],[33.93,44.45],[34.38,44.78],[35.13,44.91],[35.24,45.1],[35.18,45.3]]],[[[31.57,46.94],[31.08,47.01],[31.07,46.87],[30.46,46.61],[29.64,45.96],[29.61,45.69],[29.86,45.69],[30.04,45.89],[30.3,45.96],[30.88,46.68],[31.53,46.68],[31.57,46.94]]]]},"properties":{"NAME":"Greek City-States","C":4,"name":"Greek City-States","start_year":-202,"end_year":-198,"capital":"","type":"polity","region":"","event":"","source":"Cliopatria / Seshat Global History Databank (CC BY 4.0)","wikipedia":"Polis","wikidata":"Q148837","_a":466,"_c":[22.06,41.01],"_nz":"希腊城邦","_sz":""}},
{"type":"Feature","geometry":{"type":"Polygon","coordinates":[[[114.72,22.72],[114.75,22.53],[114.9,22.53],[115.17,22.79],[115.37,22.66],[115.67,22.66],[115.7,22.79],[116.54,22.91],[116.59,23.17],[116.81,23.17],[116.78,23.36],[116.89,23.56],[117.18,23.49],[117.47,23.81],[117.69,23.81],[117.72,23.94],[118.08,24.2],[118.15,24.52],[118.76,24.59],[118.82,24.84],[119.07,24.97],[119.03,25.1],[119.34,25.16],[119.39,25.36],[119.62,25.36],[119.66,25.55],[119.55,25.68],[119.78,26],[119.57,26.07],[119.25,26],[119.14,26.13],[119.01,26.77],[118.88,26.84],[118.63,27.8],[118.49,27.87],[118.42,28.38],[118.29,28.44],[118.35,28.64],[118.16,28.77],[118.04,29.54],[117.81,29.54],[117.7,29.67],[116.53,29.79],[116.27,29.92],[116.13,30.18],[115.8,30.12],[115.64,29.86],[115.26,28.89],[115.33,28.89],[114.95,26.77],[114.96,26.52],[115.23,26.39],[114.78,25.49],[114.53,24.39],[114.49,23.49],[114.9,22.91],[114.72,22.72]]]},"properties":{"NAME":"Minyue","C":7,"name":"Minyue","start_year":-202,"end_year":-171,"capital":"","type":"polity","region":"","event":"","source":"Cliopatria / Seshat Global History Databank (CC BY 4.0)","wikipedia":"Minyue","wikidata":"Q1936158","_a":41,"_c":[117.12,26.36],"_nz":"闽越","_sz":""}},
{"type":"Feature","geometry":{"type":"MultiPolygon","coordinates":[[[[48.8,38.09],[48.82,38.67],[48.74,38.67],[48.93,39.26],[48.67,39.58],[48.3,39.71],[47.52,39.71],[47.38,39.84],[47.05,39.77],[46.77,39.97],[46.54,39.97],[46.49,40.16],[45.52,40.48],[45.49,40.74],[45.67,40.87],[45.47,41.07],[45.23,41.07],[45.12,41.33],[44.24,41.26],[44.03,41.46],[43.78,41.39],[42.56,41.65],[42.25,41.26],[41.53,41.26],[41.36,40.68],[41.12,40.68],[41.01,40.94],[40.57,40.68],[40.77,40.48],[40.75,40.36],[40.51,40.29],[40.4,40.1],[38.79,39.9],[38.93,39.77],[38.74,39.58],[38.95,39.38],[39.21,39.51],[39.75,39.45],[39.85,39.58],[40.48,39.58],[40.51,39.26],[40.66,39.19],[40.51,38.74],[40.52,38.22],[39.45,38.42],[39.39,38.55],[39.11,38.8],[38.81,38.93],[38.13,38.48],[37.32,38.29],[37.11,37.9],[36.35,38.03],[36,37.71],[35.67,37.58],[33.67,37.84],[33.59,38.55],[32.19,38.67],[31.8,38.74],[31.74,38.87],[31.42,38.87],[31.44,39.06],[31.23,39.32],[31.38,39.97],[31.3,39.97],[30.59,39.97],[30.46,40.23],[30.07,40.29],[29.92,40.42],[29.94,40.55],[29.45,40.48],[29.35,40.23],[28.95,40.23],[28.73,40.36],[28.33,40.36],[28.18,40.42],[28.17,40.29],[27.7,40.29],[27.47,40.42],[26.67,40.36],[26.26,40.1],[26.13,39.51],[26.85,39.58],[26.84,39.51],[27.24,39.51],[27.41,39.71],[27.97,39.84],[28.84,39.84],[29.3,39.71],[29.32,39],[29.21,38.67],[28.96,38.55],[28.86,38.29],[28.53,38.03],[28.14,38.09],[27.97,37.9],[27.73,37.84],[27.28,38.03],[27.19,37.96],[27.31,37.45],[27.22,37.32],[27.61,37.32],[28.24,37.38],[28.3,37.19],[29.37,36.87],[29.45,36.87],[30.62,36.93],[31.39,36.87],[31.99,36.61],[32.07,36.61],[33.38,37.25],[33.61,37.25],[33.67,37.13],[34.22,37.13],[34.34,36.74],[34.58,36.87],[34.89,36.87],[34.96,36.74],[35.03,36.74],[35.29,36.93],[35.83,36.93],[36.14,36.93],[36.29,36.8],[36.26,36.61],[35.85,36.35],[35.99,36.22],[35.87,35.84],[35.84,35.58],[35.99,35.52],[35.89,35.26],[36.27,35.19],[36.17,34.94],[36.31,34.87],[36.29,34.68],[36.44,34.61],[36.56,34.29],[36.87,34.29],[37,34.1],[37.39,34.1],[37.6,33.91],[37.65,33.65],[37.99,33.97],[39.12,34.49],[40.26,34.29],[40.31,34.1],[40.7,34.16],[40.91,33.97],[41.21,33.91],[41.43,33.78],[41.49,33.65],[42,33.46],[42.06,33.33],[42.58,33.14],[42.71,32.94],[43.15,32.81],[44.46,31.59],[44.58,31.34],[44.95,31.27],[45.77,30.44],[46.59,30.31],[46.62,29.86],[46.85,29.92],[46.98,29.73],[47.29,29.79],[47.65,29.6],[48.09,29.54],[48.4,29.6],[48.37,29.92],[48.99,30.05],[48.94,30.31],[49.59,29.99],[50.06,30.18],[50.24,29.73],[50.65,29.41],[50.62,29.15],[50.92,29.09],[50.81,28.83],[51.03,28.77],[51.07,28.44],[51.45,27.87],[52.05,27.8],[52.48,27.61],[52.74,27.22],[53.46,26.97],[53.66,26.71],[54.26,26.71],[54.68,26.45],[54.99,26.52],[55.24,26.77],[55.29,26.52],[56.06,26.71],[56.31,26.9],[56.19,27.16],[56.71,27.16],[57.05,26.84],[57.18,25.94],[57.38,25.74],[57.53,25.74],[57.48,26],[57.77,26.58],[58.26,26.9],[58.59,27.16],[59.4,27.54],[60.24,28.25],[61.03,29.47],[61.37,29.73],[61.68,30.24],[62.12,30.63],[63.3,32.11],[63.44,32.04],[63.64,32.3],[63.87,32.3],[64.41,32.69],[64.36,32.81],[64.69,32.94],[64.83,33.26],[64.98,33.26],[65.11,33.52],[65.06,33.65],[65.24,33.78],[65.39,34.1],[65.75,34.36],[66.35,34.29],[66.53,34.42],[66.56,34.55],[66.14,34.74],[65.62,34.81],[65.41,34.94],[64.76,34.74],[64.37,34.74],[64.19,34.61],[63.96,34.61],[63.83,34.74],[63.28,34.68],[63.15,34.81],[62.62,34.87],[62.19,35.39],[61.8,35.39],[61.3,35.58],[61.21,36.61],[60.05,36.61],[59.07,36.42],[58.45,36.42],[57.7,36.55],[57.44,36.8],[56.83,36.87],[56.21,36.87],[55.78,36.67],[54.77,36.67],[54.03,36.87],[53.09,36.8],[52.19,36.55],[52.11,36.55],[52.01,36.42],[50.85,36.03],[50.48,35.64],[49.61,35.52],[49.5,35.32],[49.08,35.13],[47.95,35.32],[46.03,35.39],[45.15,35.71],[45.29,37.19],[45.17,37.45],[45.22,37.77],[45.63,37.9],[45.85,38.29],[46.12,38.48],[47.25,38.67],[48.33,38.09],[48.8,38.09]]],[[[26.64,39],[26.51,39.32],[26.04,39.38],[25.79,39.19],[26.1,39.13],[26.25,38.93],[26.64,39]]]]},"properties":{"NAME":"Seleucid Empire","C":0,"name":"Seleucid Empire","start_year":-202,"end_year":-198,"capital":"","type":"polity","region":"","event":"","source":"Cliopatria / Seshat Global History Databank (CC BY 4.0)","wikipedia":"Seleucid dynasty","wikidata":"Q705904","_a":649,"_c":[46.18,33.7],"_nz":"塞琉古帝国","_sz":""}},
{"type":"Feature","geometry":{"type":"MultiPolygon","coordinates":[[[[20.61,37.71],[20.92,37.64],[20.93,37.9],[20.62,37.9],[20.61,37.71]]],[[[24.68,37.84],[24.83,37.71],[25.07,37.77],[24.77,38.03],[24.68,37.84]]],[[[23.56,38.74],[23.63,38.48],[24.09,38.35],[24.18,38.55],[23.8,38.74],[23.56,38.74]]],[[[24.36,38.87],[24.66,38.74],[24.67,38.93],[24.36,39],[24.36,38.87]]],[[[28.29,41.52],[28.14,41.65],[27.48,41.46],[27.09,41.52],[26.9,41.2],[26.18,41.07],[26.03,41.2],[24.76,41.26],[24.85,41.39],[24.55,41.65],[23.67,41.52],[23.53,41.78],[23.05,41.85],[22.75,42.11],[22.44,42.24],[22.45,42.43],[21.41,42.3],[21.32,42.17],[21,42.24],[20.92,42.11],[20.44,42.17],[19.32,42.17],[19.47,41.85],[19.78,41.85],[20.08,41.33],[19.98,40.94],[19.81,40.81],[19.81,40.74],[20.19,40.42],[20.43,40.42],[20.57,40.1],[20.81,40.1],[20.94,39.71],[21.32,39.38],[21.32,39.32],[21.7,39.13],[22.49,39.19],[22.56,39.06],[22.79,39],[22.94,38.87],[23.18,38.93],[23.49,38.8],[23.34,39],[23.11,39],[22.96,39.13],[22.82,39.38],[23.14,39.45],[22.61,39.9],[22.54,40.1],[22.65,40.61],[23.27,40.29],[23.74,40.23],[23.84,40.55],[23.68,40.61],[23.7,40.81],[24.01,40.74],[24.35,41],[25.85,40.94],[26.08,40.87],[26.14,40.61],[26.63,40.74],[26.78,40.68],[26.84,40.48],[27.53,41.07],[28.08,41],[28.08,41.07],[28.21,41.52],[28.29,41.52]]],[[[24.49,40.81],[24.55,40.55],[24.79,40.61],[24.81,40.81],[24.49,40.81]]],[[[25.05,37.51],[25.29,37.51],[25.22,37.71],[24.99,37.71],[25.05,37.51]]],[[[25.99,37.51],[26.3,37.58],[26.08,37.71],[25.99,37.51]]],[[[27.01,37.64],[27.03,37.84],[26.56,37.84],[26.62,37.64],[27.01,37.64]]],[[[24.97,39.84],[25.45,39.84],[25.46,40.03],[25.07,40.03],[24.97,39.84]]],[[[25.7,40.1],[26.02,40.16],[26.04,40.29],[25.72,40.29],[25.7,40.1]]],[[[26.67,40.36],[26.6,40.48],[26.27,40.29],[26.26,40.1],[26.67,40.36]]],[[[28.18,40.42],[27.7,40.29],[28.17,40.29],[28.18,40.42]]]]},"properties":{"NAME":"Antigonid Macedonia","C":8,"name":"Antigonid Macedonia","start_year":-202,"end_year":-198,"capital":"","type":"polity","region":"","event":"","source":"Cliopatria / Seshat Global History Databank (CC BY 4.0)","wikipedia":"Antigonid dynasty","wikidata":"Q237325","_a":49,"_c":[23.81,39.72],"_nz":"安提柯王朝马其顿","_sz":""}},
{"type":"Feature","geometry":{"type":"Polygon","coordinates":[[[114.72,22.72],[114.9,22.91],[114.49,23.49],[114.53,24.39],[113.83,24.59],[112.11,24.59],[111.46,24.33],[111.02,24.39],[111.01,24.33],[109.38,24.39],[107.15,24.07],[106.47,23.62],[106.16,23.56],[105.76,23.04],[105.27,22.79],[105.14,22.46],[104.98,22.4],[104.86,22.14],[105.13,21.95],[105.1,21.76],[104.93,21.63],[104.98,21.5],[104.85,21.18],[105.1,20.86],[104.87,20.86],[104.91,20.6],[104.62,20.66],[104.44,20.47],[104.98,20.15],[104.86,19.89],[104.99,19.76],[105.02,18.99],[105.14,18.86],[105.19,18.67],[105.14,18.41],[106.42,17.13],[106.4,17],[106.61,16.94],[107.03,17.26],[106.75,17.39],[106.77,17.51],[106.57,17.64],[106.57,18.09],[106.29,18.22],[106.18,18.41],[105.73,18.86],[105.97,19.83],[106.54,20.15],[106.69,20.6],[106.83,20.6],[106.96,20.92],[107.42,20.99],[107.79,21.44],[108.56,21.56],[108.65,21.69],[109.09,21.63],[109.12,21.37],[109.81,21.5],[109.87,21.44],[109.7,20.86],[109.79,20.54],[109.93,20.47],[109.88,20.21],[110.49,20.28],[110.62,20.6],[110.36,20.86],[110.48,21.11],[110.72,21.18],[110.74,21.31],[110.98,21.44],[111.66,21.5],[111.86,21.76],[112.44,21.69],[112.77,21.89],[113.07,21.89],[113.11,22.08],[113.32,22.01],[113.42,22.14],[113.64,22.14],[113.7,22.46],[113.6,22.72],[113.75,22.72],[113.79,22.53],[114,22.46],[114,22.08],[114.37,22.08],[114.53,22.14],[114.64,22.72],[114.72,22.72]]]},"properties":{"NAME":"Nanyue","C":6,"name":"Nanyue","start_year":-202,"end_year":-171,"capital":"","type":"polity","region":"","event":"","source":"Cliopatria / Seshat Global History Databank (CC BY 4.0)","wikipedia":"Nanyue","wikidata":"Q827040","_a":80,"_c":[109.67,20.77],"_nz":"南越国","_sz":""}}
]}