{"type":"FeatureCollection", "features": [
{"type":"Feature","geometry":{"type":"Polygon","coordinates":[[[30.54,23.36],[30.74,22.85],[30.72,22.27],[30.64,21.95],[30.69,21.31],[30.76,21.31],[30.74,20.79],[30.82,20.79],[30.8,20.34],[30.88,20.34],[31.15,17.64],[31.22,17.64],[31.34,16.81],[31.48,16.61],[31.39,16.36],[31.54,16.23],[31.53,15.97],[31.73,15.59],[32.09,15.39],[32.53,15.33],[32.53,15.2],[33.86,15.46],[34.1,15.84],[34.68,15.78],[34.56,16.23],[34.71,16.49],[35.67,16.49],[36.05,16.81],[36,17.32],[35.5,17.64],[35.3,18.09],[34.94,18.29],[34.88,18.61],[34.6,18.93],[34.47,19.38],[34.26,19.64],[33.82,21.63],[33.88,23.17],[33.82,23.49],[33.68,23.69],[33.39,23.81],[32.04,23.69],[31.67,23.75],[30.54,23.36]]]},"properties":{"NAME":"Kingdom of Kush","C":3,"name":"Kingdom of Kush","start_year":-630,"end_year":337,"capital":"","type":"polity","region":"","event":"","source":"Cliopatria / Seshat Global History Databank (CC BY 4.0)","wikipedia":"Kingdom of Kush","wikidata":"Q241790","_a":48,"_c":[33.29,19.51],"_nz":"库施王国","_sz":""}},
{"type":"Feature","geometry":{"type":"Polygon","coordinates":[[[46.58,15.33],[47.53,15.2],[47.52,15.07],[48.32,14.94],[48.54,14.81],[49.63,14.69],[50.75,15.01],[50.85,15.33],[51.07,15.46],[51.24,15.78],[51.86,16.23],[51.95,16.49],[51.89,16.61],[51.08,16.68],[50.48,16.55],[50.12,16.61],[49.59,16.49],[48.12,16.42],[46.7,16.1],[46.55,16.16],[46.47,15.97],[46.38,15.71],[46.15,15.52],[46.58,15.33]]]},"properties":{"NAME":"Hadhramaut","C":11,"name":"Hadhramaut","start_year":-350,"end_year":183,"capital":"","type":"polity","region":"","event":"","source":"Cliopatria / Seshat Global History Databank (CC BY 4.0)","wikipedia":"Hadhramaut","wikidata":"Q1517159","_a":12,"_c":[49.05,15.68],"_nz":"哈德拉毛","_sz":""}},
{"type":"Feature","geometry":{"type":"Polygon","coordinates":[[[75.99,10.6],[76.55,8.92],[77.15,8.26],[77.25,8.39],[77.34,9.58],[77.23,9.76],[77.41,10.21],[76.85,10.45],[76.89,10.76],[76.71,10.91],[75.99,10.6]]]},"properties":{"NAME":"Early Cheras","C":9,"name":"Early Cheras","start_year":-291,"end_year":298,"capital":"","type":"polity","region":"","event":"","source":"Cliopatria / Seshat Global History Databank (CC BY 4.0)","wikipedia":"Chera dynasty","wikidata":"Q877155","_a":4,"_c":[76.7,9.59],"_nz":"早期哲罗","_sz":""}},
{"type":"Feature","geometry":{"type":"Polygon","coordinates":[[[79.29,10.27],[78.92,10.13],[77.44,10.19],[77.24,9.77],[77.36,9.58],[77.26,8.15],[77.53,8.08],[77.84,8.17],[78.18,8.51],[78.25,8.91],[78.54,9.1],[79.15,9.26],[78.91,9.45],[78.94,9.67],[79.27,9.99],[79.29,10.27]]]},"properties":{"NAME":"Early Pandyas","C":3,"name":"Early Pandyas","start_year":-291,"end_year":298,"capital":"","type":"polity","region":"","event":"","source":"Cliopatria / Seshat Global History Databank (CC BY 4.0)","wikipedia":"Early Pandyas","wikidata":"Q3532152","_a":5,"_c":[78.22,9.18],"_nz":"早期潘迪亚","_sz":""}},
{"type":"Feature","geometry":{"type":"Polygon","coordinates":[[[79.83,11.36],[78.96,10.84],[77.88,10.94],[77.59,11.14],[77.02,11.17],[76.68,10.94],[76.9,10.77],[76.85,10.48],[77.4,10.21],[78.92,10.16],[79.39,10.32],[79.85,10.27],[79.87,11.2],[79.83,11.36]]]},"properties":{"NAME":"Early Cholas","C":1,"name":"Early Cholas","start_year":-291,"end_year":298,"capital":"","type":"polity","region":"","event":"","source":"Cliopatria / Seshat Global History Databank (CC BY 4.0)","wikipedia":"Early Cholas","wikidata":"Q3532146","_a":4,"_c":[78.28,10.76],"_nz":"早期朱罗","_sz":""}},
{"type":"Feature","geometry":{"type":"Polygon","coordinates":[[[-88.5,17.77],[-88.95,17.77],[-89.34,17.9],[-90.21,18.29],[-91.66,18.09],[-91.7,17.9],[-91.92,17.9],[-91.95,17.64],[-92.48,17.26],[-92.46,17.13],[-92.71,16.87],[-93.15,15.84],[-93.12,15.65],[-93.32,15.52],[-92.75,15.14],[-92.47,14.69],[-91.5,13.98],[-90.47,13.91],[-89.99,13.59],[-89.87,13.79],[-89.57,13.72],[-89.59,13.91],[-89.19,14.24],[-88.82,14.24],[-88.69,14.43],[-88.63,15.07],[-88.38,15.39],[-88.51,15.84],[-88.82,15.97],[-88.64,16.23],[-88.49,16.23],[-88.24,16.49],[-88.14,16.81],[-88.18,17.58],[-88.47,17.58],[-88.5,17.77]]]},"properties":{"NAME":"Mayan City-States","C":2,"name":"Mayan City-States","start_year":-247,"end_year":259,"capital":"","type":"polity","region":"","event":"","source":"Cliopatria / Seshat Global History Databank (CC BY 4.0)","wikipedia":"Maya civilization","wikidata":"Q28567","_a":24,"_c":[-90.73,15.94],"_nz":"玛雅城邦","_sz":""}},
{"type":"Feature","geometry":{"type":"Polygon","coordinates":[[[127.55,34.61],[127.76,34.74],[128.07,34.74],[128.33,34.81],[128.68,34.74],[128.88,35],[129.15,35.07],[129.35,35.32],[129.07,35.39],[129.01,35.58],[128.62,35.58],[128.61,35.71],[128.22,35.71],[128.21,35.84],[127.93,35.9],[127.63,35.45],[127.45,35.07],[127.57,35],[127.45,34.74],[127.55,34.61]]]},"properties":{"NAME":"Byeonhan","C":0,"name":"Byeonhan","start_year":-91,"end_year":533,"capital":"无固定都城（弁韩诸部）","type":"polity","region":"korea","event":"","source":"Cliopatria / Seshat Global History Databank (CC BY 4.0)","wikipedia":"Byeonhan confederacy","wikidata":"Q1378584","_a":2,"_c":[128.4,35.25],"_nz":"弁韩","_sz":""}},
{"type":"Feature","geometry":{"type":"Polygon","coordinates":[[[129.35,35.32],[129.55,35.58],[129.67,35.97],[129.42,36.1],[129.54,36.93],[129.35,37.32],[129.21,37.19],[128.7,37.25],[127.99,36.8],[127.97,36.29],[128.09,36.22],[127.93,35.9],[128.21,35.84],[128.22,35.71],[128.61,35.71],[128.62,35.58],[129.01,35.58],[129.07,35.39],[129.35,35.32]]]},"properties":{"NAME":"Jinhan","C":6,"name":"Jinhan","start_year":-91,"end_year":372,"capital":"无固定都城（辰韩诸部）","type":"polity","region":"korea","event":"","source":"Cliopatria / Seshat Global History Databank (CC BY 4.0)","wikipedia":"Jinhan confederacy","wikidata":"Q701273","_a":4,"_c":[128.76,36.32],"_nz":"辰韩","_sz":""}},
{"type":"Feature","geometry":{"type":"Polygon","coordinates":[[[126.35,37.84],[126.29,37.58],[126.7,37.32],[126.6,37.13],[126.05,36.8],[126.26,36.61],[126.45,36.67],[126.43,36.16],[126.68,36.03],[126.3,35.26],[126.2,34.87],[126.48,34.81],[126.12,34.36],[126.42,34.36],[126.63,34.29],[127.13,34.55],[127.22,34.42],[127.55,34.61],[127.45,34.74],[127.57,35],[127.45,35.07],[127.63,35.45],[127.93,35.9],[128.09,36.22],[127.97,36.29],[127.99,36.8],[127.82,37.06],[127.83,37.38],[127.62,37.58],[127.63,37.9],[127.48,37.9],[127.61,38.29],[126.94,38.35],[126.35,37.84]]]},"properties":{"NAME":"Mahan","C":5,"name":"Mahan","start_year":-91,"end_year":337,"capital":"","type":"polity","region":"","event":"","source":"Cliopatria / Seshat Global History Databank (CC BY 4.0)","wikipedia":"Mahan","wikidata":"Q421372","_a":8,"_c":[127.07,36.32],"_nz":"马韩","_sz":""}},
{"type":"Feature","geometry":{"type":"Polygon","coordinates":[[[-95.59,17.32],[-95.99,17.51],[-96.28,17.51],[-96.61,17.71],[-96.91,17.71],[-97.54,17.96],[-98.06,17.96],[-98.25,17.77],[-98.23,17.64],[-98.02,17.32],[-98.03,16.94],[-97.9,17],[-97.77,16.68],[-98.04,16.55],[-98.05,16.1],[-97.72,15.91],[-97.05,15.84],[-96.73,15.65],[-96.21,15.65],[-94.95,16.1],[-94.85,16.36],[-94.63,16.42],[-94.38,16.68],[-94.6,17.13],[-95.07,17.32],[-95.59,17.32]]]},"properties":{"NAME":"Zapotec Civilization","C":5,"name":"Zapotec Civilization","start_year":-91,"end_year":206,"capital":"","type":"polity","region":"","event":"","source":"Cliopatria / Seshat Global History Databank (CC BY 4.0)","wikipedia":"Zapotec civilization","wikidata":"Q844750","_a":9,"_c":[-96.31,16.81],"_nz":"萨波特克文明","_sz":""}},
{"type":"Feature","geometry":{"type":"Polygon","coordinates":[[[42.76,37.51],[42.88,37.77],[42.51,37.9],[42.03,37.84],[41.97,37.96],[41.67,38.03],[40.57,38.03],[40.09,37.96],[40.05,37.64],[40.18,37.45],[41.18,37.32],[41.98,37.51],[42.76,37.51]]]},"properties":{"NAME":"Kingdom of Gordyene","C":9,"name":"Kingdom of Gordyene","start_year":-63,"end_year":113,"capital":"","type":"polity","region":"","event":"","source":"Cliopatria / Seshat Global History Databank (CC BY 4.0)","wikipedia":"Corduene","wikidata":"Q29237","_a":2,"_c":[41.47,37.67],"_nz":"戈迪恩王国","_sz":""}},
{"type":"Feature","geometry":{"type":"Polygon","coordinates":[[[41.54,36.55],[41.67,36.35],[41.98,36.35],[42.63,36.55],[42.62,37.06],[42.76,37.51],[41.98,37.51],[41.18,37.32],[41.21,37],[41.54,36.55]]]},"properties":{"NAME":"Kingdom of Adiabene","C":9,"name":"Kingdom of Adiabene","start_year":-63,"end_year":116,"capital":"","type":"polity","region":"","event":"","source":"Cliopatria / Seshat Global History Databank (CC BY 4.0)","wikipedia":"Adiabene","wikidata":"Q149747","_a":2,"_c":[41.97,36.93],"_nz":"阿迪亚贝纳王国","_sz":""}},
{"type":"Feature","geometry":{"type":"Polygon","coordinates":[[[-98.87,19.19],[-98.51,18.86],[-98.29,18.86],[-98.2,19.19],[-98.05,19.19],[-98.02,19.38],[-98.42,19.57],[-98.44,19.7],[-98.88,19.64],[-98.99,19.44],[-98.87,19.19]]]},"properties":{"NAME":"Teotihuacan","C":3,"name":"Teotihuacan","start_year":-50,"end_year":105,"capital":"","type":"polity","region":"","event":"","source":"Cliopatria / Seshat Global History Databank (CC BY 4.0)","wikipedia":"Teotihuacan","wikidata":"Q172613","_a":1,"_c":[-98.5,19.28],"_nz":"特奥蒂瓦坎","_sz":""}},
{"type":"Feature","geometry":{"type":"Polygon","coordinates":[[[40.82,14.81],[40.68,15.01],[40.31,14.94],[39.97,15.52],[39.82,15.52],[39.73,15.2],[39.61,15.59],[39.15,15.33],[38.93,15.39],[38.78,15.14],[38.63,15.07],[38.17,14.69],[38,14.17],[38.26,13.4],[38.4,13.08],[38.97,12.82],[41.32,12.82],[41.47,12.95],[41.91,13.01],[41.92,13.14],[42.22,13.27],[42.44,13.27],[42.38,13.59],[41.66,14.04],[41.39,14.56],[40.82,14.81]]]},"properties":{"NAME":"Kingdom of Axum","C":3,"name":"Kingdom of Axum","start_year":-50,"end_year":237,"capital":"","type":"polity","region":"","event":"","source":"Cliopatria / Seshat Global History Databank (CC BY 4.0)","wikipedia":"Kingdom of Aksum","wikidata":"Q139377","_a":12,"_c":[40.22,14.21],"_nz":"阿克苏姆王国","_sz":""}},
{"type":"Feature","geometry":{"type":"Polygon","coordinates":[[[129.35,37.32],[129.26,37.58],[129.1,37.58],[128.58,38.35],[128.62,38.42],[128.36,38.8],[127.92,39],[127.92,39.13],[127.48,39.19],[127.59,39.51],[126.96,39.38],[126.85,39.19],[127.02,38.93],[126.94,38.35],[127.61,38.29],[127.48,37.9],[127.63,37.9],[127.62,37.58],[127.83,37.38],[127.82,37.06],[127.99,36.8],[128.7,37.25],[129.21,37.19],[129.35,37.32]]]},"properties":{"NAME":"Dongye","C":8,"name":"Dongye","start_year":-36,"end_year":312,"capital":"无固定都城","type":"polity","region":"korea","event":"","source":"Cliopatria / Seshat Global History Databank (CC BY 4.0)","wikipedia":"Dongye","wikidata":"Q105946539","_a":7,"_c":[128.12,38.16],"_nz":"东濊","_sz":""}},
{"type":"Feature","geometry":{"type":"Polygon","coordinates":[[[72.76,21.69],[72.56,21.24],[72.9,20.92],[72.84,20.34],[72.63,19.83],[72.76,19.64],[72.73,19.38],[72.87,19.31],[72.96,18.03],[73.25,17.32],[73.25,16.61],[73.33,16.61],[73.42,16.04],[73.8,15.46],[74.1,15.52],[74.31,15.39],[74.75,15.39],[74.97,15.33],[75.3,15.01],[75.97,13.46],[76.11,13.4],[76.44,13.79],[76.89,13.91],[77.21,14.17],[77.5,14.17],[78.27,14.49],[78.71,14.49],[79.06,15.78],[79.31,16.1],[79.53,16.74],[80.36,17.51],[81.22,17.96],[81.76,18.74],[81.91,18.74],[82.03,19.12],[82.08,19.51],[82.05,19.89],[82.2,19.96],[82.31,20.21],[82.46,20.21],[82.66,20.66],[83.16,21.05],[83.37,21.56],[83.52,21.56],[83.35,21.95],[82.62,22.66],[81.36,23.3],[80.86,23.94],[80.71,23.94],[80.37,24.2],[79.38,24.59],[78.58,24.71],[78.31,24.97],[78.22,24.84],[77.85,24.84],[77.3,24.65],[76.71,24.2],[76.02,24.07],[74.59,23.36],[74.03,22.4],[73.55,22.14],[73.21,21.76],[72.76,21.69]]]},"properties":{"NAME":"Satavahana Dynasty","C":10,"name":"Satavahana Dynasty","start_year":-27,"end_year":105,"capital":"","type":"polity","region":"","event":"","source":"Cliopatria / Seshat Global History Databank (CC BY 4.0)","wikipedia":"Satavahana dynasty","wikidata":"Q5257","_a":127,"_c":[78.04,19.18],"_nz":"萨塔瓦哈纳王朝","_sz":""}},
{"type":"Feature","geometry":{"type":"Polygon","coordinates":[[[46.47,15.97],[46.18,15.97],[46.02,15.84],[45.58,15.84],[45.01,16.23],[45.02,16.36],[44.54,16.94],[44.34,17.32],[44.42,17.45],[44.08,17.96],[44.09,18.16],[43.89,18.41],[43.9,18.74],[43.63,19.06],[43.64,19.25],[43.5,19.38],[43.51,19.57],[43.31,19.96],[42.96,20.28],[42.81,20.28],[42.53,20.6],[42.16,20.66],[41.82,21.11],[41.52,21.18],[41.38,21.37],[41.09,21.44],[40.88,21.69],[40.16,22.08],[40.09,22.27],[39.88,22.4],[39.83,22.98],[39.91,22.98],[39.93,23.36],[40.28,24.33],[39.79,24.91],[39.51,25.1],[39.46,25.55],[39.32,25.62],[39.05,26.13],[38.69,26.39],[38.47,26.39],[38.23,26.19],[38.22,26.13],[38.58,25.81],[38.82,24.91],[38.9,24.91],[38.86,24.33],[38.7,24.07],[38.24,23.88],[38.6,23.62],[38.87,23.04],[38.86,22.85],[39.14,22.53],[39.03,21.76],[39.17,21.63],[39.15,21.18],[39.49,20.6],[39.84,20.28],[40.14,20.28],[40.56,19.83],[40.85,19.7],[40.84,19.51],[40.99,19.44],[41.04,19.12],[41.25,18.86],[41.24,18.61],[41.45,18.48],[41.78,17.84],[42.28,17.45],[42.34,17.13],[42.82,16.61],[42.78,15.84],[42.71,15.84],[42.75,15.14],[42.89,15.07],[42.95,14.88],[43.06,13.98],[43.26,13.72],[43.24,13.08],[43.45,12.89],[43.44,12.69],[44.39,12.63],[44.61,12.76],[45.05,12.76],[45.74,13.34],[46.03,13.34],[46.05,13.59],[46.2,13.72],[46.16,14.43],[45.95,14.49],[45.82,14.81],[45.6,14.88],[46.34,15.01],[46.58,15.33],[46.15,15.52],[46.38,15.71],[46.47,15.97]]]},"properties":{"NAME":"Himyarite Kingdom","C":7,"name":"Himyarite Kingdom","start_year":-19,"end_year":105,"capital":"","type":"polity","region":"","event":"","source":"Cliopatria / Seshat Global History Databank (CC BY 4.0)","wikipedia":"Himyarite Kingdom","wikidata":"Q289577","_a":115,"_c":[42.4,19.51],"_nz":"希米亚里特王国","_sz":""}},
{"type":"Feature","geometry":{"type":"Polygon","coordinates":[[[127.59,39.51],[127.58,39.77],[128.17,39.97],[128.92,40.42],[129.08,40.42],[129.24,40.68],[129.76,40.87],[129.88,41.2],[129.73,41.33],[129.09,41.2],[128.49,41.26],[128.13,41.07],[127.46,41],[127.38,40.87],[127.06,40.87],[126.62,40.68],[126.43,40.61],[126.27,40.36],[126.43,40.1],[126.71,40.03],[126.83,39.84],[126.73,39.38],[126.96,39.38],[127.59,39.51]]]},"properties":{"NAME":"Dong-okjeo","C":3,"name":"Dong-okjeo","start_year":43,"end_year":126,"capital":"","type":"polity","region":"","event":"","source":"Cliopatria / Seshat Global History Databank (CC BY 4.0)","wikipedia":"Okjeo","wikidata":"Q713393","_a":7,"_c":[128.07,40.36],"_nz":"东沃沮","_sz":""}},
{"type":"Feature","geometry":{"type":"Polygon","coordinates":[[[40.18,37.45],[40.05,37.64],[40.09,37.96],[40.57,38.03],[40.47,38.42],[40.66,39.19],[40.51,39.26],[40.48,39.58],[39.85,39.58],[39.75,39.45],[39.21,39.51],[38.95,39.38],[38.93,39.19],[38.75,39.06],[38.73,38.87],[38.96,38.87],[39.25,38.67],[39.23,38.55],[39.51,38.29],[39.42,38.16],[39.46,37.9],[39.5,37.58],[40.18,37.45]]]},"properties":{"NAME":"Kingdom of Sophene","C":4,"name":"Kingdom of Sophene","start_year":43,"end_year":105,"capital":"","type":"polity","region":"","event":"","source":"Cliopatria / Seshat Global History Databank (CC BY 4.0)","wikipedia":"Kingdom of Sophene","wikidata":"Q2626105","_a":4,"_c":[39.69,38.52],"_nz":"索菲尼王国","_sz":""}},
{"type":"Feature","geometry":{"type":"MultiPolygon","coordinates":[[[[19.24,53.73],[19.27,54.07],[19.46,54.34],[18.69,54.41],[18.45,54.68],[18.46,54.89],[17.15,54.82],[16.44,54.61],[15.99,54.27],[15.38,54.21],[15.54,53.94],[16.15,53.94],[16.68,54.14],[16.86,54.34],[17.65,54.41],[18.14,54.07],[18.08,53.12],[18.17,53.06],[18.86,53.19],[19.23,53.53],[19.24,53.73]]],[[[18.23,57.83],[18.03,57.56],[18.08,56.94],[18.34,56.94],[18.45,57.21],[18.91,57.42],[18.84,57.7],[19.05,57.97],[18.6,57.97],[18.23,57.83]]],[[[14.37,59.57],[14.3,60.07],[14.39,60.14],[13.94,60.35],[13.95,60.49],[13.12,60.42],[12.85,60.56],[12.49,60.56],[12.38,60.14],[11.93,60],[11.74,59.64],[11.73,59.22],[11.45,58.81],[11.72,58.6],[12.17,58.53],[12.07,58.11],[11.71,57.7],[12.15,57.77],[12.24,57.35],[12.68,57.49],[13.12,57.01],[13.28,56.39],[13.81,56.46],[13.99,56.59],[14.6,56.52],[14.86,56.39],[15.67,56.66],[15.84,56.46],[16.44,56.25],[16.72,56.52],[16.74,56.8],[16.48,56.87],[16.5,57.28],[16.69,57.42],[16.63,57.9],[16.81,58.04],[16.85,58.67],[16.4,58.67],[16.32,58.88],[15.89,59.16],[15.53,59.16],[15.42,58.88],[14.6,58.67],[14.25,58.88],[14.37,59.57]]]]},"properties":{"NAME":"Goths","C":7,"name":"Goths","start_year":43,"end_year":153,"capital":"","type":"polity","region":"","event":"","source":"Cliopatria / Seshat Global History Databank (CC BY 4.0)","wikipedia":"Goths","wikidata":"Q42193","_a":60,"_c":[15.46,56.81],"_nz":"哥特人","_sz":""}},
{"type":"Feature","geometry":{"type":"MultiPolygon","coordinates":[[[[50.43,25.94],[50.65,25.87],[50.69,26.26],[50.46,26.26],[50.43,25.94]]],[[[65.88,40.81],[65.59,40.61],[65.27,40.61],[65.24,40.48],[64.39,40.29],[64.02,40.1],[62.88,39.97],[62.5,40.03],[60.95,39.51],[60.71,39.51],[60.68,39.71],[60.05,39.71],[59.77,39.84],[59.77,40.16],[58.98,40.16],[58.85,40.29],[58.54,40.29],[58.33,40.42],[57.35,40.29],[57.24,40.16],[56.99,40.42],[56.65,40.36],[54.54,40.81],[53.4,40.68],[52.94,40.74],[52.79,40.42],[52.72,40.1],[53.5,40.03],[53.52,39.38],[53.99,39],[53.83,37.84],[53.91,37.45],[54.09,37.19],[54.03,36.87],[53.09,36.8],[52.19,36.55],[51.26,36.61],[50.53,36.87],[50.32,37],[49.85,37.45],[49.09,37.51],[48.83,37.84],[48.8,38.09],[48.33,38.09],[47.25,38.67],[46.12,38.48],[45.85,38.29],[45.63,37.9],[45.22,37.77],[45.17,37.45],[45.29,37.19],[45.25,36.93],[44.8,37.06],[44.77,37.38],[44.64,37.51],[43.94,37.58],[43.89,37.71],[42.88,37.77],[42.76,37.51],[42.62,37.06],[42.63,36.55],[41.98,36.35],[41.67,36.35],[41.54,36.55],[41.28,36.35],[40.81,36.29],[39.75,35.9],[39.5,35.71],[39.94,35.52],[40.06,35.26],[40.28,35.13],[40.26,35],[40.48,34.87],[40.55,34.16],[41.21,33.91],[41.49,33.65],[41.79,33.59],[42.06,33.33],[42.36,33.26],[42.71,32.94],[43.15,32.81],[44.46,31.59],[44.58,31.34],[44.95,31.27],[45.77,30.44],[46.59,30.31],[46.62,29.86],[46.85,29.92],[46.98,29.73],[47.29,29.79],[47.65,29.67],[47.53,29.28],[48.01,28.83],[48,28.7],[48.21,28.51],[48.25,28.19],[48.47,28.12],[48.55,27.48],[49.06,27.29],[49.27,27.09],[49.25,26.97],[49.88,26.45],[49.67,25.87],[50.03,25.68],[50.34,24.97],[50.62,24.65],[50.92,24.71],[51.12,25.29],[50.98,25.42],[51.23,25.68],[51.35,25.36],[51.29,24.71],[51.1,24.2],[51.17,24.07],[51.82,23.88],[51.88,23.69],[54.27,23.75],[54.81,23.94],[55.62,24.65],[55.84,24.59],[55.86,24.78],[56.09,24.84],[56.29,24.59],[56.27,24.39],[56.49,24.33],[56.54,24.07],[56.82,23.88],[56.81,23.75],[57.83,23.49],[57.96,23.3],[58.33,23.3],[58.61,23.04],[58.91,23.04],[58.9,22.91],[59.27,22.91],[59.28,23.04],[59.07,23.17],[59.08,23.3],[58.81,23.62],[57.49,23.88],[56.79,24.33],[56.54,24.91],[56.4,24.97],[56.46,25.55],[56.39,25.55],[56.54,26.32],[56.48,26.39],[56.17,26.32],[55.97,25.87],[55.41,25.55],[55.14,25.1],[54.74,24.84],[54.56,24.46],[54.32,24.26],[54.1,24.33],[54.08,24.14],[53.11,24.14],[52.6,24.26],[52.28,24.01],[51.91,24.01],[51.85,24.26],[51.41,24.33],[51.52,24.78],[51.69,24.97],[51.72,25.29],[51.57,25.36],[51.7,25.87],[51.42,26.13],[51.12,26.13],[50.95,25.94],[50.92,25.62],[50.61,25.42],[50.33,25.62],[50.21,26],[50.25,26.45],[50.12,26.58],[50.13,26.77],[49.36,27.29],[49.24,27.61],[48.87,27.67],[48.97,27.93],[48.56,28.32],[48.46,28.77],[48.19,29.09],[48.22,29.28],[47.87,29.54],[48.4,29.6],[48.37,29.92],[48.99,30.05],[48.94,30.31],[49.59,29.99],[50.06,30.18],[50.24,29.73],[50.65,29.41],[50.62,29.15],[50.92,29.09],[50.81,28.83],[51.03,28.77],[51.07,28.44],[51.33,28.12],[51.32,27.99],[51.6,27.8],[52.05,27.8],[52.48,27.61],[52.74,27.22],[53.46,26.97],[53.66,26.71],[54.26,26.71],[54.46,26.52],[54.83,26.45],[55.24,26.77],[55.29,26.52],[55.6,26.64],[56.06,26.71],[56.31,26.9],[56.19,27.16],[56.71,27.16],[57.05,26.84],[57.18,25.94],[57.38,25.74],[57.68,25.74],[57.74,25.62],[57.96,25.55],[58.78,25.55],[59.06,25.36],[60.63,25.36],[60.62,25.23],[60.92,25.23],[61.13,25.1],[61.66,25.16],[61.72,25.04],[62.02,25.04],[62.18,25.16],[62.47,25.1],[62.56,25.23],[63.54,25.23],[63.63,25.36],[64.23,25.36],[64.28,25.23],[64.8,25.16],[64.82,25.29],[66.02,25.36],[66.35,25.55],[66.62,25.36],[66.64,24.91],[67.11,25.1],[67.5,25.81],[67.2,26.32],[67.17,27.22],[67.06,27.48],[67.01,28.57],[66.93,28.57],[67.14,29.34],[66.99,29.41],[66.89,29.67],[66.43,29.67],[66.08,29.79],[65.12,29.54],[64.53,29.6],[64.12,29.41],[62.3,29.41],[61,29.79],[60.96,29.99],[61.39,30.31],[61.87,30.95],[61.94,31.34],[62.42,31.46],[62.82,31.98],[63.16,32.17],[63.19,32.3],[63.43,32.36],[63.87,33.84],[64.32,34.16],[64.57,34.61],[65.09,34.87],[64.85,35.19],[64.83,35.77],[64.75,35.77],[65.16,38.74],[65.07,39],[65.28,39.51],[65.29,39.84],[65.56,39.97],[65.88,40.81]]]]},"properties":{"NAME":"Parthian Empire","C":7,"name":"Parthian Empire","start_year":51,"end_year":113,"capital":"","type":"polity","region":"","event":"","source":"Cliopatria / Seshat Global History Databank (CC BY 4.0)","wikipedia":"Parthian Empire","wikidata":"Q1986139","_a":503,"_c":[53.5,31.89],"_nz":"帕提亚帝国","_sz":""}},
{"type":"Feature","geometry":{"type":"Polygon","coordinates":[[[108.35,13.08],[108.24,13.34],[106.3,13.08],[106.24,13.21],[105.88,13.21],[105.54,13.47],[103.21,13.59],[101.87,14.04],[101.68,13.08],[101.81,12.95],[101.78,12.63],[102.11,12.31],[102.26,12.31],[102.22,11.99],[102.44,11.99],[102.6,12.12],[102.87,11.86],[102.84,11.6],[103.05,11.47],[103.06,10.83],[103.36,10.83],[103.6,11.09],[103.64,10.77],[103.49,10.7],[103.53,10.48],[104.01,9.87],[104.16,10.56],[104.53,10.09],[105.03,9.99],[104.79,9.74],[104.7,8.64],[104.77,8.51],[105.14,8.58],[105.62,9.16],[106.14,9.29],[106.23,9.48],[106.6,9.54],[106.55,9.8],[106.64,9.99],[106.8,10.06],[106.82,10.32],[106.98,10.51],[107.34,10.38],[108.03,10.7],[108.12,10.89],[108.57,11.02],[109.05,11.41],[108.62,11.54],[108.5,11.73],[108.14,11.79],[108.1,12.12],[108.25,12.18],[108.35,13.08]]]},"properties":{"NAME":"Funan","C":0,"name":"Funan","start_year":51,"end_year":237,"capital":"","type":"polity","region":"","event":"","source":"Cliopatria / Seshat Global History Databank (CC BY 4.0)","wikipedia":"Funan","wikidata":"Q867782","_a":41,"_c":[105.37,11.27],"_nz":"扶南","_sz":""}},
{"type":"Feature","geometry":{"type":"Polygon","coordinates":[[[129.73,41.33],[129.74,41.72],[130.32,42.24],[130.77,42.43],[130.74,42.63],[130.92,42.89],[130.65,43.08],[126.99,42.89],[125.66,42.69],[125.09,42.43],[124.61,42.17],[123.17,41.91],[124.48,41.33],[124.44,41.26],[125,41.13],[125.43,41.33],[126.11,41.26],[126.19,41.13],[126.74,41],[126.62,40.68],[127.06,40.87],[127.38,40.87],[127.46,41],[128.13,41.07],[128.49,41.26],[129.09,41.2],[129.73,41.33]]]},"properties":{"NAME":"Goguryeo","C":11,"name":"Goguryeo","start_year":60,"end_year":153,"capital":"国内城（今集安）","type":"dynasty","region":"korea","event":"","source":"Cliopatria / Seshat Global History Databank (CC BY 4.0)","wikipedia":"Goguryeo","wikidata":"Q28370","_a":19,"_c":[127.03,41.88],"_nz":"高句丽","_sz":""}},
{"type":"Feature","geometry":{"type":"Polygon","coordinates":[[[45.7,42.24],[45.68,42.56],[45.44,42.56],[45.16,42.76],[44.69,42.82],[43.78,42.69],[43.74,42.89],[43.2,43.02],[42.92,43.21],[42.5,43.15],[42.61,42.82],[42.75,42.76],[42.72,42.56],[42.93,42.43],[42.62,41.59],[42.86,41.59],[43.34,41.13],[43.98,41.13],[44.24,41.26],[44.35,41.46],[44.77,41.59],[45.07,41.91],[45.31,41.91],[45.54,42.24],[45.7,42.24]]]},"properties":{"NAME":"Caucasian Iberia","C":6,"name":"Caucasian Iberia","start_year":68,"end_year":259,"capital":"","type":"polity","region":"","event":"","source":"Cliopatria / Seshat Global History Databank (CC BY 4.0)","wikipedia":"Kingdom of Iberia","wikidata":"Q19083","_a":7,"_c":[44.1,42.17],"_nz":"高加索伊比利亚","_sz":""}},
{"type":"Feature","geometry":{"type":"Polygon","coordinates":[[[48.15,39.71],[48.2,40.81],[48.38,40.94],[48.34,41.13],[47.96,41.2],[47.99,41.33],[47.5,41.26],[47.35,41.33],[46.82,41.85],[46.43,41.91],[46.23,42.11],[45.68,42.17],[45.7,42.24],[45.54,42.24],[45.31,41.91],[45.07,41.91],[44.77,41.59],[44.35,41.46],[44.24,41.26],[45.11,41.26],[45.3,41],[45.6,40.87],[45.46,40.55],[45.88,40.29],[46.2,40.29],[46.46,39.97],[46.77,39.97],[47.07,39.84],[47.12,39.71],[48.15,39.71]]]},"properties":{"NAME":"Caucasian Albania","C":4,"name":"Caucasian Albania","start_year":68,"end_year":259,"capital":"","type":"polity","region":"","event":"","source":"Cliopatria / Seshat Global History Databank (CC BY 4.0)","wikipedia":"Caucasian Albania","wikidata":"Q177076","_a":10,"_c":[46.31,40.98],"_nz":"高加索阿尔巴尼亚","_sz":""}},
{"type":"Feature","geometry":{"type":"Polygon","coordinates":[[[42.62,41.59],[42.93,42.43],[42.72,42.56],[42.75,42.76],[42.61,42.82],[42.5,43.15],[42.53,43.28],[41.95,43.21],[41.05,43.54],[40.17,43.6],[40.16,43.54],[40.6,43.28],[41,43.28],[41.21,43.08],[41.67,42.95],[41.78,42.69],[42,42.56],[42.01,41.72],[41.7,41.33],[42.25,41.26],[42.36,41.46],[42.62,41.59]]]},"properties":{"NAME":"Lazica","C":2,"name":"Lazica","start_year":68,"end_year":259,"capital":"","type":"polity","region":"","event":"","source":"Cliopatria / Seshat Global History Databank (CC BY 4.0)","wikipedia":"Lazica","wikidata":"Q136884","_a":6,"_c":[41.55,42.43],"_nz":"拉齐卡","_sz":""}},
{"type":"Feature","geometry":{"type":"Polygon","coordinates":[[[48.8,38.09],[48.82,38.67],[48.74,38.67],[48.93,39.26],[48.67,39.58],[48.15,39.71],[47.12,39.71],[47.07,39.84],[46.77,39.97],[46.46,39.97],[46.2,40.29],[45.88,40.29],[45.46,40.55],[45.6,40.87],[45.3,41],[45.11,41.26],[44.24,41.26],[43.98,41.13],[43.34,41.13],[42.86,41.59],[42.62,41.59],[42.36,41.46],[42.25,41.26],[41.7,41.33],[41.61,41.26],[41.53,41.26],[41.45,40.74],[40.95,40.61],[40.4,40.1],[38.79,39.9],[38.93,39.77],[38.74,39.58],[38.95,39.38],[39.21,39.51],[39.75,39.45],[39.85,39.58],[40.48,39.58],[40.51,39.26],[40.66,39.19],[40.47,38.42],[40.57,38.03],[41.67,38.03],[41.97,37.96],[42.03,37.84],[42.51,37.9],[42.88,37.77],[43.89,37.71],[43.94,37.58],[44.64,37.51],[44.77,37.38],[44.8,37.06],[45.25,36.93],[45.29,37.19],[45.17,37.45],[45.22,37.77],[45.63,37.9],[45.85,38.29],[46.12,38.48],[47.25,38.67],[48.33,38.09],[48.8,38.09]]]},"properties":{"NAME":"Kingdom of Armenia","C":5,"name":"Kingdom of Armenia","start_year":68,"end_year":113,"capital":"","type":"polity","region":"","event":"","source":"Cliopatria / Seshat Global History Databank (CC BY 4.0)","wikipedia":"Kingdom of Armenia (antiquity)","wikidata":"Q208404","_a":47,"_c":[43.84,39.26],"_nz":"亚美尼亚王国","_sz":""}},
{"type":"Feature","geometry":{"type":"Polygon","coordinates":[[[39.5,35.71],[39.75,35.9],[40.81,36.29],[41.28,36.35],[41.54,36.55],[41.21,37],[41.18,37.32],[40.18,37.45],[39.5,37.58],[39.46,37.9],[39.12,37.71],[38.35,37.77],[38.33,37.64],[37.99,37.38],[37.96,37.13],[38.18,37],[38.13,35.97],[38.43,35.84],[39.5,35.71]]]},"properties":{"NAME":"Kingdom of Osroene","C":11,"name":"Kingdom of Osroene","start_year":78,"end_year":113,"capital":"","type":"polity","region":"","event":"","source":"Cliopatria / Seshat Global History Databank (CC BY 4.0)","wikipedia":"Osroene","wikidata":"Q237234","_a":8,"_c":[39.75,36.81],"_nz":"奥斯若恩王国","_sz":""}},
{"type":"Feature","geometry":{"type":"MultiPolygon","coordinates":[[[[34.02,45.69],[32.92,45.43],[33.61,45.1],[33.52,44.45],[33.93,44.45],[34.38,44.78],[35.3,44.97],[35.41,45.17],[35.73,45.17],[35.88,45.04],[36.37,45.1],[36.42,45.43],[35.02,45.3],[34.99,45.63],[34.74,45.63],[34.62,45.89],[34.02,45.69]]],[[[39.09,46.28],[39.29,46.48],[39.55,47.01],[39.74,47.14],[39.72,47.47],[39.24,47.6],[38.49,47.53],[38.35,47.2],[39.2,47.33],[39.22,47.01],[38.89,47.01],[38.62,46.87],[38.49,46.61],[37.84,46.61],[37.9,46.48],[38.37,46.35],[38.33,46.15],[37.89,45.96],[37.7,45.3],[36.97,45.3],[36.78,45.1],[37.26,45.04],[37.53,44.71],[37.93,44.71],[38.12,44.84],[38.39,45.5],[38.7,45.89],[38.86,45.89],[39.09,46.28]]]]},"properties":{"NAME":"Cimmerian Bosporus","C":0,"name":"Cimmerian Bosporus","start_year":78,"end_year":370,"capital":"","type":"polity","region":"","event":"","source":"Cliopatria / Seshat Global History Databank (CC BY 4.0)","wikipedia":"Bosporan Kingdom","wikidata":"Q321371","_a":21,"_c":[36.33,46.03],"_nz":"辛梅里安博斯普鲁斯王国","_sz":""}},
{"type":"Feature","geometry":{"type":"Polygon","coordinates":[[[81.26,8.64],[80.99,8.96],[81,9.09],[80.73,9.48],[80.44,9.54],[80.45,9.74],[79.88,9.86],[79.86,9.67],[80.08,9.61],[79.99,9.41],[80.05,9.16],[79.81,8.77],[79.76,8.06],[79.61,7.87],[79.74,7.68],[79.76,6.65],[79.95,6.14],[80.23,5.88],[80.67,5.88],[81.34,6.14],[81.88,6.71],[81.92,7.42],[81.77,7.49],[81.65,7.94],[81.45,8.13],[81.4,8.51],[81.26,8.64]]]},"properties":{"NAME":"Anurādhapura","C":2,"name":"Anurādhapura","start_year":78,"end_year":438,"capital":"","type":"polity","region":"","event":"","source":"Cliopatria / Seshat Global History Databank (CC BY 4.0)","wikipedia":"Anurādhapura","wikidata":"Q5724","_a":9,"_c":[80.77,7.87],"_nz":"阿努拉德普勒","_sz":""}},
{"type":"Feature","geometry":{"type":"Polygon","coordinates":[[[125.09,42.43],[125.01,42.43],[124.79,42.95],[124.51,43.02],[124.6,43.28],[124.48,43.34],[124.93,44.25],[124.9,44.45],[124.74,44.58],[124.84,44.84],[124.57,45.04],[124.5,45.3],[124.34,45.3],[124.17,45.76],[124.26,45.89],[123.86,46.02],[123.88,46.41],[123.59,46.81],[123.53,47.07],[123.24,47.14],[123.25,47.27],[122.36,47.4],[121.79,47.53],[121.6,47.73],[121.49,48.26],[121.11,48.65],[120.95,49.12],[120.79,49.12],[120.74,49.38],[119.98,49.71],[120.03,49.78],[118.9,50.05],[118.33,49.85],[117.96,49.58],[116.53,49.91],[116.04,50.05],[115.57,49.98],[114.97,50.18],[114.81,50.31],[114.14,50.31],[113.31,49.98],[112.86,49.58],[111.35,49.45],[110.88,49.25],[109.71,49.25],[109.38,49.38],[108.63,49.38],[108.45,48.99],[108.81,48.65],[108.85,48.19],[108.43,47.66],[108.6,47.27],[108.76,47.27],[108.97,46.94],[108.89,46.81],[109.3,46.68],[109.39,46.41],[109.55,46.41],[109.85,45.96],[109.77,45.82],[110.19,45.3],[110.11,45.17],[110.53,44.65],[110.45,44.52],[110.7,44.25],[110.63,43.99],[110.71,43.86],[109.97,42.56],[109.54,41.78],[109.76,41.46],[110,41.46],[110.21,41.26],[113.59,41.2],[114.03,41.13],[114.2,41],[114.6,41],[114.81,40.81],[115.99,41.78],[117.34,42.17],[117.74,42.17],[117.82,41.91],[117.71,41.72],[117.79,41.59],[118.07,41.52],[118.47,41.52],[118.79,41.39],[119.39,41.33],[120.34,41.33],[120.31,41.26],[121.02,41.26],[123.17,41.91],[124.61,42.17],[125.09,42.43]]]},"properties":{"NAME":"Xianbei","C":8,"name":"Xianbei","start_year":84,"end_year":105,"capital":"","type":"polity","region":"","event":"","source":"Cliopatria / Seshat Global History Databank (CC BY 4.0)","wikipedia":"Xianbei","wikidata":"Q861054","_a":159,"_c":[116.74,45.56],"_nz":"鲜卑","_sz":""}},
{"type":"Feature","geometry":{"type":"Polygon","coordinates":[[[96.83,22.14],[96.86,22.79],[96.78,22.79],[96.87,23.3],[96.59,23.88],[96.17,24.01],[95.29,23.69],[94.66,22.08],[94.72,21.95],[94.55,21.82],[94.41,20.86],[94.65,20.47],[94.61,20.21],[94.84,19.7],[94.73,19.44],[94.89,19.06],[94.85,18.8],[95.09,18.35],[95.68,18.35],[96.19,18.86],[96.42,19.38],[96.4,19.76],[96.58,19.96],[96.48,20.28],[96.71,20.34],[96.62,20.73],[96.79,20.86],[96.95,21.95],[96.83,22.14]]]},"properties":{"NAME":"Pyu City-States","C":4,"name":"Pyu City-States","start_year":84,"end_year":849,"capital":"","type":"polity","region":"","event":"","source":"Cliopatria / Seshat Global History Databank (CC BY 4.0)","wikipedia":"Pyu city-states","wikidata":"Q1627675","_a":14,"_c":[95.68,21.18],"_nz":"骠国城邦","_sz":""}},
{"type":"Feature","geometry":{"type":"Polygon","coordinates":[[[114.81,40.81],[114.6,41],[114.2,41],[114.03,41.13],[113.59,41.2],[110.21,41.26],[110,41.46],[109.76,41.46],[109.54,41.78],[109.97,42.56],[109.33,42.43],[107.81,42.43],[106.86,42.3],[105.73,41.98],[104.97,41.59],[104.94,41.52],[104.49,41.26],[103.82,40.55],[103.41,39.51],[104.27,39.84],[104.58,39.84],[104.7,39.58],[103.94,39.13],[103.61,38.74],[104.29,38.87],[104.39,38.74],[104.96,38.61],[106.09,38.67],[107.06,39.58],[107.33,39.64],[107.44,39.38],[107.68,39.38],[108.05,39.84],[108.39,40.03],[109.74,40.36],[110.56,40.42],[111.91,40.42],[111.87,40.36],[112.82,40.36],[113.49,40.42],[114.56,40.36],[114.97,40.68],[114.81,40.81]]]},"properties":{"NAME":"Southern Xiongnu","C":2,"name":"Southern Xiongnu","start_year":91,"end_year":105,"capital":"","type":"polity","region":"","event":"","source":"Cliopatria / Seshat Global History Databank (CC BY 4.0)","wikipedia":"Xiongnu","wikidata":"Q188836","_a":46,"_c":[109.19,40.59],"_nz":"南匈奴","_sz":""}},
{"type":"Feature","geometry":{"type":"Polygon","coordinates":[[[63.43,32.36],[63.19,32.3],[63.16,32.17],[62.82,31.98],[62.42,31.46],[61.94,31.34],[61.87,30.95],[61.39,30.31],[60.96,29.99],[61,29.79],[62.3,29.41],[64.12,29.41],[64.53,29.6],[65.12,29.54],[66.08,29.79],[66.32,29.86],[66.42,30.44],[66.34,30.44],[66.53,31.01],[66.45,31.01],[66.48,31.59],[66.1,31.59],[65.69,31.85],[65.02,31.91],[64.38,32.17],[63.55,32.24],[63.43,32.36]]]},"properties":{"NAME":"Indo-Scythians","C":9,"name":"Indo-Scythians","start_year":91,"end_year":269,"capital":"","type":"polity","region":"","event":"","source":"Cliopatria / Seshat Global History Databank (CC BY 4.0)","wikipedia":"Indo-Scythians","wikidata":"Q240123","_a":16,"_c":[63.75,30.89],"_nz":"印度-斯基泰人","_sz":""}},
{"type":"Feature","geometry":{"type":"Polygon","coordinates":[[[80.03,42.37],[79.52,42.5],[79.49,42.63],[79.03,42.89],[78.63,42.89],[77.72,43.02],[75.77,42.95],[75.88,42.82],[75.7,42.56],[75.81,42.43],[76.16,42.5],[76.14,42.24],[76.28,42.17],[76.13,41.98],[76.16,41.85],[76.62,41.78],[76.62,41.59],[76.82,41.46],[77.37,41.46],[77.87,41.52],[80.03,42.37]]]},"properties":{"NAME":"Wusun","C":6,"name":"Wusun","start_year":91,"end_year":105,"capital":"赤谷城","type":"polity","region":"central_asia","event":"","source":"Cliopatria / Seshat Global History Databank (CC BY 4.0)","wikipedia":"Wusun","wikidata":"Q854062","_a":7,"_c":[77.88,42.24],"_nz":"乌孙","_sz":""}},
{"type":"Feature","geometry":{"type":"MultiPolygon","coordinates":[[[[110.18,18.48],[110.51,18.67],[110.68,19.25],[110.85,19.38],[110.88,19.57],[111.03,19.57],[111.09,19.89],[110.91,20.15],[110.61,20.15],[110.59,20.02],[110.16,20.09],[109.25,19.96],[109.2,19.7],[108.7,19.38],[108.64,18.54],[108.76,18.41],[109.12,18.35],[109.25,18.22],[109.84,18.22],[109.86,18.35],[110.18,18.48]]],[[[103.35,39.38],[102.54,39],[102.28,38.93],[101.71,39.06],[101.59,39.32],[101.24,39.26],[101.21,39.71],[100.69,39.77],[100.54,39.97],[100.12,40.1],[99.38,40.03],[99.28,40.16],[99.05,40.16],[98.95,40.29],[98.04,40.55],[97.89,40.74],[97.18,40.94],[97.21,41],[96.21,41.07],[94.22,40.87],[93.88,41],[93.65,41.2],[93.71,41.33],[93.46,41.65],[93.51,41.78],[93.28,41.98],[93.34,42.11],[92.94,42.63],[92.47,42.82],[90.74,42.89],[85.69,42.89],[84.11,42.76],[82.06,42.24],[80.51,42.37],[80.24,42.5],[80.03,42.37],[77.87,41.52],[77.37,41.46],[77.35,41.39],[74.75,41],[73.34,41.07],[73.1,40.81],[73.49,40.55],[73.53,40.42],[73.8,40.29],[73.57,39.58],[73.69,39.45],[73.77,39.45],[75.79,39.13],[77.03,38.8],[77.26,38.55],[77.41,38.55],[77.51,38.35],[77.67,38.35],[77.84,38.16],[77.8,38.03],[78.09,37.71],[78.39,37.64],[78.42,37.51],[79.15,37.32],[79.4,37.13],[80.37,37],[81.03,36.61],[85.11,37.45],[85.36,37.71],[85.81,37.9],[86.08,38.22],[86.44,38.35],[87.66,38.48],[88.75,38.87],[89.58,39],[91.12,39.13],[92.25,39.38],[93.09,39.32],[93.95,39.51],[94.51,39.51],[94.98,39.32],[95.32,39.38],[95.68,38.93],[96.31,38.74],[96.41,38.61],[96.65,38.61],[96.76,38.87],[96.68,39.06],[96.76,39.45],[97.47,39.26],[97.49,39.13],[97.86,39.06],[98.12,38.93],[98.38,39.19],[98.96,39.06],[99.09,39.19],[99.38,39.13],[99.86,38.42],[100.2,38.29],[100.41,38.61],[100.8,38.03],[101.29,37.9],[101.31,37.77],[101.6,37.71],[101.76,37.51],[102.04,37.64],[102.17,37.38],[102.87,37.19],[103.21,37.06],[103.36,36.87],[103.31,36.74],[103.47,36.35],[103.65,36.22],[103.63,35.58],[103.74,35.45],[103.36,34.23],[103.49,33.97],[103.21,33.39],[102.55,33.26],[101.69,32.75],[101.44,32.24],[100.98,31.01],[100.89,29.92],[100.96,29.67],[100.88,29.34],[100.88,29.09],[101.02,28.77],[101.03,28.51],[100.92,28.06],[101.05,27.99],[101.01,27.54],[101.09,27.54],[101.2,26.39],[101.4,25.94],[101.46,25.16],[101.81,24.26],[102.99,23.36],[104.9,23.24],[105.12,23.17],[105.25,22.66],[104.87,22.21],[105.13,21.95],[105.1,21.76],[104.93,21.63],[104.98,21.5],[104.85,21.18],[105.1,20.86],[104.87,20.86],[104.91,20.6],[104.62,20.66],[104.44,20.47],[104.98,20.15],[104.86,19.89],[104.99,19.76],[105.02,18.99],[105.19,18.67],[105.14,18.41],[106.53,16.94],[106.76,17],[107.03,17.26],[106.75,17.39],[106.77,17.51],[106.57,17.64],[106.57,18.09],[106.29,18.22],[106.18,18.41],[105.73,18.86],[105.97,19.83],[106.54,20.15],[106.69,20.6],[106.83,20.6],[106.96,20.92],[107.42,20.99],[107.79,21.44],[108.56,21.56],[108.65,21.69],[109.09,21.63],[109.12,21.37],[109.81,21.5],[109.87,21.44],[109.7,20.86],[109.79,20.54],[109.93,20.47],[109.88,20.21],[110.49,20.28],[110.62,20.6],[110.36,20.86],[110.48,21.11],[110.72,21.18],[110.74,21.31],[110.98,21.44],[111.66,21.5],[111.86,21.76],[112.44,21.69],[112.77,21.89],[113.07,21.89],[113.11,22.08],[113.32,22.01],[113.42,22.14],[113.64,22.14],[113.79,22.53],[114,22.46],[114,22.08],[114.37,22.08],[114.53,22.14],[114.64,22.72],[114.75,22.53],[114.9,22.53],[115.17,22.79],[115.37,22.66],[115.67,22.66],[115.7,22.79],[116.54,22.91],[116.59,23.17],[116.81,23.17],[116.78,23.36],[116.89,23.56],[117.18,23.49],[117.47,23.81],[117.69,23.81],[117.72,23.94],[118.08,24.2],[118.15,24.52],[118.76,24.59],[118.82,24.84],[119.07,24.97],[119.03,25.1],[119.34,25.16],[119.39,25.36],[119.62,25.36],[119.87,25.49],[119.9,25.62],[119.53,25.62],[119.78,26],[119.59,26.13],[119.94,26.32],[119.84,26.52],[120.16,26.58],[120.25,26.9],[120.39,27.16],[120.55,27.16],[120.73,27.54],[120.71,27.74],[120.87,27.99],[121.15,28.19],[121.38,28.19],[121.65,28.32],[121.71,28.77],[121.71,29.22],[121.94,29.22],[122.03,29.92],[121.62,30.05],[121.48,30.31],[121.1,30.31],[120.81,30.12],[120.68,30.18],[121.05,30.56],[121.2,30.56],[121.52,30.82],[121.9,30.82],[122,31.08],[121.74,31.4],[121.58,31.4],[121.3,31.85],[121.84,31.66],[121.94,31.72],[121.96,31.98],[121.5,32.17],[121.4,32.49],[120.92,32.62],[120.93,33.2],[120.55,33.59],[120.49,34.16],[120.34,34.36],[119.73,34.55],[119.71,34.68],[119.23,34.81],[119.62,35.52],[119.99,35.64],[120.32,36.03],[120.66,36.1],[120.73,36.42],[120.96,36.42],[120.98,36.61],[121.21,36.61],[121.91,36.93],[122.39,36.8],[122.57,37],[122.47,37.13],[122.71,37.45],[122.12,37.51],[121.5,37.51],[121.48,37.64],[121.17,37.64],[121.11,37.84],[120.75,37.9],[120.19,37.71],[120.2,37.58],[119.83,37.45],[119.7,37.19],[119.16,37.19],[118.98,37.32],[119.24,37.84],[119.46,37.96],[118.77,38.16],[118.58,38.09],[118.07,38.16],[118.05,38.29],[117.77,38.35],[117.6,38.48],[117.58,38.74],[117.78,39.13],[118.06,39.06],[118.45,39.06],[118.99,39.19],[119.22,39.32],[119.38,39.77],[120.5,40.23],[120.65,40.48],[121,40.68],[121.11,40.87],[121.82,40.87],[121.83,40.74],[122.11,40.68],[122.23,40.48],[121.78,39.97],[121.5,39.9],[121.44,39.64],[121.21,39.51],[121.3,39.38],[121.69,39.38],[121.52,39.06],[121.2,39.06],[121.03,38.74],[121.42,38.74],[121.72,39],[121.95,39],[122.17,39.26],[122.94,39.64],[123.6,39.84],[124.03,39.77],[124.34,39.9],[124.51,39.64],[124.86,39.71],[124.87,39.58],[125.31,39.51],[125.39,39.38],[124.79,38.29],[124.76,38.09],[125.08,38.09],[125.39,37.64],[125.68,37.9],[125.84,37.77],[126.35,37.84],[126.94,38.35],[127.02,38.93],[126.85,39.19],[126.96,39.38],[126.73,39.38],[126.83,39.84],[126.71,40.03],[126.43,40.1],[126.27,40.36],[126.43,40.61],[126.62,40.68],[126.74,41],[126.19,41.13],[126.11,41.26],[125.43,41.33],[125,41.13],[124.44,41.26],[124.48,41.33],[123.17,41.91],[121.02,41.26],[120.31,41.26],[120.34,41.33],[119.39,41.33],[118.79,41.39],[118.47,41.52],[118.07,41.52],[117.79,41.59],[117.71,41.72],[117.82,41.91],[117.74,42.17],[117.34,42.17],[115.99,41.78],[114.81,40.81],[114.97,40.68],[114.56,40.36],[113.49,40.42],[112.82,40.36],[111.87,40.36],[111.91,40.42],[110.56,40.42],[109.74,40.36],[108.39,40.03],[108.05,39.84],[107.68,39.38],[107.44,39.38],[107.33,39.64],[107.06,39.58],[106.09,38.67],[104.96,38.61],[104.39,38.74],[104.29,38.87],[103.61,38.74],[103.94,39.13],[104.7,39.58],[104.58,39.84],[104.27,39.84],[103.41,39.51],[103.35,39.38]]],[[[122.27,30.18],[122.05,30.18],[121.98,29.99],[122.28,29.99],[122.27,30.18]]]]},"properties":{"NAME":"Han Dynasty","C":9,"name":"Han Dynasty","start_year":91,"end_year":105,"capital":"","type":"polity","region":"","event":"","source":"Cliopatria / Seshat Global History Databank (CC BY 4.0)","wikipedia":"Han dynasty","wikidata":"Q1068371","_a":1399,"_c":[100.06,29.92],"_nz":"汉","_sz":""}},
{"type":"Feature","geometry":{"type":"MultiPolygon","coordinates":[[[[14.34,36.03],[14.34,35.84],[14.57,35.77],[14.57,35.97],[14.34,36.03]]],[[[40.16,43.54],[40.42,43.15],[40.82,43.15],[41.33,42.89],[41.61,42.63],[41.48,42.37],[41.7,42.24],[41.82,41.98],[41.57,41.46],[41.16,41.39],[41.05,41.2],[40.37,40.94],[39.74,40.94],[39.05,41.13],[38.78,40.94],[38.3,40.87],[38.16,41],[37.83,40.94],[37.77,41.07],[37.21,41.07],[36.77,41.33],[36.21,41.26],[35.95,41.72],[35.16,41.72],[35.12,42.04],[34.88,42.04],[34.78,41.91],[32.63,41.91],[32.69,41.78],[32.03,41.52],[31.53,41.39],[31.18,41.07],[30.62,41.07],[30.48,41.2],[28.96,41.13],[28.98,41.26],[28.51,41.33],[28.28,41.46],[28.22,41.65],[27.98,41.65],[28,41.91],[27.78,42.11],[27.8,42.24],[27.49,42.43],[27.51,42.63],[27.85,42.76],[27.8,43.15],[27.9,43.28],[28.23,43.34],[28.48,43.47],[28.62,43.99],[28.58,44.39],[28.84,44.58],[28.8,44.97],[29.05,44.97],[29.02,44.78],[29.53,44.91],[29.67,45.43],[29.61,45.69],[29.86,45.69],[30.04,45.89],[30.3,45.96],[30.88,46.68],[31.53,46.68],[31.57,46.94],[31.08,47.01],[30.98,46.81],[30.11,46.41],[29.82,46.02],[29.29,45.69],[29.18,45.43],[28.43,45.3],[28.29,45.5],[27.79,45.37],[27.77,45.17],[27.92,45.1],[27.87,44.58],[27.75,44.19],[26.37,44.12],[25.52,43.67],[24.81,43.8],[24.08,43.73],[23.92,43.86],[23.53,43.93],[22.88,43.86],[22.98,44.12],[22.51,44.39],[22.69,44.71],[22.37,44.71],[22.19,44.52],[22.03,44.52],[21.88,44.71],[21.64,44.71],[21.41,44.91],[20.67,44.78],[20.22,45.37],[19,45.37],[18.85,45.76],[19.05,46.41],[18.9,46.61],[18.83,47.01],[19.17,47.2],[19.27,47.47],[18.95,47.66],[18.8,47.93],[18.63,47.8],[17.63,47.8],[16.9,48.13],[16.66,48.32],[15.5,48.19],[14.84,48.39],[14.67,48.26],[14.26,48.26],[13.52,48.65],[12.77,48.79],[12.61,48.99],[12.11,49.18],[11.69,49.12],[11.36,48.85],[10.94,48.79],[10.45,48.52],[9.45,48.52],[9.28,48.92],[8.94,49.25],[9.02,49.58],[8.77,49.78],[8.68,50.05],[8.76,50.58],[8.17,50.58],[7.92,50.25],[7.75,50.25],[7.66,50.58],[7.24,50.71],[7.32,50.91],[7.06,50.98],[6.89,51.38],[6.37,51.65],[5.93,51.98],[5.25,52.12],[4.57,51.98],[4.23,51.98],[3.4,51.65],[3.41,51.45],[2.74,51.31],[2.58,51.18],[1.66,51.05],[1.42,50.71],[1.45,50.25],[1.05,49.98],[0.22,49.85],[-0.01,49.65],[0.01,49.38],[-1.25,49.45],[-1.36,49.78],[-2.03,49.78],[-1.91,49.38],[-1.65,49.25],[-1.72,49.05],[-1.6,48.65],[-2.52,48.72],[-2.76,48.59],[-3.12,48.92],[-3.46,48.92],[-3.85,48.72],[-4.6,48.72],[-4.91,48.52],[-4.89,48.32],[-4.64,48.32],[-4.69,47.99],[-4.42,47.8],[-3.93,47.86],[-3.76,47.73],[-3.34,47.73],[-3.16,47.47],[-2.58,47.47],[-2.56,47.27],[-2.23,47.27],[-2.14,47.14],[-2.19,46.81],[-1.67,46.35],[-1.25,46.28],[-1.21,45.76],[-1.05,45.69],[-1.03,45.5],[-1.19,45.43],[-1.25,45.17],[-1.21,44.52],[-1.35,44.25],[-1.39,43.67],[-1.69,43.34],[-3.3,43.34],[-3.47,43.47],[-4.99,43.41],[-5.73,43.6],[-7.18,43.54],[-7.28,43.73],[-8.24,43.73],[-8.39,43.6],[-8.37,43.41],[-8.85,43.41],[-9.3,43.15],[-9.28,42.89],[-9.1,42.76],[-9.08,42.56],[-8.66,42.37],[-8.96,42.17],[-8.73,40.74],[-8.87,40.61],[-9.03,39.77],[-9.16,39.51],[-9.39,39.45],[-9.43,39.06],[-9.57,38.93],[-9.55,38.74],[-9.21,38.42],[-8.82,38.48],[-8.82,37.58],[-8.9,37.58],[-9,37],[-8.7,37.13],[-7.68,37],[-7.45,37.13],[-7.47,37.25],[-6.84,37.25],[-6.59,37],[-6.35,36.93],[-6.33,36.67],[-6.06,36.22],[-5.83,36.22],[-5.66,36.03],[-5.29,36.22],[-5.23,36.48],[-4.69,36.55],[-4.47,36.74],[-2.68,36.74],[-2.53,36.87],[-2.06,36.8],[-1.86,37.32],[-1.71,37.45],[-0.7,37.64],[-0.8,38.03],[-0.66,38.29],[0.1,38.74],[-0.31,39.13],[-0.35,39.71],[-0.13,40.03],[0.18,40.16],[0.25,40.42],[0.71,40.68],[0.7,40.94],[1.24,41.2],[2.11,41.33],[2.33,41.59],[2.57,41.59],[3.12,41.91],[3.18,42.37],[3.01,42.56],[2.98,43.15],[3.14,43.28],[3.62,43.41],[3.85,43.6],[4.17,43.6],[4.18,43.47],[5.06,43.47],[5.39,43.41],[5.8,43.15],[6.28,43.15],[6.52,43.21],[6.67,43.47],[6.99,43.54],[7.15,43.73],[8.03,43.93],[8.43,44.39],[9.16,44.45],[9.89,43.99],[10.21,43.99],[10.54,43.08],[11.02,42.82],[11.26,42.43],[11.65,42.37],[11.81,42.11],[12.13,42.04],[12.13,41.91],[12.6,41.52],[12.92,41.46],[13,41.33],[13.71,41.26],[13.95,41.13],[14.1,40.87],[14.42,40.87],[14.42,40.68],[14.89,40.68],[15.04,40.23],[15.2,40.23],[15.43,40.03],[15.9,39.77],[16.12,39.06],[16.27,38.93],[16.27,38.74],[15.95,38.67],[15.86,38.29],[14.06,37.96],[13.67,37.96],[13.35,38.16],[13.12,38.16],[13.04,38.03],[12.65,38.09],[12.49,37.9],[12.49,37.71],[13.19,37.58],[13.58,37.25],[14.28,37.13],[14.66,36.74],[15.05,36.74],[15.21,37.19],[15.06,37.25],[15.07,37.64],[15.39,38.16],[15.62,38.16],[15.7,37.96],[15.93,37.96],[16.49,38.42],[16.5,38.8],[17.14,39.06],[17.07,39.38],[16.92,39.51],[16.45,39.64],[16.46,39.97],[16.7,40.1],[17.03,40.55],[17.35,40.55],[17.42,40.36],[17.81,40.36],[18.11,39.9],[18.35,39.9],[18.44,40.16],[17.98,40.61],[17.51,40.74],[17.2,41],[15.94,41.39],[15.87,41.72],[16.11,41.78],[16.12,41.91],[15.24,41.91],[15.17,42.04],[14.92,41.98],[14.37,42.24],[14.06,42.5],[13.9,42.76],[13.99,42.95],[13.75,43.08],[13.67,43.41],[13.36,43.67],[12.87,43.8],[12.31,44.19],[12.15,44.45],[12.16,44.84],[12.4,44.78],[12.4,45.04],[12.16,45.17],[12.16,45.5],[12.65,45.56],[12.82,45.69],[13.06,45.63],[13.14,45.82],[13.71,45.76],[13.71,45.5],[13.54,45.3],[13.95,45.04],[14.19,45.04],[14.2,45.37],[14.6,45.37],[14.52,45.1],[14.92,44.97],[14.91,44.58],[15.15,44.39],[15.22,44.06],[15.86,43.8],[16.01,43.6],[15.93,43.47],[16.58,43.6],[16.73,43.54],[16.73,43.34],[17.05,43.41],[17.12,43.15],[17.37,43.21],[17.36,42.95],[17.99,42.82],[18.14,42.63],[18.85,42.37],[19.54,41.78],[19.45,41.52],[19.5,40.87],[19.25,40.74],[19.49,40.61],[19.47,40.29],[19.63,40.29],[20.01,39.97],[20,39.77],[20.15,39.71],[20.3,39.38],[20.91,39.06],[20.74,38.8],[20.97,38.74],[21.19,38.42],[21.74,38.35],[21.73,38.16],[21.42,38.16],[21.24,37.84],[21.7,37.51],[21.68,37.19],[21.91,37.06],[22.22,37.06],[22.36,36.67],[22.51,36.67],[22.6,36.87],[22.83,36.87],[22.85,37.25],[22.7,37.32],[22.71,37.58],[22.95,37.58],[23.4,37.32],[23.34,37.64],[23.11,37.64],[23.04,37.9],[23.21,38.03],[23.44,38.03],[23.98,37.84],[24,38.22],[24.16,38.22],[24.18,38.55],[24.03,38.67],[23.56,38.74],[23.63,38.48],[23.31,38.48],[23.17,38.67],[22.94,38.74],[23.03,38.93],[23.33,38.8],[23.34,39],[23.12,39.13],[22.8,39.06],[22.82,39.38],[23.14,39.45],[22.61,39.9],[22.54,40.1],[22.65,40.61],[23.27,40.29],[23.74,40.23],[23.84,40.55],[23.68,40.61],[23.7,40.81],[24.01,40.74],[24.35,41],[25.38,41],[26.08,40.87],[26.14,40.61],[26.63,40.74],[26.92,40.48],[27.02,40.68],[27.53,41.07],[28.08,41],[28.17,41.13],[28.63,41],[29.12,41.07],[29.25,40.81],[28.91,40.61],[29.05,40.36],[27.94,40.36],[27.7,40.29],[27.47,40.42],[26.67,40.36],[26.6,40.48],[26.27,40.29],[26.13,39.51],[26.85,39.58],[26.74,39.26],[26.96,39],[26.85,38.61],[27.08,38.55],[27.06,38.35],[26.59,38.35],[26.54,38.61],[26.38,38.67],[26.43,38.22],[26.82,38.22],[26.89,38.09],[27.28,38.03],[27.16,37.58],[27.54,37.38],[27.6,37.13],[28.07,37.13],[28.14,37.06],[28.03,36.67],[28.19,36.67],[28.36,36.87],[28.59,36.87],[28.74,36.74],[29.12,36.74],[29.24,36.22],[29.94,36.22],[30.03,36.35],[30.49,36.35],[30.62,36.93],[31.09,36.93],[32.07,36.61],[32.71,36.03],[33.27,36.22],[33.98,36.29],[34.25,36.67],[34.58,36.87],[34.89,36.87],[35.11,36.74],[35.49,36.61],[35.83,36.93],[36.14,36.93],[36.29,36.8],[36.26,36.61],[35.84,36.29],[35.99,36.22],[35.84,35.58],[35.99,35.52],[35.93,34.87],[36.07,34.74],[36.05,34.55],[35.79,34.29],[35.64,34.36],[35.68,33.97],[35.45,33.91],[35.5,33.65],[35.35,33.65],[35.4,33.39],[35.22,33.07],[35.06,33.01],[35.02,32.62],[34.77,32.36],[34.81,31.98],[34.57,31.85],[34.64,31.72],[34.55,31.53],[34.31,31.4],[34.3,31.27],[33.98,31.14],[32.83,31.01],[32.77,31.14],[32.53,31.08],[32,31.08],[31.88,31.46],[31.27,31.46],[30.97,31.53],[30.81,31.46],[30.35,31.46],[30.34,31.27],[29.88,31.27],[29.87,31.08],[29.4,30.82],[28.87,30.82],[28.5,31.01],[27.51,31.14],[27.3,31.34],[26.85,31.46],[25.25,31.46],[25.1,31.59],[25.11,31.79],[24.89,31.98],[24.13,31.98],[23.68,32.17],[23.3,32.17],[23.15,32.24],[23.09,32.62],[21.88,32.94],[21.41,32.75],[21.11,32.81],[20.87,32.62],[20.33,32.49],[20.25,32.24],[20.09,32.11],[20,31.59],[20.21,31.27],[20.13,31.14],[20.2,30.89],[19.97,30.69],[19.96,30.56],[19.66,30.37],[18.97,30.24],[18.9,30.37],[18.59,30.37],[18.22,30.76],[17.85,30.95],[16.86,31.21],[16.18,31.21],[15.65,31.4],[15.58,31.59],[15.42,31.66],[15.28,32.3],[15.06,32.43],[14.75,32.43],[14.67,32.56],[14.44,32.49],[14.07,32.75],[13.45,32.81],[13.3,32.94],[12.84,32.88],[12.84,32.75],[12.23,32.81],[11.46,33.2],[11.16,33.2],[11.08,33.59],[10.7,33.52],[10.54,33.71],[10.24,33.71],[10.01,33.91],[10.08,34.23],[10,34.29],[10.54,34.55],[10.85,34.81],[10.85,34.94],[11.08,35],[11.01,35.39],[10.85,35.77],[10.7,35.71],[10.46,35.9],[10.54,36.35],[10.46,36.42],[11.01,36.8],[11.01,37],[10.46,36.74],[10.23,36.8],[10.31,37.06],[10.23,37.25],[9.99,37.19],[9.76,37.32],[9.37,37.25],[9.06,37.06],[8.9,37.13],[8.52,36.87],[7.74,36.87],[7.5,37.06],[7.35,37.06],[7.19,36.87],[6.8,36.87],[6.33,37.06],[6.1,36.93],[6.11,36.8],[5.64,36.8],[5.56,36.67],[5.1,36.67],[4.86,36.87],[4.24,36.93],[3.85,36.8],[3.46,36.87],[3.23,36.74],[2.84,36.74],[2.69,36.61],[2.38,36.67],[1.53,36.48],[1.22,36.55],[0.91,36.35],[0.38,36.22],[0.08,35.84],[-0.46,35.84],[-0.53,35.71],[-0.92,35.71],[-1.36,35.26],[-1.59,35.26],[-1.89,35.07],[-2.66,35.07],[-2.98,35.26],[-3.13,35.19],[-4.75,35.19],[-5.24,35.52],[-5.34,35.84],[-5.88,35.77],[-6,35.32],[-6.29,35.07],[-6.33,34.55],[-6.61,34.16],[-6.9,33.91],[-8.4,33.39],[-8.47,33.26],[-8.15,33.14],[-8.06,32.94],[-7.53,32.94],[-6.94,33.26],[-6.7,33.2],[-6.63,33.33],[-6.03,33.52],[-5.8,33.46],[-5.27,33.65],[-5.04,33.59],[-4.37,33.91],[-3.76,34.1],[-2,34.23],[-1.54,34.23],[-1.31,34.16],[-1.24,34.36],[0.3,34.36],[0.45,34.49],[0.68,34.42],[1.29,34.61],[2.45,34.61],[2.92,34.36],[3.46,34.49],[3.84,34.42],[4.45,34.61],[5.15,34.55],[5.38,34.68],[6.15,34.68],[6.46,34.55],[6.92,34.61],[7.15,34.49],[7.61,34.55],[8,34.42],[8.08,34.23],[8.31,34.29],[8.93,34.16],[9.24,33.84],[9.32,33.59],[9.62,33.46],[9.55,33.33],[9.63,33.14],[10.08,33.14],[10.01,33.01],[10.39,33.01],[11.16,32.69],[11.31,32.49],[11.77,32.43],[11.77,32.3],[13.07,32.3],[13.07,32.17],[13.6,32.17],[14.28,31.91],[14.59,31.66],[14.58,31.53],[15.19,31.08],[15.18,30.89],[15.49,30.95],[16.7,30.69],[17.91,30.18],[18.73,29.99],[20.95,30.56],[21.94,30.56],[22.77,30.37],[23.51,29.99],[23.96,29.92],[24.33,29.67],[24.78,29.54],[25.15,29.28],[25.37,29.28],[25.59,28.96],[27.14,28.25],[28.15,27.35],[28.27,26.58],[28.35,26.58],[28.24,25.94],[28.29,25.16],[28.57,24.65],[29.67,24.2],[30.1,23.75],[30.4,23.56],[30.54,23.36],[31.67,23.75],[32.04,23.69],[33.39,23.81],[33.68,23.69],[35.11,23.88],[35.55,23.81],[35.56,23.94],[35.85,23.88],[35.86,24.01],[35.15,24.65],[34.61,25.81],[34.46,25.87],[34.2,26.52],[34.05,26.58],[34.07,26.97],[33.93,27.03],[33.8,27.42],[33.59,27.61],[33.61,27.99],[33.11,28.38],[32.84,28.89],[32.69,28.96],[32.64,29.34],[32.43,29.6],[32.6,29.92],[33.15,30.18],[34.3,30.37],[34.39,30.5],[35.59,30.37],[35.84,30.63],[36.15,30.63],[36.4,30.95],[36.39,31.66],[36.49,31.98],[36.66,32.11],[36.75,32.3],[36.72,32.75],[36.9,33.07],[37.07,33.26],[37.99,33.97],[39.12,34.49],[40.26,34.29],[40.55,34.16],[40.48,34.87],[40.26,35],[40.28,35.13],[40.06,35.26],[39.94,35.52],[39.5,35.71],[38.43,35.84],[38.13,35.97],[38.18,37],[37.96,37.13],[37.99,37.38],[38.33,37.64],[38.35,37.77],[39.12,37.71],[39.46,37.9],[39.42,38.16],[39.51,38.29],[39.23,38.55],[39.25,38.67],[38.96,38.87],[38.73,38.87],[38.95,39.38],[38.74,39.58],[38.93,39.77],[38.79,39.9],[40.4,40.1],[40.95,40.61],[41.45,40.74],[41.53,41.26],[41.61,41.26],[41.7,41.33],[42.01,41.72],[42,42.56],[41.78,42.69],[41.67,42.95],[41.21,43.08],[41,43.28],[40.6,43.28],[40.16,43.54]]],[[[20.62,37.9],[20.61,37.71],[20.92,37.64],[20.93,37.9],[20.62,37.9]]],[[[20.33,38.35],[20.32,38.16],[20.79,38.09],[20.8,38.29],[20.57,38.42],[20.33,38.35]]],[[[1.27,38.8],[1.43,38.8],[1.66,39],[1.65,39.13],[1.26,39.13],[1.18,39.06],[1.27,38.8]]],[[[2.82,39.32],[3.3,39.32],[3.52,39.77],[3.2,39.84],[3.19,39.97],[2.88,39.97],[2.34,39.64],[2.35,39.45],[2.66,39.51],[2.82,39.32]]],[[[3.82,40.1],[3.83,39.9],[4.3,39.84],[4.22,40.1],[3.82,40.1]]],[[[9.67,40.29],[9.82,40.36],[9.82,40.74],[9.5,41.2],[9.02,41.26],[8.55,40.87],[8.15,40.94],[8.16,40.55],[8.32,40.48],[8.4,40.29],[8.32,39.97],[8.48,39.9],[8.33,39.51],[8.34,39],[8.73,38.87],[8.97,38.87],[9.12,39.19],[9.59,39.13],[9.67,39.64],[9.75,39.64],[9.67,40.29]]],[[[9.58,41.98],[9.57,42.76],[9.49,43.02],[9.25,43.02],[9.17,42.76],[8.77,42.69],[8.53,42.5],[8.54,42.11],[8.78,41.72],[8.78,41.52],[9.1,41.33],[9.26,41.39],[9.58,41.98]]],[[[10.13,42.89],[10.21,42.69],[10.46,42.69],[10.46,42.89],[10.13,42.89]]],[[[14.27,44.97],[14.26,44.58],[14.5,44.52],[14.51,44.91],[14.27,44.97]]],[[[0.07,52.99],[0.32,53.12],[0.3,53.39],[0.12,53.46],[0,53.8],[-0.18,53.94],[-0.2,54.21],[-0.67,54.61],[-1.29,54.68],[-1.61,55.36],[-2.38,55.16],[-2.82,55.23],[-2.89,55.09],[-3.57,54.89],[-3.72,54.68],[-3.59,54.27],[-3.32,54.21],[-3.1,53.73],[-3.15,53.46],[-4.08,53.26],[-4.27,53.46],[-4.7,53.46],[-4.67,53.19],[-4.49,53.12],[-4.81,52.92],[-4.79,52.79],[-4.3,52.92],[-4.16,52.45],[-4.55,52.18],[-5.22,52.05],[-5.26,51.71],[-5.08,51.58],[-4.42,51.71],[-4.31,51.51],[-3.89,51.58],[-3.7,51.38],[-3.28,51.38],[-3.09,51.25],[-4.2,51.31],[-4.43,51.05],[-4.68,51.05],[-4.66,50.85],[-4.88,50.58],[-5.13,50.58],[-5.28,50.38],[-5.77,50.25],[-5.75,50.05],[-5.15,49.98],[-4.93,50.25],[-4.35,50.38],[-4.09,50.25],[-3.58,50.25],[-3.46,50.65],[-2.79,50.71],[-2.61,50.58],[-1.52,50.71],[-1.51,50.58],[-1.18,50.58],[-1.11,50.78],[0.49,50.78],[1.31,51.11],[1.38,51.38],[0.86,51.51],[0.84,51.78],[1.18,51.78],[1.17,51.98],[1.43,51.98],[1.74,52.38],[1.72,52.72],[1.53,52.92],[1.09,53.06],[0.49,53.06],[0.34,52.86],[0.07,52.99]]],[[[34.09,35],[33.96,35.26],[34.53,35.58],[34.31,35.71],[33.74,35.39],[32.89,35.39],[32.88,35.26],[32.55,35.13],[32.25,35.13],[32.23,34.94],[32.37,34.74],[33.04,34.55],[33.13,34.68],[33.52,34.74],[33.7,34.94],[34.09,35]]],[[[24.15,35.39],[24.16,35.52],[23.62,35.52],[23.68,35.26],[24.45,35.19],[24.76,35.19],[24.82,35],[26.14,35.07],[25.68,35.13],[25.69,35.32],[24.3,35.32],[24.15,35.39]]],[[[27.69,36.29],[27.74,35.9],[28.14,36.03],[28.25,36.48],[28.02,36.48],[27.69,36.29]]],[[[22.89,36.42],[22.87,36.16],[23.11,36.16],[23.12,36.35],[22.89,36.42]]],[[[24.99,37.71],[25.05,37.51],[25.29,37.51],[25.22,37.71],[24.99,37.71]]],[[[24.69,38.03],[24.68,37.84],[24.83,37.71],[25.07,37.77],[24.69,38.03]]],[[[25.82,38.48],[25.88,38.16],[26.11,38.16],[26.22,38.55],[25.91,38.67],[25.82,38.48]]],[[[24.36,39],[24.36,38.87],[24.66,38.74],[24.67,38.93],[24.36,39]]],[[[26.09,39],[26.25,38.93],[26.64,39],[26.51,39.32],[26.04,39.38],[25.79,39.19],[26.1,39.13],[26.09,39]]],[[[25.07,40.03],[24.97,39.84],[25.45,39.84],[25.46,40.03],[25.07,40.03]]],[[[24.57,40.81],[24.55,40.55],[24.79,40.61],[24.81,40.81],[24.57,40.81]]]]},"properties":{"NAME":"Roman Empire","C":3,"name":"Roman Empire","start_year":91,"end_year":105,"capital":"","type":"polity","region":"","event":"","source":"Cliopatria / Seshat Global History Databank (CC BY 4.0)","wikipedia":"Roman Empire","wikidata":"Q12544","_a":1651,"_c":[16.22,39.36],"_nz":"罗马帝国","_sz":""}},
{"type":"Feature","geometry":{"type":"Polygon","coordinates":[[[38.69,26.39],[38.7,26.45],[38.27,26.77],[38.21,26.97],[38.05,26.9],[37.77,27.16],[37.47,27.22],[37.48,27.35],[37.26,27.42],[37.13,27.67],[36.69,27.87],[36.55,28.06],[36.4,28.06],[35.92,28.77],[35.87,29.99],[36.15,30.63],[35.84,30.63],[35.59,30.37],[34.39,30.5],[34.3,30.37],[33.15,30.18],[32.6,29.92],[32.86,29.22],[33.21,28.89],[33.19,28.51],[33.4,28.32],[33.55,28.32],[33.9,27.87],[34.35,27.74],[34.36,27.93],[34.52,28.06],[34.55,28.51],[34.71,28.7],[34.75,29.28],[34.91,29.41],[34.85,28.57],[34.61,28.25],[34.59,28.06],[35.05,28.12],[35.41,27.87],[35.4,27.74],[35.71,27.8],[36.37,27.61],[36.51,27.42],[37.02,27.16],[37.15,26.97],[37.65,26.58],[37.95,26.52],[38.23,26.19],[38.47,26.39],[38.69,26.39]]]},"properties":{"NAME":"Nabataeans","C":8,"name":"Nabataeans","start_year":91,"end_year":105,"capital":"","type":"polity","region":"","event":"","source":"Cliopatria / Seshat Global History Databank (CC BY 4.0)","wikipedia":"Nabataeans","wikidata":"Q220594","_a":27,"_c":[35.65,28.41],"_nz":"纳巴泰人","_sz":""}},
{"type":"Feature","geometry":{"type":"Polygon","coordinates":[[[73.1,40.81],[72.47,41.07],[72.23,41.07],[72.14,41.26],[71.84,41.33],[71.63,41.65],[70.02,41.59],[69.58,41.72],[68.98,41.33],[68.22,41.46],[68.03,41.59],[67.55,41.59],[66.89,41.26],[66.65,41.26],[65.96,40.81],[65.88,40.81],[65.56,39.97],[65.29,39.84],[65.28,39.51],[65.07,39],[65.16,38.74],[64.75,35.77],[64.83,35.77],[64.85,35.19],[65.09,34.87],[64.57,34.61],[64.32,34.16],[63.87,33.84],[63.43,32.36],[63.55,32.24],[64.38,32.17],[65.02,31.91],[65.69,31.85],[66.1,31.59],[66.48,31.59],[66.45,31.01],[66.53,31.01],[66.34,30.44],[66.42,30.44],[66.32,29.86],[66.08,29.79],[66.43,29.67],[66.89,29.67],[66.99,29.41],[67.14,29.34],[66.93,28.57],[67.01,28.57],[67.06,27.48],[67.17,27.22],[67.2,26.32],[67.5,25.81],[67.11,25.1],[66.64,24.91],[66.63,24.84],[67.15,24.78],[67.33,24.39],[67.29,24.07],[67.44,24.07],[67.49,23.88],[67.63,23.81],[68.16,23.81],[68.13,23.56],[68.55,23.36],[68.61,23.17],[69.02,22.91],[69.04,23.04],[69.5,23.17],[70.07,23.56],[70.42,24.07],[70.45,24.26],[70.6,24.33],[70.57,24.65],[71.09,25.16],[71.24,25.16],[71.9,25.68],[73.18,26.19],[75.2,26.64],[76.58,26.84],[77.11,26.84],[77.24,26.71],[78.24,26.84],[78.66,27.09],[79.04,27.54],[79.38,27.74],[79.84,28.57],[79.96,29.54],[79.95,29.86],[79.84,30.05],[79.82,30.63],[79.62,30.76],[79.61,31.01],[79.18,31.46],[78.81,31.53],[78.84,31.66],[78.45,31.59],[76.6,32.17],[75.88,32.69],[75.27,33.01],[75.24,33.2],[75.03,33.59],[74.77,33.78],[74.8,33.91],[74.6,34.04],[74.63,34.16],[74.45,34.36],[74.3,34.36],[73.81,34.87],[73.44,34.94],[72.71,35.71],[72.5,36.1],[72.3,36.22],[72.23,36.55],[72.45,37.06],[72.42,37.25],[72.76,37.9],[73.49,38.55],[73.75,39.13],[73.63,39.26],[73.69,39.45],[73.57,39.58],[73.8,40.29],[73.53,40.42],[73.49,40.55],[73.1,40.81]]]},"properties":{"NAME":"Kushan Empire","C":8,"name":"Kushan Empire","start_year":91,"end_year":116,"capital":"","type":"polity","region":"","event":"","source":"Cliopatria / Seshat Global History Databank (CC BY 4.0)","wikipedia":"Kushan Empire","wikidata":"Q25979","_a":311,"_c":[71.69,32.32],"_nz":"贵霜帝国","_sz":""}},
{"type":"Feature","geometry":{"type":"Polygon","coordinates":[[[108.63,49.38],[108.34,49.45],[108.35,49.58],[108.06,49.65],[107.98,49.91],[107.82,50.05],[107.28,50.11],[106.42,50.45],[105.03,50.51],[104.18,50.25],[103.26,50.25],[103.18,50.38],[102.84,50.38],[102.76,50.51],[102.38,50.58],[102.35,50.91],[102.11,51.18],[102.12,51.45],[101.88,51.58],[101.03,51.58],[100.74,51.78],[100.11,51.85],[99.35,51.98],[99.27,52.12],[98.89,52.18],[98.59,52.12],[94.71,51.65],[93.27,51.25],[92.77,50.98],[91.89,50.78],[91.32,50.51],[91.06,50.51],[90.78,50.31],[90.12,50.18],[89.84,49.98],[89.59,49.98],[89.61,49.71],[88.75,49.52],[88.24,49.52],[87.67,49.05],[86.91,48.72],[86.85,48.59],[86.55,48.65],[86.4,48.52],[85.79,48.46],[85.32,48.19],[82.12,47.53],[79.77,46.87],[79.31,46.94],[79.25,46.61],[79.09,46.61],[78.95,46.28],[79.65,45.43],[79.6,45.3],[79.9,45.04],[81.47,45.3],[81.8,45.3],[81.82,45.17],[82.23,45.17],[82.52,45.1],[82.78,45.5],[83.41,46.02],[84.78,46.87],[85.53,47.07],[85.93,47.4],[88.09,47.93],[88.9,48.06],[89.53,47.99],[89.63,47.86],[90.22,47.73],[90.96,46.74],[90.86,46.22],[90.96,46.09],[90.54,45.56],[90.66,45.3],[90.92,45.17],[91.71,45.1],[91.67,45.04],[93.51,44.97],[93.69,44.84],[93.98,44.78],[94,44.65],[94.37,44.58],[94.72,44.32],[95.34,44.25],[95.27,44.12],[95.73,43.73],[95.73,43.41],[95.92,43.15],[96.26,43.02],[96.5,42.69],[97.65,42.76],[98.07,42.63],[98.87,42.63],[98.84,42.56],[101.48,42.56],[101.86,42.37],[101.87,42.24],[102.21,42.11],[103.18,41.98],[103.67,41.85],[103.64,41.78],[104.47,41.85],[104.45,41.65],[104.97,41.59],[105.73,41.98],[106.86,42.3],[107.81,42.43],[109.33,42.43],[109.97,42.56],[110.71,43.86],[110.63,43.99],[110.7,44.25],[110.45,44.52],[110.53,44.65],[110.11,45.17],[110.19,45.3],[109.77,45.82],[109.85,45.96],[109.55,46.41],[109.39,46.41],[109.3,46.68],[108.89,46.81],[108.97,46.94],[108.76,47.27],[108.6,47.27],[108.43,47.66],[108.85,48.19],[108.81,48.65],[108.45,48.99],[108.63,49.38]]]},"properties":{"NAME":"Xiongnu","C":6,"name":"Xiongnu","start_year":91,"end_year":105,"capital":"","type":"polity","region":"","event":"","source":"Cliopatria / Seshat Global History Databank (CC BY 4.0)","wikipedia":"Xiongnu","wikidata":"Q188836","_a":409,"_c":[94.83,45.82],"_nz":"匈奴","_sz":""}},
{"type":"Feature","geometry":{"type":"Polygon","coordinates":[[[78.31,24.97],[78.32,26],[78.3,26.77],[78.24,26.84],[77.24,26.71],[77.11,26.84],[76.58,26.84],[75.2,26.64],[73.18,26.19],[71.9,25.68],[71.24,25.16],[71.09,25.16],[70.57,24.65],[70.6,24.33],[70.45,24.26],[70.42,24.07],[70.07,23.56],[69.5,23.17],[69.04,23.04],[69.02,22.91],[69.45,22.72],[70.37,22.91],[70.26,22.66],[69.87,22.46],[69.5,22.46],[69.41,22.34],[68.98,22.46],[68.95,22.21],[69.35,21.76],[69.5,21.76],[69.9,21.37],[69.89,21.24],[70.3,20.86],[70.72,20.66],[71.32,20.73],[71.41,20.86],[72.18,21.18],[72.32,21.76],[72.38,22.27],[72.53,22.27],[72.49,21.95],[72.54,21.76],[72.76,21.69],[73.21,21.76],[73.55,22.14],[74.03,22.4],[74.59,23.36],[76.02,24.07],[76.71,24.2],[77.3,24.65],[77.85,24.84],[78.22,24.84],[78.31,24.97]]]},"properties":{"NAME":"Western Satraps","C":10,"name":"Western Satraps","start_year":91,"end_year":105,"capital":"","type":"polity","region":"","event":"","source":"Cliopatria / Seshat Global History Databank (CC BY 4.0)","wikipedia":"Western Satraps","wikidata":"Q2086608","_a":58,"_c":[73.64,23.75],"_nz":"西萨特拉普王朝","_sz":""}}
]}