{"type":"FeatureCollection","features":[{"type":"Feature","properties":{"NAME":"Kingdom of Kush","C":3,"name":"Kingdom of Kush","start_year":-630,"end_year":337,"capital":"","type":"polity","region":"","event":"","source":"Cliopatria / Seshat Global History Databank (CC BY 4.0)","wikipedia":"Kingdom of Kush","wikidata":"Q241790","_a":48,"_c":[33.29,19.51],"_nz":"库施王国","_sz":""},"geometry":{"type":"Polygon","coordinates":[[[33.84,22.08],[33.76,22.08],[33.84,22.01],[33.75,21.63],[33.82,21.63],[34.26,19.64],[34.47,19.38],[34.6,18.93],[34.88,18.61],[34.94,18.29],[35.3,18.09],[35.5,17.64],[36,17.32],[36.05,16.81],[35.67,16.49],[34.71,16.49],[34.56,16.23],[34.68,15.78],[34.1,15.84],[33.86,15.46],[32.53,15.2],[32.53,15.33],[32.09,15.39],[31.73,15.59],[31.53,15.97],[31.54,16.23],[31.39,16.36],[31.48,16.61],[31.34,16.81],[31.22,17.64],[31.15,17.64],[30.88,20.34],[30.8,20.34],[30.82,20.79],[30.74,20.79],[30.76,21.31],[30.69,21.31],[30.64,21.95],[30.56,21.95],[30.72,22.27],[30.74,22.85],[30.53,23.3],[30.54,23.36],[31.67,23.75],[32.04,23.69],[33.39,23.81],[33.68,23.69],[33.68,23.62],[33.82,23.49],[33.81,23.17],[33.88,23.17],[33.84,22.14],[33.84,22.08]]]}},{"type":"Feature","properties":{"NAME":"Hadhramaut","C":11,"name":"Hadhramaut","start_year":-350,"end_year":183,"capital":"","type":"polity","region":"","event":"","source":"Cliopatria / Seshat Global History Databank (CC BY 4.0)","wikipedia":"Hadhramaut","wikidata":"Q1517159","_a":12,"_c":[49.05,15.68],"_nz":"哈德拉毛","_sz":""},"geometry":{"type":"MultiPolygon","coordinates":[[[[51.07,15.46],[50.85,15.33],[50.75,15.01],[49.63,14.69],[48.54,14.81],[48.32,14.94],[47.52,15.07],[47.53,15.2],[46.65,15.33],[46.58,15.33],[46.15,15.52],[46.38,15.71],[46.47,15.97],[46.47,16.04],[46.55,16.16],[46.7,16.1],[48.12,16.42],[49.59,16.49],[50.12,16.61],[50.48,16.55],[51.08,16.68],[51.89,16.61],[51.95,16.49],[51.86,16.23],[51.24,15.78],[51.08,15.52],[51.07,15.46]]],[[[46.7,16.16],[46.63,16.16],[46.63,16.23],[46.71,16.23],[46.7,16.16]]]]}},{"type":"Feature","properties":{"NAME":"Zapotec Civilization","C":5,"name":"Zapotec Civilization","start_year":-291,"end_year":-92,"capital":"","type":"polity","region":"","event":"","source":"Cliopatria / Seshat Global History Databank (CC BY 4.0)","wikipedia":"Zapotec civilization","wikidata":"Q844750","_a":1,"_c":[-96.83,17.23],"_nz":"萨波特克文明","_sz":""},"geometry":{"type":"Polygon","coordinates":[[[-97.18,17.13],[-96.9,16.74],[-96.54,16.81],[-96.56,16.94],[-96.26,16.94],[-96.31,17.19],[-96.86,17.45],[-96.91,17.71],[-96.96,17.58],[-97.41,17.64],[-97.23,17.45],[-97.37,17.39],[-97.35,17.26],[-97.19,17.19],[-97.18,17.13]]]}},{"type":"Feature","properties":{"NAME":"Early Cheras","C":9,"name":"Early Cheras","start_year":-291,"end_year":298,"capital":"","type":"polity","region":"","event":"","source":"Cliopatria / Seshat Global History Databank (CC BY 4.0)","wikipedia":"Chera dynasty","wikidata":"Q877155","_a":4,"_c":[76.7,9.59],"_nz":"早期哲罗","_sz":""},"geometry":{"type":"Polygon","coordinates":[[[75.99,10.6],[76.55,8.92],[77.15,8.26],[77.25,8.39],[77.34,9.58],[77.23,9.76],[77.41,10.21],[76.85,10.45],[76.89,10.76],[76.71,10.91],[75.99,10.63],[75.99,10.6]]]}},{"type":"Feature","properties":{"NAME":"Early Pandyas","C":3,"name":"Early Pandyas","start_year":-291,"end_year":298,"capital":"","type":"polity","region":"","event":"","source":"Cliopatria / Seshat Global History Databank (CC BY 4.0)","wikipedia":"Early Pandyas","wikidata":"Q3532152","_a":5,"_c":[78.22,9.18],"_nz":"早期潘迪亚","_sz":""},"geometry":{"type":"Polygon","coordinates":[[[79.29,10.27],[78.92,10.13],[77.44,10.19],[77.24,9.77],[77.36,9.58],[77.27,8.39],[77.16,8.29],[77.26,8.15],[77.53,8.08],[77.84,8.17],[78.18,8.51],[78.25,8.91],[78.54,9.1],[79.15,9.26],[78.91,9.45],[78.94,9.67],[79.27,9.99],[79.29,10.27]]]}},{"type":"Feature","properties":{"NAME":"Anurādhapura","C":2,"name":"Anurādhapura","start_year":-291,"end_year":77,"capital":"","type":"polity","region":"","event":"","source":"Cliopatria / Seshat Global History Databank (CC BY 4.0)","wikipedia":"Anurādhapura","wikidata":"Q5724","_a":9,"_c":[80.77,7.87],"_nz":"阿努拉德普勒","_sz":""},"geometry":{"type":"Polygon","coordinates":[[[81.26,8.64],[80.99,8.96],[81,9.09],[80.85,9.16],[80.86,9.29],[80.72,9.35],[80.73,9.48],[80.44,9.54],[80.52,9.67],[80.45,9.74],[79.88,9.86],[79.86,9.67],[80.08,9.61],[79.99,9.41],[80.05,9.16],[79.81,8.77],[79.76,8.06],[79.62,8.06],[79.61,7.87],[79.74,7.68],[79.76,6.65],[79.95,6.14],[80.23,5.88],[80.67,5.88],[81.34,6.14],[81.88,6.71],[81.92,7.42],[81.77,7.49],[81.65,7.94],[81.45,8.13],[81.4,8.51],[81.26,8.58],[81.26,8.64]]]}},{"type":"Feature","properties":{"NAME":"Early Cholas","C":1,"name":"Early Cholas","start_year":-291,"end_year":298,"capital":"","type":"polity","region":"","event":"","source":"Cliopatria / Seshat Global History Databank (CC BY 4.0)","wikipedia":"Early Cholas","wikidata":"Q3532146","_a":4,"_c":[78.28,10.76],"_nz":"早期朱罗","_sz":""},"geometry":{"type":"Polygon","coordinates":[[[79.83,11.36],[78.96,10.84],[77.88,10.94],[77.59,11.14],[77.02,11.17],[76.68,10.94],[76.9,10.77],[76.85,10.48],[77.4,10.21],[78.92,10.16],[79.39,10.32],[79.85,10.27],[79.87,11.2],[79.83,11.36]]]}},{"type":"Feature","properties":{"NAME":"Mayan City-States","C":2,"name":"Mayan City-States","start_year":-247,"end_year":259,"capital":"","type":"polity","region":"","event":"","source":"Cliopatria / Seshat Global History Databank (CC BY 4.0)","wikipedia":"Maya civilization","wikidata":"Q28567","_a":24,"_c":[-90.73,15.94],"_nz":"玛雅城邦","_sz":""},"geometry":{"type":"Polygon","coordinates":[[[-88.5,17.77],[-88.95,17.77],[-89.1,17.84],[-89.05,17.96],[-89.34,17.9],[-90.21,18.29],[-91.66,18.09],[-91.7,17.9],[-91.92,17.9],[-91.95,17.64],[-92.48,17.26],[-92.46,17.13],[-92.71,16.87],[-93.15,15.84],[-93.12,15.65],[-93.32,15.52],[-92.75,15.14],[-92.47,14.69],[-91.5,13.98],[-90.47,13.91],[-89.99,13.59],[-89.87,13.79],[-89.57,13.72],[-89.59,13.91],[-89.39,14.11],[-89.1,14.11],[-89.19,14.24],[-88.82,14.24],[-88.91,14.36],[-88.69,14.43],[-88.63,15.07],[-88.38,15.39],[-88.51,15.84],[-88.82,15.97],[-88.64,16.23],[-88.49,16.23],[-88.24,16.49],[-88.21,16.81],[-88.14,16.81],[-88.18,17.58],[-88.32,17.51],[-88.47,17.58],[-88.49,17.71],[-88.5,17.77]]]}},{"type":"Feature","properties":{"NAME":"Cimmerian Bosporus","C":0,"name":"Cimmerian Bosporus","start_year":-230,"end_year":-92,"capital":"","type":"polity","region":"","event":"","source":"Cliopatria / Seshat Global History Databank (CC BY 4.0)","wikipedia":"Bosporan Kingdom","wikidata":"Q321371","_a":13,"_c":[37.45,46.16],"_nz":"辛梅里安博斯普鲁斯王国","_sz":""},"geometry":{"type":"MultiPolygon","coordinates":[[[[36.09,45.37],[36.42,45.43],[36.37,45.1],[35.88,45.04],[35.73,45.17],[35.41,45.17],[35.39,45.04],[35.22,44.97],[35.24,45.1],[35.15,45.1],[35.18,45.3],[36.01,45.37],[36.09,45.37]]],[[[39.09,46.28],[38.86,45.89],[38.7,45.89],[38.39,45.5],[38.12,44.84],[37.93,44.71],[37.53,44.71],[37.26,45.04],[36.78,45.1],[36.75,45.43],[36.91,45.43],[36.97,45.3],[37.7,45.3],[37.75,45.56],[37.59,45.63],[37.76,45.63],[37.89,45.96],[38.33,46.15],[38.37,46.35],[37.9,46.48],[37.84,46.61],[38.49,46.61],[38.62,46.87],[38.79,46.87],[38.89,47.01],[39.22,47.01],[39.2,47.33],[38.35,47.2],[38.49,47.53],[39.24,47.6],[39.72,47.47],[39.74,47.14],[39.55,47.01],[39.6,46.81],[39.43,46.81],[39.29,46.48],[39.1,46.35],[39.09,46.28]]]]}},{"type":"Feature","properties":{"NAME":"Minaeans","C":0,"name":"Minaeans","start_year":-164,"end_year":-67,"capital":"","type":"polity","region":"","event":"","source":"Cliopatria / Seshat Global History Databank (CC BY 4.0)","wikipedia":"Minaeans","wikidata":"Q1177379","_a":73,"_c":[41.72,21.15],"_nz":"米奈人","_sz":""},"geometry":{"type":"Polygon","coordinates":[[[39.72,24.91],[39.51,25.1],[39.46,25.55],[39.32,25.62],[39.05,26.13],[38.77,26.39],[38.69,26.39],[38.47,26.39],[38.23,26.19],[38.22,26.13],[38.58,25.81],[38.82,24.91],[38.9,24.91],[38.86,24.33],[38.7,24.07],[38.24,23.88],[38.6,23.62],[38.87,23.04],[38.86,22.85],[39.14,22.53],[39.03,21.76],[39.17,21.63],[39.15,21.18],[39.35,20.79],[39.5,20.73],[39.49,20.6],[39.84,20.28],[40.14,20.28],[40.56,19.83],[40.85,19.7],[40.84,19.51],[40.99,19.44],[41.04,19.12],[41.25,18.86],[41.24,18.61],[41.45,18.48],[41.78,17.84],[42.28,17.45],[42.34,17.13],[42.48,17.13],[42.82,16.49],[42.81,16.42],[43.11,16.42],[43.39,16.23],[44.12,16.16],[44.33,15.91],[45.21,15.91],[45.22,15.97],[45.23,16.1],[45.01,16.23],[45.02,16.36],[44.54,16.94],[44.62,17.13],[44.47,17.13],[44.34,17.32],[44.42,17.45],[44.08,17.96],[44.09,18.16],[43.89,18.41],[43.9,18.74],[43.63,19.06],[43.64,19.25],[43.5,19.38],[43.51,19.57],[43.31,19.96],[42.96,20.28],[42.81,20.28],[42.53,20.6],[42.38,20.6],[42.31,20.73],[42.16,20.66],[41.82,21.11],[41.52,21.18],[41.38,21.37],[41.09,21.44],[40.88,21.69],[40.16,22.08],[40.09,22.27],[39.88,22.4],[39.83,22.98],[39.91,22.98],[39.93,23.36],[40.28,24.33],[39.79,24.91],[39.72,24.91]]]}},{"type":"Feature","properties":{"NAME":"Satavahana Dynasty","C":10,"name":"Satavahana Dynasty","start_year":-144,"end_year":-92,"capital":"","type":"polity","region":"","event":"","source":"Cliopatria / Seshat Global History Databank (CC BY 4.0)","wikipedia":"Satavahana dynasty","wikidata":"Q5257","_a":118,"_c":[79.59,18.42],"_nz":"萨塔瓦哈纳王朝","_sz":""},"geometry":{"type":"Polygon","coordinates":[[[86.43,19.96],[85.65,19.64],[85.5,19.64],[85.52,19.83],[85.37,19.83],[85.41,19.57],[84.75,18.99],[84.38,18.41],[84.05,18.16],[83.67,18.03],[83.56,17.77],[83.15,17.45],[82.45,17.13],[82.35,16.87],[82.42,16.87],[82.38,16.55],[82.07,16.36],[81.32,16.29],[81.12,15.78],[80.61,15.84],[80.38,15.71],[80.09,15.07],[80.22,14.88],[80.24,14.43],[79.26,14.11],[79.27,14.24],[78.78,14.49],[78.99,15.14],[76.69,15.65],[76.43,15.97],[76.28,15.97],[76.01,16.23],[76.08,16.87],[75.73,17],[75.46,17.26],[75.47,17.39],[75.07,17.71],[75.08,17.84],[74.88,18.03],[74.43,17.96],[73.88,17.64],[73.14,17.64],[72.96,18.03],[72.87,19.31],[72.73,19.38],[72.75,19.57],[73.4,20.02],[73.71,20.86],[73.76,21.31],[74.05,21.95],[74.38,22.21],[75.47,22.66],[76.6,22.72],[77.03,22.59],[77.1,22.59],[78.03,22.27],[78.29,21.95],[78.44,21.95],[78.77,21.63],[78.82,21.44],[79.11,21.37],[79.1,21.24],[79.31,21.18],[79.44,20.99],[80.01,20.79],[80.45,20.79],[80.84,20.34],[81.78,20.09],[82.17,19.64],[82.52,19.51],[82.78,19.25],[85.35,20.79],[86.14,20.6],[86.16,20.15],[86.44,20.02],[86.43,19.96]]]}},{"type":"Feature","properties":{"NAME":"Shunga Empire","C":4,"name":"Shunga Empire","start_year":-144,"end_year":-92,"capital":"","type":"polity","region":"","event":"","source":"Cliopatria / Seshat Global History Databank (CC BY 4.0)","wikipedia":"Shunga Empire","wikidata":"Q651377","_a":153,"_c":[83.53,25.2],"_nz":"巽伽帝国","_sz":""},"geometry":{"type":"Polygon","coordinates":[[[81.09,30.18],[80.92,30.44],[80.34,30.56],[80.05,30.95],[79.53,31.01],[79.48,31.14],[79.41,31.14],[77.94,29.99],[77.85,29.6],[77.93,29.6],[77.88,29.34],[77.99,29.15],[77.96,28.25],[78.04,28.25],[78.06,27.93],[78.13,27.93],[78.84,27.29],[78.81,27.09],[78.98,26.77],[77.93,25.87],[77.43,25.04],[77.2,23.94],[77.11,22.66],[77.1,22.59],[78.03,22.27],[78.29,21.95],[78.44,21.95],[78.77,21.63],[78.82,21.44],[79.11,21.37],[79.1,21.24],[79.31,21.18],[79.44,20.99],[80.01,20.79],[80.45,20.79],[80.84,20.34],[81.78,20.09],[82.17,19.64],[82.52,19.51],[82.78,19.25],[85.35,20.79],[86.14,20.6],[86.16,20.15],[86.44,20.02],[86.51,20.02],[86.84,20.28],[86.79,20.47],[87.03,20.6],[86.96,21.18],[86.88,21.18],[87.07,21.44],[87.76,21.63],[88.1,21.95],[88.18,21.95],[88.13,21.63],[88.35,21.56],[88.37,21.69],[88.51,21.69],[88.64,22.08],[88.72,22.08],[88.73,21.63],[89.87,21.82],[89.95,22.4],[89.73,22.91],[89.59,22.98],[89.96,23.94],[89.82,24.01],[89.93,24.2],[89.95,24.78],[89.79,25.16],[89.95,25.62],[89.87,25.62],[89.88,26.07],[89.74,26.13],[89.94,26.77],[89.07,26.9],[88.82,27.16],[88.84,27.29],[88.29,27.16],[88.09,27.29],[88.12,27.42],[87.95,27.35],[87.54,27.54],[87.57,27.67],[87.41,27.61],[87.36,27.74],[87.21,27.74],[87.16,27.87],[87.25,27.93],[87.11,27.99],[86.78,27.87],[86.57,27.93],[86.23,27.74],[85.85,27.74],[85.21,27.93],[84.81,28.19],[84.79,28.44],[84.72,28.44],[84.83,28.64],[84.48,28.77],[84.25,29.09],[84.01,29.02],[83.75,29.22],[83.52,29.22],[83.49,29.41],[83.25,29.34],[83.05,29.47],[82.46,29.54],[82.34,29.67],[81.7,29.86],[81.39,30.18],[81.16,30.18],[81.09,30.18]]]}},{"type":"Feature","properties":{"NAME":"Nabataeans","C":8,"name":"Nabataeans","start_year":-126,"end_year":-92,"capital":"","type":"polity","region":"","event":"","source":"Cliopatria / Seshat Global History Databank (CC BY 4.0)","wikipedia":"Nabataeans","wikidata":"Q220594","_a":39,"_c":[35.65,29.41],"_nz":"纳巴泰人","_sz":""},"geometry":{"type":"MultiPolygon","coordinates":[[[[37.07,26.84],[37.07,26.9],[37.15,26.9],[37.15,26.84],[37.07,26.84]]],[[[38.06,26.97],[38.06,27.03],[38.14,27.03],[38.13,26.97],[38.06,26.97]]],[[[37.84,27.09],[37.84,27.16],[37.92,27.16],[37.91,27.09],[37.84,27.09]]],[[[36.4,30.95],[36.16,30.76],[35.94,29.99],[35.87,29.99],[35.83,29.47],[35.96,29.22],[35.86,28.89],[36.4,28.06],[36.55,28.06],[36.69,27.87],[37.13,27.67],[37.26,27.42],[37.48,27.35],[37.47,27.22],[37.77,27.16],[38.05,26.9],[38.21,26.97],[38.27,26.77],[38.49,26.77],[38.41,26.64],[38.7,26.45],[38.69,26.39],[38.47,26.39],[38.23,26.19],[38.15,26.19],[38.16,26.32],[37.95,26.52],[37.65,26.58],[37.15,26.97],[37,26.9],[37.02,27.16],[36.51,27.42],[36.37,27.61],[35.71,27.8],[35.4,27.74],[35.41,27.87],[35.05,28.12],[34.59,28.06],[34.61,28.25],[34.85,28.57],[34.91,29.41],[34.75,29.28],[34.71,28.7],[34.55,28.51],[34.52,28.06],[34.36,27.93],[34.35,27.74],[33.9,27.87],[33.55,28.32],[33.4,28.32],[33.19,28.51],[33.21,28.89],[32.86,29.22],[32.6,29.86],[32.6,29.92],[33.07,30.18],[33.33,30.56],[33.45,31.08],[33.52,31.08],[34.22,31.27],[34.3,31.27],[34.36,31.08],[34.98,31.21],[34.98,31.27],[35.13,31.27],[35.3,31.46],[35.77,31.53],[35.9,32.24],[35.83,32.24],[35.85,32.43],[36.32,32.62],[36.55,32.62],[36.69,32.49],[36.69,32.43],[36.75,32.3],[36.52,32.24],[36.66,32.11],[36.49,31.98],[36.46,31.66],[36.39,31.66],[36.42,31.21],[36.27,31.21],[36.26,31.08],[36.34,31.08],[36.4,30.95]]]]}},{"type":"Feature","properties":{"NAME":"Kingdom of Bithynia","C":4,"name":"Kingdom of Bithynia","start_year":-126,"end_year":-92,"capital":"","type":"polity","region":"","event":"","source":"Cliopatria / Seshat Global History Databank (CC BY 4.0)","wikipedia":"Kingdom of Bithynia","wikidata":"Q3762571","_a":6,"_c":[30.53,40.81],"_nz":"比提尼亚王国","_sz":""},"geometry":{"type":"Polygon","coordinates":[[[31.71,40.1],[32.11,40.16],[32.3,40.42],[32.31,40.55],[32.16,40.61],[32.18,40.81],[32.1,40.81],[32.14,41.13],[32.31,41.2],[32.32,41.33],[32.11,41.59],[32.12,41.65],[32.03,41.52],[31.7,41.46],[31.59,41.2],[31.35,41.2],[31.18,41.07],[30.62,41.07],[30.48,41.2],[29.37,41.2],[29.25,40.81],[29.49,40.87],[29.48,40.74],[28.91,40.61],[28.9,40.48],[29.05,40.36],[28.81,40.36],[28.73,40.36],[28.95,40.23],[29.35,40.23],[29.45,40.48],[29.94,40.55],[29.92,40.42],[30.07,40.29],[30.46,40.23],[30.6,40.1],[30.59,39.97],[31.3,39.97],[31.31,40.03],[31.39,40.03],[31.46,40.03],[31.54,40.03],[31.62,40.03],[31.7,40.03],[31.71,40.1]]]}},{"type":"Feature","properties":{"NAME":"Indo-Greeks","C":0,"name":"Indo-Greeks","start_year":-110,"end_year":-92,"capital":"","type":"polity","region":"","event":"","source":"Cliopatria / Seshat Global History Databank (CC BY 4.0)","wikipedia":"Indo-Greek Kingdom","wikidata":"Q215643","_a":197,"_c":[70.15,31.95],"_nz":"印度-希腊人","_sz":""},"geometry":{"type":"MultiPolygon","coordinates":[[[[75.31,34.1],[75.6,34.04],[75.69,33.46],[75.82,33.39],[75.94,32.94],[76.1,32.94],[76.08,32.56],[76.26,32.36],[77.73,31.79],[78.04,31.79],[78.45,31.59],[78.84,31.66],[78.84,31.34],[79.18,31.46],[79.42,31.21],[79.41,31.14],[77.94,29.99],[77.85,29.6],[77.93,29.6],[77.88,29.34],[77.99,29.15],[77.96,28.25],[78.04,28.25],[78.06,27.93],[78.04,27.87],[78.02,26.9],[77.45,26.64],[76.86,26.71],[76.47,27.03],[76.49,27.16],[76.17,27.48],[76.21,28.12],[75.74,28.44],[75.62,29.02],[75.34,29.15],[74.82,28.77],[73.35,28.19],[70.72,27.74],[70.74,27.87],[70.54,28.06],[70.07,27.93],[69.91,28.32],[69.45,28.32],[68.72,28.89],[67.12,29.28],[67.02,29.54],[66.57,29.99],[66.58,30.5],[66.51,30.5],[66.59,30.95],[66.6,31.01],[66.88,31.27],[67.93,31.59],[68.12,31.79],[68.35,31.79],[69.44,32.62],[70.23,32.75],[70.43,32.94],[70.4,33.14],[70.58,33.26],[70.62,33.46],[70.87,33.52],[70.93,33.78],[70.82,33.97],[70.77,34.1],[70.96,34.23],[71.48,34.16],[71.56,34.16],[72.59,34.29],[72.85,34.42],[73.93,34.42],[73.9,34.29],[74.03,34.23],[75.23,34.1],[75.31,34.1]]],[[[60.95,37.19],[60.87,37.19],[60.89,37.25],[60.97,37.25],[60.95,37.19]]]]}},{"type":"Feature","properties":{"NAME":"Judea","C":9,"name":"Judea","start_year":-110,"end_year":-92,"capital":"","type":"polity","region":"","event":"","source":"Cliopatria / Seshat Global History Databank (CC BY 4.0)","wikipedia":"Judea","wikidata":"Q104028","_a":3,"_c":[35.11,31.95],"_nz":"犹地亚","_sz":""},"geometry":{"type":"Polygon","coordinates":[[[34.98,31.27],[35.13,31.27],[35.3,31.46],[35.77,31.53],[35.93,32.49],[35.87,32.75],[35.5,32.81],[35.32,32.49],[34.92,32.36],[34.92,32.3],[34.77,32.36],[34.81,31.98],[34.57,31.85],[34.56,31.72],[34.79,31.72],[34.78,31.59],[34.47,31.53],[34.46,31.4],[34.3,31.34],[34.3,31.27],[34.36,31.08],[34.98,31.21],[34.98,31.27]]]}},{"type":"Feature","properties":{"NAME":"Kingdom of Sophene","C":4,"name":"Kingdom of Sophene","start_year":-110,"end_year":-88,"capital":"","type":"polity","region":"","event":"","source":"Cliopatria / Seshat Global History Databank (CC BY 4.0)","wikipedia":"Kingdom of Sophene","wikidata":"Q2626105","_a":3,"_c":[39.74,38.9],"_nz":"索菲尼王国","_sz":""},"geometry":{"type":"Polygon","coordinates":[[[40.52,38.22],[40.51,38.74],[40.66,39.19],[40.51,39.26],[40.48,39.58],[39.85,39.58],[39.75,39.45],[39.21,39.51],[38.95,39.38],[38.81,38.93],[39.11,38.8],[39.25,38.67],[39.23,38.55],[39.38,38.48],[40.52,38.22]]]}},{"type":"Feature","properties":{"NAME":"Kingdom of Numidia","C":9,"name":"Kingdom of Numidia","start_year":-110,"end_year":-92,"capital":"","type":"polity","region":"","event":"","source":"Cliopatria / Seshat Global History Databank (CC BY 4.0)","wikipedia":"Jugurtha","wikidata":"Q156173","_a":155,"_c":[7.97,33.53],"_nz":"努米底亚王国","_sz":""},"geometry":{"type":"MultiPolygon","coordinates":[[[[10.01,33.91],[10.24,33.71],[10.54,33.71],[10.7,33.52],[11.08,33.59],[11.16,33.2],[11.46,33.2],[12.23,32.81],[12.61,32.88],[12.53,32.75],[12.84,32.75],[12.84,32.88],[13.07,32.94],[13.3,32.94],[13.45,32.81],[13.76,32.88],[13.76,32.75],[14.07,32.75],[14.44,32.49],[14.67,32.56],[14.75,32.43],[15.21,32.36],[15.42,31.66],[15.58,31.59],[15.65,31.4],[16.18,31.21],[17.47,31.08],[18,30.89],[18.59,30.37],[18.9,30.37],[18.81,29.99],[18.28,30.05],[16.7,30.69],[15.49,30.95],[15.18,30.89],[15.19,31.08],[14.58,31.53],[14.59,31.66],[13.83,32.11],[13.3,32.24],[13.07,32.17],[13.07,32.3],[12.46,32.36],[11.77,32.3],[11.77,32.43],[11.54,32.43],[11.46,32.56],[11.31,32.49],[11.16,32.69],[10.39,33.01],[10.01,33.01],[10.08,33.14],[9.63,33.14],[9.55,33.33],[9.62,33.46],[9.32,33.59],[9.08,34.04],[8.93,34.04],[8.93,34.16],[8.77,34.23],[8.08,34.23],[8,34.42],[7.61,34.55],[7.15,34.49],[6.92,34.61],[6.46,34.55],[6.15,34.68],[5.38,34.61],[5.3,34.61],[5.22,34.61],[4.45,34.61],[3.84,34.42],[3.46,34.49],[2.92,34.36],[2.45,34.61],[1.99,34.61],[1.99,34.55],[1.91,34.55],[1.91,34.61],[1.68,34.61],[1.83,34.74],[1.75,34.74],[1.53,34.55],[1.29,34.61],[0.68,34.42],[0.45,34.49],[0.3,34.36],[-1.24,34.36],[-1.31,34.16],[-1.54,34.23],[-1.61,34.1],[-1.69,34.23],[-2.38,34.16],[-2.46,34.16],[-2.85,34.36],[-2.79,34.55],[-2.95,34.61],[-2.96,34.87],[-2.81,34.94],[-2.74,35.13],[-2.67,35.13],[-1.66,35.13],[-1.59,35.26],[-1.36,35.26],[-1.14,35.45],[-1.22,35.64],[-1.07,35.58],[-0.92,35.71],[-0.53,35.71],[-0.46,35.84],[0.08,35.84],[0.38,36.22],[0.68,36.29],[0.68,36.42],[0.91,36.35],[1.22,36.55],[1.53,36.48],[2.38,36.67],[2.69,36.61],[2.84,36.74],[3.23,36.74],[3.46,36.87],[3.85,36.8],[4.24,36.93],[4.86,36.87],[5.1,36.67],[5.33,36.74],[5.41,36.74],[5.49,36.74],[5.56,36.67],[5.64,36.8],[6.11,36.8],[6.1,36.93],[6.33,37.06],[6.8,36.87],[7.19,36.87],[7.35,37.06],[7.66,37],[7.74,36.87],[8.52,36.87],[8.67,37],[8.75,37],[8.91,36.55],[8.68,36.42],[8.68,36.22],[8.84,36.03],[8.84,35.84],[8.99,35.77],[8.92,35.52],[9.23,35.26],[9.39,34.81],[10,34.29],[10,34.23],[10.08,34.23],[10.01,33.91]]],[[[2.53,34.42],[2.53,34.49],[2.61,34.49],[2.61,34.42],[2.53,34.42]]]]}},{"type":"Feature","properties":{"NAME":"Roman Republic","C":3,"name":"Roman Republic","start_year":-110,"end_year":-92,"capital":"","type":"polity","region":"","event":"","source":"Cliopatria / Seshat Global History Databank (CC BY 4.0)","wikipedia":"Roman Republic","wikidata":"Q175881","_a":499,"_c":[11.34,40.25],"_nz":"罗马共和国","_sz":""},"geometry":{"type":"MultiPolygon","coordinates":[[[[11.01,35.39],[11.08,35],[10.85,34.94],[10.85,34.81],[10.08,34.29],[10,34.29],[9.39,34.81],[9.23,35.26],[8.92,35.52],[8.99,35.77],[8.84,35.84],[8.84,36.03],[8.68,36.22],[8.68,36.42],[8.91,36.55],[8.75,37],[8.83,37],[8.9,37.13],[9.06,37.06],[9.37,37.25],[9.76,37.32],[9.99,37.19],[10.23,37.25],[10.23,37.06],[10.31,37.06],[10.23,36.8],[10.46,36.74],[11.01,37],[11.01,36.8],[10.46,36.42],[10.54,36.35],[10.46,35.9],[10.85,35.71],[10.85,35.64],[11.08,35.58],[11.08,35.39],[11.01,35.39]]],[[[14.34,36.03],[14.42,36.03],[14.57,35.97],[14.57,35.77],[14.34,35.84],[14.34,36.03]]],[[[20.33,38.35],[20.49,38.42],[20.57,38.42],[20.8,38.29],[20.79,38.09],[20.32,38.16],[20.33,38.35]]],[[[1.27,38.8],[1.18,39.06],[1.26,39.13],[1.34,39.13],[1.65,39.13],[1.66,39],[1.43,38.8],[1.27,38.8]]],[[[20.15,39.64],[20.15,39.58],[20.07,39.58],[20.07,39.64],[20.15,39.64]]],[[[3.3,39.32],[2.82,39.32],[2.66,39.51],[2.35,39.45],[2.34,39.64],[2.88,39.97],[2.96,39.97],[3.19,39.97],[3.2,39.84],[3.52,39.77],[3.3,39.32]]],[[[3.74,40.1],[3.82,40.1],[4.22,40.1],[4.3,39.84],[3.83,39.9],[3.74,40.1]]],[[[9.82,40.36],[9.67,40.29],[9.75,39.64],[9.67,39.64],[9.59,39.13],[9.12,39.19],[8.97,38.87],[8.73,38.87],[8.34,39],[8.41,39.26],[8.33,39.26],[8.33,39.51],[8.41,39.51],[8.48,39.9],[8.32,39.97],[8.4,40.29],[8.32,40.29],[8.32,40.48],[8.16,40.55],[8.15,40.94],[8.55,40.87],[9.02,41.26],[9.1,41.26],[9.5,41.2],[9.82,40.74],[9.82,40.36]]],[[[15.81,44.78],[16.13,44.65],[16.52,44.25],[16.68,44.25],[16.91,43.99],[17.07,43.99],[17.15,43.86],[17.31,43.93],[17.39,43.73],[17.86,43.54],[18.34,43.54],[18.57,43.28],[18.74,43.34],[18.82,43.29],[18.82,43.34],[18.9,43.34],[18.9,43.28],[18.83,43.28],[19.2,43.02],[19.61,43.02],[19.52,42.95],[19.6,42.82],[20.24,42.82],[20.15,42.69],[20.31,42.69],[20.38,42.56],[20.63,42.63],[20.62,42.5],[21.08,42.17],[22.45,42.43],[22.44,42.24],[22.59,42.11],[22.75,42.11],[23.05,41.85],[23.45,41.78],[23.67,41.52],[24.72,41.72],[25.03,41.65],[25.2,41.78],[26.32,41.78],[26.83,42.11],[27.38,42.11],[27.46,42.11],[27.61,41.98],[27.93,41.98],[27.92,41.91],[28,41.91],[28.05,41.59],[28.22,41.65],[28.35,41.39],[28.98,41.26],[29.04,41.07],[27.53,41.07],[27.02,40.68],[26.92,40.48],[26.63,40.74],[26.14,40.61],[26.08,40.87],[25.85,40.94],[24.35,41],[24.01,40.74],[23.7,40.81],[23.68,40.61],[23.84,40.55],[23.74,40.23],[22.96,40.42],[22.89,40.61],[22.57,40.55],[22.54,40.1],[22.7,40.1],[22.61,39.9],[23.14,39.45],[22.82,39.38],[22.8,39.06],[22.96,39.13],[23.49,38.87],[23.33,38.8],[23.03,38.93],[22.94,38.74],[23.17,38.67],[23.31,38.48],[23.63,38.48],[23.56,38.74],[24.03,38.67],[24.18,38.55],[24.16,38.22],[23.94,38.42],[23.86,38.42],[23.31,38.35],[23.36,38.03],[23.29,38.03],[23.2,37.9],[23.04,37.9],[23.04,37.77],[23.11,37.64],[23.34,37.64],[23.4,37.32],[23.17,37.32],[23.18,37.45],[22.95,37.58],[22.71,37.58],[22.7,37.32],[22.85,37.25],[23.06,36.67],[22.83,36.87],[22.6,36.87],[22.51,36.67],[22.36,36.67],[22.22,37.06],[21.91,37.06],[21.9,36.87],[21.74,36.87],[21.68,37.19],[21.6,37.19],[21.7,37.51],[21.24,37.84],[21.42,38.16],[21.73,38.16],[21.74,38.35],[21.19,38.42],[20.97,38.74],[20.74,38.8],[20.91,39.06],[20.3,39.38],[20.15,39.71],[19.92,39.71],[19.91,39.58],[19.76,39.64],[19.76,39.77],[20,39.77],[20.01,39.97],[19.63,40.29],[19.47,40.29],[19.49,40.61],[19.25,40.61],[19.25,40.74],[19.5,40.87],[19.44,41.26],[19.52,41.39],[19.44,41.39],[19.53,41.52],[19.45,41.52],[19.54,41.78],[18.85,42.37],[18.14,42.63],[17.99,42.82],[17.59,42.89],[17.51,42.76],[17.52,42.95],[17.36,42.95],[17.37,43.21],[17.12,43.15],[17.05,43.41],[16.73,43.34],[16.73,43.54],[16.58,43.6],[15.93,43.47],[16.01,43.6],[15.86,43.8],[15.7,43.8],[15.62,43.93],[15.37,43.86],[15.46,43.99],[15.22,44.06],[15.15,44.39],[14.91,44.58],[14.92,44.97],[14.52,45.1],[14.6,45.37],[14.2,45.37],[14.19,45.04],[13.95,45.04],[13.94,44.91],[13.78,44.91],[13.71,45.24],[13.54,45.3],[13.55,45.5],[13.71,45.5],[13.71,45.76],[13.14,45.82],[13.06,45.63],[12.82,45.69],[12.65,45.56],[12.16,45.5],[12.16,45.17],[12.4,45.04],[12.4,44.78],[12.16,44.84],[12.15,44.45],[12.31,44.19],[12.87,43.8],[13.04,43.86],[13.03,43.73],[13.36,43.67],[13.67,43.41],[13.75,43.08],[13.99,42.95],[13.9,42.76],[14.06,42.5],[14.37,42.24],[14.53,42.24],[14.61,42.11],[14.77,42.17],[14.77,42.04],[14.92,41.98],[15.17,42.04],[15.24,41.91],[16.12,41.91],[16.11,41.78],[15.87,41.72],[15.94,41.39],[17.2,41],[17.51,40.74],[17.98,40.61],[18.44,40.16],[18.35,39.9],[18.11,39.9],[17.81,40.36],[17.42,40.36],[17.35,40.55],[17.03,40.55],[16.87,40.48],[16.95,40.42],[16.86,40.29],[16.62,40.29],[16.7,40.1],[16.46,39.97],[16.45,39.64],[16.92,39.51],[17.07,39.38],[17.14,39.06],[16.5,38.8],[16.49,38.42],[15.93,37.96],[15.7,37.96],[15.62,38.16],[15.39,38.16],[15.07,37.64],[15.06,37.25],[15.21,37.19],[15.05,36.74],[14.66,36.74],[14.28,37.13],[13.58,37.25],[13.19,37.58],[12.49,37.71],[12.49,37.9],[12.65,38.09],[13.04,38.03],[13.12,38.16],[13.35,38.16],[13.67,37.96],[14.06,37.96],[15.86,38.29],[15.95,38.67],[16.27,38.74],[16.27,38.93],[16.12,39.06],[15.9,39.77],[15.67,39.9],[15.75,40.03],[15.43,40.03],[15.2,40.23],[15.04,40.23],[14.89,40.68],[14.42,40.68],[14.42,40.87],[14.1,40.87],[13.95,41.13],[13.79,41.13],[13.71,41.26],[13,41.33],[12.13,41.91],[12.13,42.04],[11.81,42.11],[11.65,42.37],[11.49,42.3],[11.42,42.43],[11.26,42.43],[11.18,42.63],[11.02,42.63],[11.02,42.82],[10.54,43.08],[10.37,43.67],[10.13,44.06],[9.89,43.99],[9.97,44.12],[9.73,44.12],[9.16,44.45],[8.59,44.45],[8.19,44.19],[8.03,43.93],[7.15,43.73],[6.99,43.54],[6.67,43.47],[6.52,43.21],[5.8,43.15],[5.63,43.28],[5.55,43.28],[5.38,43.6],[5.06,43.6],[5.06,43.47],[4.98,43.47],[4.18,43.47],[4.17,43.6],[3.85,43.6],[2.98,43.15],[3.01,42.56],[3.18,42.37],[3.12,41.91],[2.57,41.59],[2.33,41.59],[2.11,41.33],[1.24,41.2],[0.7,40.94],[0.71,40.68],[0.25,40.42],[0.18,40.16],[-0.13,40.03],[-0.35,39.71],[-0.31,39.13],[0.1,38.74],[-0.66,38.29],[-0.8,38.03],[-0.7,37.64],[-1.71,37.45],[-1.62,37.32],[-1.86,37.32],[-2.06,36.8],[-2.53,36.87],[-2.68,36.74],[-4.47,36.74],[-4.69,36.55],[-5.23,36.48],[-5.29,36.22],[-5.66,36.03],[-5.83,36.22],[-6.06,36.22],[-6.33,36.67],[-6.35,36.93],[-6.59,37],[-6.84,37.25],[-7.47,37.25],[-7.45,37.13],[-7.68,37],[-8.07,37],[-8.31,37.13],[-8.7,37.13],[-9,37],[-8.9,37.58],[-8.82,37.58],[-8.82,38.48],[-9.21,38.42],[-9.23,38.67],[-9.38,38.61],[-9.55,38.74],[-9.57,38.93],[-9.43,39.06],[-9.39,39.45],[-9.16,39.51],[-9.1,39.77],[-9.03,39.77],[-8.93,40.36],[-8.85,40.36],[-8.87,40.61],[-8.73,40.74],[-8.91,41.78],[-8.67,41.72],[-8.36,41.78],[-8.29,41.91],[-7.25,41.91],[-7.19,42.04],[-6.46,41.98],[-5.84,42.17],[-3.11,42.04],[-2.96,42.17],[-2.18,42.37],[-2.11,42.56],[-1.95,42.5],[-1.48,42.69],[-1.49,42.82],[-1.33,42.82],[-1.26,42.95],[-0.94,42.95],[-0.69,42.76],[0.29,42.56],[0.46,42.43],[0.77,42.5],[0.86,42.37],[1.42,42.3],[2,41.98],[2.72,41.91],[2.86,42.24],[2.7,42.37],[2.77,42.63],[2.69,42.63],[2.67,43.02],[2.75,43.02],[2.74,43.21],[3.05,43.47],[3.21,43.47],[3.45,43.67],[4.65,43.86],[6.67,43.6],[6.91,43.86],[7.07,43.86],[7.31,44.06],[7.22,44.19],[7.55,44.19],[8.11,44.45],[8.42,45.3],[8.58,45.37],[8.58,45.5],[8.9,45.63],[10.53,45.63],[10.86,45.5],[11.51,45.5],[12.08,45.63],[12.41,45.82],[12.41,45.96],[12.57,45.96],[12.9,46.22],[13.64,46.22],[13.8,46.09],[14.95,46.15],[14.95,46.02],[15.27,45.96],[15.27,45.89],[15.99,45.5],[15.91,45.43],[15.98,45.24],[15.82,45.24],[15.81,44.78]]],[[[9.58,41.98],[9.5,41.98],[9.5,41.78],[9.26,41.39],[9.1,41.33],[8.78,41.52],[8.78,41.72],[8.62,41.72],[8.7,41.91],[8.54,42.11],[8.53,42.5],[8.77,42.69],[9.17,42.76],[9.25,43.02],[9.33,43.02],[9.49,43.02],[9.49,42.76],[9.57,42.76],[9.58,41.98]]],[[[10.13,42.89],[10.21,42.89],[10.46,42.89],[10.46,42.69],[10.21,42.69],[10.13,42.89]]],[[[-0.86,42.95],[-0.94,42.95],[-0.94,43.02],[-0.86,43.02],[-0.86,42.95]]],[[[14.27,44.97],[14.35,44.97],[14.51,44.91],[14.5,44.52],[14.26,44.58],[14.27,44.97]]],[[[27.74,35.9],[27.69,36.29],[28.02,36.48],[28.09,36.48],[28.25,36.48],[28.14,36.03],[27.74,35.9]]],[[[22.89,36.42],[22.96,36.42],[23.12,36.35],[23.11,36.16],[22.87,36.16],[22.89,36.42]]],[[[27.12,36.93],[27.19,36.8],[26.87,36.67],[27.04,36.93],[27.12,36.93]]],[[[25.34,37.13],[25.42,37.13],[25.57,37.13],[25.56,37],[25.33,37],[25.34,37.13]]],[[[24.28,37.71],[24.36,37.71],[24.43,37.58],[24.27,37.51],[24.2,37.64],[24.28,37.71]]],[[[24.99,37.71],[25.06,37.71],[25.22,37.71],[25.29,37.51],[25.05,37.51],[24.99,37.71]]],[[[26.08,37.71],[26.16,37.71],[26.31,37.71],[26.3,37.58],[25.99,37.51],[26.08,37.71]]],[[[20.61,37.71],[20.62,37.9],[20.7,37.9],[20.93,37.9],[20.92,37.64],[20.61,37.71]]],[[[24.69,38.03],[24.77,38.03],[25.07,37.77],[24.83,37.71],[24.68,37.84],[24.69,38.03]]],[[[28.49,40.36],[28.57,40.36],[28.65,40.36],[28.73,40.36],[28.95,40.23],[29.35,40.23],[29.45,40.48],[29.94,40.55],[29.92,40.42],[30.07,40.29],[30.46,40.23],[30.6,40.1],[30.59,39.97],[31.3,39.97],[31.38,39.97],[31.23,39.32],[31.44,39.06],[31.39,38.48],[30.99,38.42],[30.89,38.22],[30.25,38.03],[30.15,37.84],[30.53,37.71],[30.75,37.51],[30.74,37.38],[31.05,37.38],[31.22,37.51],[31.52,37.45],[31.52,37.38],[31.59,37.38],[31.97,37.25],[32.24,36.8],[31.77,36.74],[31.69,36.74],[31.09,36.93],[30.62,36.93],[30.49,36.35],[30.03,36.35],[29.94,36.22],[29.24,36.22],[29.12,36.74],[28.36,36.87],[28.19,36.67],[28.03,36.67],[28.14,37.06],[28.07,37.13],[27.6,37.13],[27.54,37.38],[27.22,37.32],[27.31,37.45],[27.16,37.58],[27.26,37.77],[27.18,37.77],[27.28,38.03],[26.89,38.09],[26.82,38.22],[26.43,38.22],[26.45,38.55],[26.37,38.55],[26.46,38.67],[26.59,38.35],[27.06,38.35],[27.08,38.55],[26.85,38.61],[26.96,39],[26.88,39],[26.89,39.19],[26.74,39.26],[26.85,39.58],[26.13,39.51],[26.17,39.97],[26.25,39.97],[26.27,40.29],[26.6,40.48],[26.68,40.48],[26.67,40.36],[27.47,40.42],[27.62,40.29],[27.7,40.29],[28.17,40.29],[28.18,40.42],[28.26,40.42],[28.34,40.42],[28.33,40.36],[28.41,40.36],[28.49,40.36]]],[[[25.9,38.48],[25.82,38.48],[25.91,38.67],[25.99,38.67],[26.22,38.55],[26.11,38.16],[25.88,38.16],[25.9,38.48]]],[[[23.57,38.8],[23.56,38.74],[23.48,38.74],[23.49,38.8],[23.57,38.8]]],[[[24.36,39],[24.44,39],[24.67,38.93],[24.66,38.74],[24.36,38.87],[24.36,39]]],[[[25.07,40.03],[25.15,40.03],[25.46,40.03],[25.45,39.84],[24.97,39.84],[25.07,40.03]]]]}},{"type":"Feature","properties":{"NAME":"Himyarite Kingdom","C":7,"name":"Himyarite Kingdom","start_year":-110,"end_year":-67,"capital":"","type":"polity","region":"","event":"","source":"Cliopatria / Seshat Global History Databank (CC BY 4.0)","wikipedia":"Himyarite Kingdom","wikidata":"Q289577","_a":8,"_c":[44.55,13.89],"_nz":"希米亚里特王国","_sz":""},"geometry":{"type":"Polygon","coordinates":[[[45.67,14.81],[45.82,14.81],[45.95,14.49],[46.16,14.43],[46.2,13.72],[46.05,13.59],[46.11,13.4],[45.74,13.34],[45.05,12.76],[43.8,12.63],[43.44,12.69],[43.45,12.89],[43.24,13.08],[43.26,13.72],[43.06,13.98],[42.89,15.01],[42.89,15.07],[44.29,15.14],[44.42,14.75],[44.93,14.69],[45.01,14.81],[45.08,14.81],[45.6,14.81],[45.67,14.81]]]}},{"type":"Feature","properties":{"NAME":"Mauretania","C":1,"name":"Mauretania","start_year":-110,"end_year":-92,"capital":"","type":"polity","region":"","event":"","source":"Cliopatria / Seshat Global History Databank (CC BY 4.0)","wikipedia":"Mauretania","wikidata":"Q309272","_a":17,"_c":[-5.46,34.39],"_nz":"毛里塔尼亚","_sz":""},"geometry":{"type":"Polygon","coordinates":[[[-3.29,35.19],[-2.98,35.26],[-2.99,35.45],[-2.84,35.45],[-2.82,35.13],[-2.74,35.13],[-2.81,34.94],[-2.96,34.87],[-2.95,34.61],[-2.79,34.55],[-2.85,34.36],[-2.46,34.16],[-2.54,34.16],[-3.76,34.1],[-4.14,33.97],[-4.21,33.84],[-4.37,33.91],[-5.04,33.59],[-5.27,33.65],[-5.8,33.46],[-6.03,33.52],[-6.63,33.33],[-6.7,33.2],[-6.94,33.26],[-7.53,32.94],[-8.06,32.94],[-8.15,33.14],[-8.47,33.26],[-8.4,33.39],[-7.13,33.84],[-7.06,33.97],[-6.9,33.91],[-6.61,34.16],[-6.7,34.29],[-6.47,34.36],[-6.48,34.49],[-6.33,34.55],[-6.28,34.87],[-6.2,34.87],[-6.29,35.07],[-6.13,35],[-6.15,35.19],[-6,35.32],[-5.88,35.77],[-5.34,35.84],[-5.24,35.52],[-4.75,35.19],[-3.36,35.19],[-3.29,35.19]]]}},{"type":"Feature","properties":{"NAME":"Korean Jin","C":3,"name":"Korean Jin","start_year":-110,"end_year":-92,"capital":"","type":"polity","region":"","event":"","source":"Cliopatria / Seshat Global History Databank (CC BY 4.0)","wikipedia":"Jin (Korean state)","wikidata":"Q1155101","_a":18,"_c":[127.86,36.71],"_nz":"辰国","_sz":""},"geometry":{"type":"Polygon","coordinates":[[[128.92,37.96],[129.53,37.06],[129.42,36.1],[129.58,36.1],[129.67,35.97],[129.52,35.52],[129.15,35.07],[128.53,35.07],[128.55,34.94],[128.81,35],[128.68,34.74],[128.45,34.74],[128.51,34.87],[128.28,34.87],[128.31,34.94],[128.08,34.94],[128.07,34.74],[127.76,34.74],[127.38,34.42],[127.22,34.42],[127.13,34.55],[127.3,34.74],[127.22,34.74],[127.02,34.49],[126.63,34.29],[126.42,34.36],[126.48,34.49],[126.35,34.36],[126.12,34.36],[126.26,34.68],[126.42,34.68],[126.48,34.81],[126.2,34.87],[126.38,35.26],[126.3,35.26],[126.52,35.71],[126.77,35.9],[126.61,35.9],[126.68,36.03],[126.52,36.03],[126.43,36.16],[126.45,36.67],[126.26,36.61],[126.05,36.8],[126.68,37.13],[126.6,37.13],[126.7,37.32],[126.54,37.45],[126.6,37.58],[126.29,37.58],[126.31,37.77],[126.35,37.84],[126.9,38.29],[127.18,38.93],[127.76,39.13],[127.84,39.13],[127.92,39],[128.2,38.93],[128.21,38.8],[128.36,38.8],[128.84,37.96],[128.92,37.96]]]}},{"type":"Feature","properties":{"NAME":"Greek City-States","C":4,"name":"Greek City-States","start_year":-110,"end_year":-92,"capital":"","type":"polity","region":"","event":"","source":"Cliopatria / Seshat Global History Databank (CC BY 4.0)","wikipedia":"Polis","wikidata":"Q148837","_a":437,"_c":[23.25,41.01],"_nz":"希腊城邦","_sz":""},"geometry":{"type":"MultiPolygon","coordinates":[[[[23.62,35.52],[24.16,35.52],[24.15,35.39],[24.3,35.32],[25.69,35.32],[25.68,35.13],[26.23,35.19],[26.14,35.07],[24.82,35],[24.76,35.19],[24.53,35.19],[24.45,35.19],[23.68,35.26],[23.62,35.52]]],[[[23.44,38.03],[23.36,38.03],[23.31,38.35],[23.86,38.42],[23.85,38.35],[24.08,38.29],[23.98,37.84],[23.44,38.03]]],[[[26.25,38.93],[26.09,39],[26.1,39.13],[25.79,39.19],[26.04,39.38],[26.12,39.38],[26.51,39.32],[26.64,39],[26.25,38.93]]],[[[25.7,40.1],[25.72,40.29],[25.8,40.29],[26.04,40.29],[26.02,40.16],[25.7,40.1]]],[[[28.02,40.36],[28.1,40.36],[28.1,40.42],[28.18,40.42],[28.17,40.29],[27.7,40.29],[27.7,40.36],[27.78,40.36],[27.79,40.42],[27.79,40.48],[27.87,40.48],[27.95,40.48],[27.94,40.42],[27.94,40.36],[28.02,40.36]]],[[[24.55,40.55],[24.49,40.81],[24.57,40.81],[24.81,40.81],[24.79,40.61],[24.55,40.55]]],[[[5.06,43.6],[5.38,43.6],[5.55,43.28],[5.47,43.28],[5.39,43.28],[5.39,43.34],[5.39,43.41],[5.31,43.41],[5.23,43.41],[5.15,43.41],[5.07,43.41],[5.06,43.47],[5.06,43.6]]],[[[27.94,42.04],[27.93,41.98],[27.61,41.98],[27.46,42.11],[27.47,42.17],[27.17,42.43],[27.19,42.63],[27.37,42.76],[27.3,42.89],[27.46,42.89],[27.66,43.28],[28,43.47],[28.12,43.86],[28.3,44.06],[28.34,44.45],[28.42,44.45],[28.37,44.71],[28.64,44.97],[28.8,44.97],[28.84,44.58],[28.58,44.39],[28.54,43.99],[28.62,43.99],[28.48,43.47],[28.16,43.47],[28.23,43.34],[27.9,43.28],[27.8,43.15],[27.85,42.82],[27.85,42.76],[27.51,42.63],[27.49,42.43],[27.94,42.04]]],[[[36,37],[35.98,36.87],[35.9,36.87],[35.83,36.93],[35.49,36.61],[35.33,36.61],[35.11,36.74],[34.95,36.67],[34.89,36.87],[34.58,36.87],[34.25,36.67],[33.98,36.29],[33.27,36.22],[32.71,36.03],[32.56,36.03],[32.5,36.22],[32.07,36.61],[31.76,36.67],[31.77,36.74],[32.24,36.8],[32.55,36.8],[32.8,36.93],[32.86,36.8],[33.1,36.8],[33.43,37.06],[34.3,37.19],[34.56,37.45],[34.88,37.45],[35.05,37.64],[35.67,37.58],[36,37.71],[36.35,38.03],[37.11,37.9],[37.13,38.03],[37.76,38.09],[37.64,37.71],[37.99,37.38],[37.96,37.13],[38.18,37],[38.16,36.87],[37.6,36.74],[37.52,36.74],[37.2,36.61],[36.16,37.06],[36,37]]],[[[29.29,41.2],[29.37,41.2],[29.18,40.87],[29.04,41.13],[29.29,41.2]]],[[[31.59,41.2],[31.51,41.2],[31.36,41.26],[31.69,41.39],[31.59,41.2]]],[[[40.82,43.15],[40.42,43.15],[40.22,43.41],[39.98,43.41],[39.63,43.73],[40.41,43.6],[40.32,43.54],[40.38,43.41],[41.15,43.21],[41.21,43.08],[41.44,43.02],[41.41,42.89],[41.33,42.89],[41.17,42.89],[41.12,43.02],[40.82,43.15]]],[[[40.04,43.8],[40.03,43.73],[39.95,43.73],[39.96,43.8],[40.04,43.8]]],[[[33.52,44.45],[33.47,44.65],[33.55,44.65],[33.61,45.1],[33.23,45.3],[33.64,45.3],[33.92,44.97],[34.6,45.24],[35.18,45.3],[35.15,45.1],[35.24,45.1],[35.13,44.97],[35.13,44.91],[34.38,44.78],[33.93,44.45],[33.52,44.45]]],[[[31.08,47.01],[31.57,46.94],[31.53,46.68],[30.88,46.68],[30.3,45.96],[30.04,45.89],[29.86,45.69],[29.61,45.69],[29.64,45.96],[30.19,46.41],[30.27,46.41],[30.46,46.61],[31.07,46.87],[31.08,47.01]]]]}},{"type":"Feature","properties":{"NAME":"Cyrenaica","C":7,"name":"Cyrenaica","start_year":-110,"end_year":-92,"capital":"","type":"polity","region":"","event":"","source":"Cliopatria / Seshat Global History Databank (CC BY 4.0)","wikipedia":"Cyrenaica","wikidata":"Q165198","_a":22,"_c":[21.96,31.21],"_nz":"昔兰尼加","_sz":""},"geometry":{"type":"Polygon","coordinates":[[[23.91,32.11],[24.13,31.98],[24.89,31.98],[25.11,31.79],[25.11,31.66],[25.1,31.59],[24.86,31.4],[24.98,30.69],[24.74,30.44],[24.72,29.92],[24.86,29.73],[24.85,29.47],[24.78,29.47],[23.96,29.92],[23.51,29.99],[22.92,30.31],[22.76,30.24],[22.77,30.37],[21.94,30.56],[20.95,30.56],[19.65,30.24],[19.5,30.12],[18.81,30.05],[18.89,30.31],[19.5,30.31],[20.12,30.76],[20.21,31.27],[20,31.59],[20.09,32.11],[20.02,32.24],[20.25,32.24],[20.33,32.49],[20.48,32.43],[20.56,32.56],[20.72,32.56],[20.64,32.69],[20.87,32.62],[21.11,32.81],[21.41,32.75],[21.57,32.88],[22.11,32.94],[23.09,32.62],[23.15,32.24],[23.83,32.11],[23.91,32.11]]]}},{"type":"Feature","properties":{"NAME":"Sabaeans","C":6,"name":"Sabaeans","start_year":-110,"end_year":-67,"capital":"","type":"polity","region":"","event":"","source":"Cliopatria / Seshat Global History Databank (CC BY 4.0)","wikipedia":"Sabaeans","wikidata":"Q940785","_a":5,"_c":[44.58,15.75],"_nz":"萨巴人","_sz":""},"geometry":{"type":"Polygon","coordinates":[[[45.21,15.91],[44.33,15.91],[44.12,16.16],[43.39,16.23],[43.11,16.42],[42.81,16.42],[42.81,16.36],[42.69,15.52],[42.77,15.52],[42.82,15.07],[42.89,15.07],[44.29,15.14],[45.02,15.14],[45.18,15.26],[45.85,15.39],[45.86,15.52],[46.15,15.52],[46.38,15.71],[46.47,15.97],[46.4,15.97],[46.18,15.97],[46.02,15.84],[45.58,15.84],[45.37,15.97],[45.29,15.91],[45.21,15.91]]]}},{"type":"Feature","properties":{"NAME":"Han Dynasty","C":9,"name":"Han Dynasty","start_year":-110,"end_year":-92,"capital":"","type":"polity","region":"","event":"","source":"Cliopatria / Seshat Global History Databank (CC BY 4.0)","wikipedia":"Han dynasty","wikidata":"Q1068371","_a":858,"_c":[107.67,29.42],"_nz":"汉","_sz":""},"geometry":{"type":"MultiPolygon","coordinates":[[[[109.86,18.35],[109.84,18.22],[109.25,18.22],[109.12,18.35],[108.76,18.41],[108.64,18.54],[108.7,19.38],[109.2,19.7],[109.25,19.96],[110.16,20.09],[110.59,20.02],[110.61,20.15],[110.91,20.15],[111.09,19.89],[111.03,19.57],[110.88,19.57],[110.85,19.38],[110.68,19.25],[110.51,18.67],[110.19,18.54],[110.18,18.48],[109.86,18.35]]],[[[106.08,23.56],[106.09,23.62],[106.17,23.62],[106.16,23.56],[106.08,23.56]]],[[[124.41,40.29],[123.8,39.77],[123.72,39.77],[123.6,39.84],[122.94,39.64],[122.17,39.26],[121.95,39],[121.72,39],[121.42,38.74],[121.03,38.74],[121.2,39.06],[121.52,39.06],[121.69,39.38],[121.3,39.38],[121.21,39.51],[121.28,39.64],[121.44,39.64],[121.5,39.9],[121.78,39.97],[122.23,40.48],[122.11,40.68],[121.83,40.74],[121.82,40.87],[121.11,40.87],[121,40.68],[120.65,40.48],[120.5,40.23],[119.38,39.77],[119.22,39.32],[118.45,39.06],[118.06,39.06],[118.05,39.19],[117.89,39.19],[117.58,38.74],[117.65,38.74],[117.6,38.48],[118.05,38.29],[118.07,38.16],[118.58,38.09],[118.65,38.22],[118.8,38.22],[118.77,38.16],[119.46,37.96],[119.39,37.84],[119.24,37.84],[118.98,37.32],[119.14,37.32],[119.16,37.19],[119.7,37.19],[119.83,37.45],[120.2,37.58],[120.19,37.71],[120.75,37.9],[121.11,37.84],[121.17,37.64],[121.48,37.64],[121.5,37.51],[122.15,37.58],[122.12,37.51],[122.71,37.45],[122.47,37.13],[122.57,37],[122.39,36.8],[121.91,36.93],[121.21,36.61],[120.98,36.61],[120.96,36.42],[120.73,36.42],[120.66,36.1],[120.32,36.03],[119.99,35.64],[119.62,35.52],[119.23,34.81],[119.46,34.81],[119.43,34.74],[119.71,34.68],[119.73,34.55],[120.34,34.36],[120.49,34.16],[120.55,33.59],[120.93,33.2],[120.92,32.62],[121.4,32.49],[121.5,32.17],[121.78,32.11],[121.99,31.85],[121.84,31.66],[121.3,31.85],[120.89,31.79],[121.45,31.66],[121.48,31.53],[121.63,31.53],[121.58,31.4],[121.74,31.4],[122,31.08],[121.9,30.82],[121.52,30.82],[121.2,30.56],[121.05,30.56],[120.68,30.18],[120.81,30.12],[121.1,30.31],[121.48,30.31],[121.62,30.05],[122.03,29.92],[121.86,29.67],[122.02,29.67],[121.93,29.41],[122,29.41],[121.94,29.22],[121.71,29.22],[121.8,29.47],[121.59,29.54],[121.54,29.15],[121.74,29.09],[121.71,28.77],[121.52,28.64],[121.65,28.57],[121.65,28.32],[121.15,28.19],[121.19,28.32],[121.12,28.32],[121.04,28.06],[120.87,27.99],[120.71,27.74],[120.66,27.54],[120.73,27.54],[120.55,27.16],[120.39,27.16],[120.25,26.9],[120.1,26.9],[120.06,26.77],[120.21,26.77],[120.16,26.58],[119.84,26.52],[119.94,26.32],[119.59,26.13],[119.78,26],[119.53,25.62],[119.9,25.62],[119.87,25.49],[119.47,25.36],[119.42,25.49],[119.27,25.49],[119.39,25.36],[119.34,25.16],[119.03,25.1],[119.07,24.97],[118.82,24.84],[118.76,24.59],[118.15,24.52],[118.08,24.2],[117.72,23.94],[117.69,23.81],[117.47,23.81],[117.18,23.49],[116.89,23.56],[116.78,23.36],[116.81,23.17],[116.59,23.17],[116.54,22.91],[115.7,22.79],[115.67,22.66],[115.37,22.66],[115.17,22.79],[114.9,22.53],[114.75,22.53],[114.64,22.72],[114.53,22.14],[114.37,22.08],[114,22.08],[114,22.46],[113.79,22.53],[113.75,22.72],[113.6,22.72],[113.7,22.46],[113.64,22.14],[113.42,22.14],[113.32,22.01],[113.11,22.08],[113.07,21.89],[112.77,21.89],[112.44,21.69],[111.86,21.76],[111.66,21.5],[110.98,21.44],[110.74,21.31],[110.72,21.18],[110.42,21.18],[110.48,21.11],[110.36,20.86],[110.62,20.6],[110.49,20.28],[109.88,20.21],[109.93,20.47],[109.79,20.54],[109.77,20.86],[109.7,20.86],[109.87,21.44],[109.81,21.5],[109.12,21.37],[109.09,21.63],[108.65,21.69],[108.56,21.56],[107.79,21.44],[107.42,20.99],[106.96,20.92],[106.83,20.6],[106.69,20.6],[106.54,20.15],[105.97,19.83],[105.73,18.86],[106.05,18.54],[106.03,18.41],[106.18,18.41],[106.29,18.22],[106.57,18.09],[106.57,17.64],[106.77,17.51],[106.75,17.39],[107.03,17.26],[106.61,16.94],[106.4,17],[106.42,17.13],[105.14,18.41],[105.19,18.67],[105.04,18.67],[105.14,18.86],[105.02,18.99],[105.01,19.44],[104.94,19.44],[104.99,19.76],[104.86,19.89],[104.98,20.15],[104.44,20.47],[104.62,20.66],[104.91,20.6],[104.87,20.86],[105.1,20.86],[104.85,21.18],[104.98,21.5],[104.93,21.63],[105.1,21.76],[105.13,21.95],[104.87,22.21],[105.24,22.59],[105.27,22.79],[105.76,23.04],[106.16,23.56],[106.47,23.62],[107.15,24.07],[109.38,24.39],[111.01,24.33],[111.36,24.91],[111.61,25.68],[111.55,25.74],[111.82,26.26],[111.97,26.84],[111.89,26.84],[112.06,27.74],[111.94,27.87],[111.96,28.19],[111.73,28.44],[110.8,28.89],[109.86,29.02],[107.65,28.96],[106.73,28.64],[106.03,28.57],[106.07,28.44],[105.13,28.32],[104.07,28.57],[103.9,28.51],[103.86,28.64],[102.72,28.89],[102.6,29.02],[101.96,29.15],[101.16,29.54],[100.98,29.73],[101.02,29.86],[100.83,29.99],[100.86,30.12],[100.67,30.24],[100.67,30.5],[100.6,30.5],[100.69,30.82],[101.33,31.66],[101.84,32.04],[102.16,32.56],[102.31,33.46],[102.24,33.46],[102.33,33.71],[102.25,33.71],[102.41,34.16],[103.48,34.36],[103.74,35.45],[103.63,35.58],[103.65,36.22],[103.47,36.35],[103.44,36.67],[103.31,36.74],[103.36,36.87],[103.08,37.13],[102.61,37.13],[102.59,37.25],[102.17,37.38],[102.17,37.58],[102.04,37.64],[102.1,37.77],[101.76,37.51],[101.6,37.71],[101.31,37.77],[101.29,37.9],[100.8,38.03],[100.8,38.22],[100.64,38.22],[100.41,38.61],[100.2,38.29],[99.86,38.42],[99.38,39.13],[99.09,39.19],[99.12,39.26],[98.96,39.06],[98.38,39.19],[98.12,38.93],[97.96,38.93],[97.86,39.06],[97.49,39.13],[97.47,39.26],[96.76,39.45],[96.68,39.26],[96.76,39.26],[96.68,39.06],[96.76,39.06],[96.68,38.87],[96.76,38.87],[96.65,38.61],[96.41,38.61],[96.31,38.74],[95.68,38.93],[95.32,39.38],[94.98,39.32],[94.51,39.51],[93.95,39.51],[93.09,39.32],[92.25,39.38],[91.12,39.13],[90.6,39.19],[90.49,39.32],[90.54,39.45],[90.57,39.51],[90.88,39.71],[90.91,39.97],[90.83,39.97],[91.15,40.55],[91.87,40.94],[92.48,41.07],[93.3,40.94],[93.27,40.87],[93.72,40.81],[93.69,40.74],[95.23,41],[96.93,41.07],[96.9,41],[97.63,40.87],[97.6,40.81],[97.89,40.74],[97.91,40.61],[98.27,40.55],[98.5,40.36],[99.62,40.03],[99.7,40.03],[100.12,40.1],[100.09,40.03],[100.54,39.97],[100.69,39.77],[101.21,39.71],[101.24,39.26],[101.59,39.32],[101.71,39.06],[102.07,39],[102.04,38.93],[102.67,38.93],[103.35,39.38],[103.74,39.38],[103.71,39.32],[104.08,39.26],[103.61,38.74],[104.32,38.93],[104.26,38.8],[104.42,38.8],[104.39,38.74],[105.51,38.61],[106.09,38.67],[107.2,39.71],[107.41,39.64],[107.39,39.45],[107.68,39.38],[108.2,39.97],[109.74,40.36],[114.6,40.42],[114.53,40.29],[114.8,40.36],[114.76,40.29],[115.28,40.23],[115.55,39.84],[116.1,39.84],[117.03,40.1],[117.29,40.29],[118.24,40.42],[118.7,40.55],[118.78,40.68],[119.17,40.68],[122.93,41.91],[123.17,41.91],[123.13,41.85],[123.41,41.78],[123.37,41.72],[123.6,41.72],[123.56,41.65],[123.84,41.59],[123.8,41.52],[124.04,41.52],[124,41.46],[124.76,41.13],[124.84,41.13],[124.41,40.29]]],[[[122.28,29.99],[121.98,29.99],[122.02,30.12],[122.05,30.18],[122.27,30.18],[122.28,29.99]]],[[[103.27,39.38],[103.24,39.32],[103.16,39.32],[103.19,39.38],[103.22,39.45],[103.3,39.45],[103.27,39.38]]]]}},{"type":"Feature","properties":{"NAME":"Kingdom of Cappadocia","C":9,"name":"Kingdom of Cappadocia","start_year":-110,"end_year":-92,"capital":"","type":"polity","region":"","event":"","source":"Cliopatria / Seshat Global History Databank (CC BY 4.0)","wikipedia":"Kingdom of Cappadocia","wikidata":"Q29654286","_a":19,"_c":[35.98,38.28],"_nz":"卡帕多西亚王国","_sz":""},"geometry":{"type":"Polygon","coordinates":[[[39.18,38.16],[38.87,38.16],[38.66,38.35],[38.42,38.35],[38.31,38.09],[38.15,38.03],[37.76,38.09],[37.13,38.03],[37.11,37.9],[36.35,38.03],[36,37.71],[35.67,37.58],[35.05,37.64],[34.88,37.45],[34.56,37.45],[34.3,37.19],[33.43,37.06],[33.1,36.8],[32.86,36.8],[32.8,36.93],[32.76,37.32],[33.1,37.58],[33.13,37.9],[33.3,38.09],[33.27,38.48],[33.68,38.67],[34.48,38.8],[34.77,39.26],[34.73,39.58],[34.83,39.77],[35.29,39.71],[35.44,39.58],[36.93,39.58],[38.17,39.38],[38.23,39.26],[38.53,39.19],[38.36,39.06],[38.64,38.8],[38.62,38.67],[38.93,38.61],[38.98,38.42],[39.2,38.29],[39.18,38.16]]]}},{"type":"Feature","properties":{"NAME":"Kingdom of Armenia","C":5,"name":"Kingdom of Armenia","start_year":-110,"end_year":-92,"capital":"","type":"polity","region":"","event":"","source":"Cliopatria / Seshat Global History Databank (CC BY 4.0)","wikipedia":"Kingdom of Armenia (antiquity)","wikidata":"Q208404","_a":24,"_c":[41.81,39.68],"_nz":"亚美尼亚王国","_sz":""},"geometry":{"type":"Polygon","coordinates":[[[38.74,39.58],[38.93,39.77],[38.79,39.9],[40.4,40.1],[40.51,40.29],[40.75,40.36],[40.77,40.48],[40.57,40.68],[41.01,40.94],[40.99,40.87],[41.12,40.68],[41.36,40.68],[41.53,41.26],[42.25,41.26],[42.36,41.46],[42.29,41.52],[42.53,41.52],[42.56,41.65],[43.78,41.39],[44.03,41.46],[44.24,41.26],[44.79,41.26],[44.87,41.26],[44.85,40.68],[44.52,40.61],[44.64,40.42],[44.5,40.03],[44.5,39.58],[44.4,39.45],[44.07,39.38],[44.11,39.13],[44.36,38.74],[44.32,38.48],[43.95,38.16],[43.93,38.03],[44.01,38.03],[43.89,37.71],[42.8,37.77],[41.67,38.03],[40.57,38.03],[40.6,38.22],[40.52,38.22],[40.51,38.74],[40.66,39.19],[40.51,39.26],[40.48,39.58],[39.85,39.58],[39.75,39.45],[39.21,39.51],[38.95,39.38],[38.74,39.58]]]}},{"type":"Feature","properties":{"NAME":"Parthian Empire","C":7,"name":"Parthian Empire","start_year":-110,"end_year":-92,"capital":"","type":"polity","region":"","event":"","source":"Cliopatria / Seshat Global History Databank (CC BY 4.0)","wikipedia":"Parthian Empire","wikidata":"Q1986139","_a":441,"_c":[49.61,32.12],"_nz":"帕提亚帝国","_sz":""},"geometry":{"type":"MultiPolygon","coordinates":[[[[51.14,25.49],[51.21,25.49],[51.21,25.42],[51.13,25.42],[51.14,25.49]]],[[[50.43,25.94],[50.46,26.26],[50.69,26.26],[50.67,26.13],[50.67,26.07],[50.65,25.87],[50.43,25.94]]],[[[47.52,39.71],[48.3,39.71],[48.67,39.58],[48.81,39.45],[48.78,39.32],[48.93,39.26],[48.74,38.67],[48.82,38.67],[48.76,38.35],[48.84,38.35],[48.88,37.71],[49.09,37.51],[50,37.38],[50.32,37],[50.57,37.06],[50.63,37],[50.53,36.87],[50.82,36.74],[51.64,36.55],[52.59,36.61],[53.49,36.87],[54.03,36.87],[54.09,37.19],[53.91,37.45],[53.91,37.84],[53.83,37.84],[53.99,39],[53.52,39.38],[53.14,39.45],[53.54,39.51],[53.5,40.03],[52.72,40.1],[52.71,40.42],[52.79,40.42],[52.89,40.87],[52.97,40.87],[52.94,40.74],[53.34,40.74],[53.45,40.87],[53.4,40.68],[54.54,40.81],[56.65,40.36],[56.99,40.42],[56.96,40.29],[57.11,40.29],[57.16,40.16],[57.35,40.29],[58.33,40.42],[58.54,40.29],[58.85,40.29],[58.98,40.16],[59.77,40.16],[59.77,39.84],[60.08,39.84],[60.05,39.71],[60.68,39.71],[60.65,39.58],[60.73,39.58],[60.71,39.51],[60.41,39.26],[60.32,38.87],[60.43,38.67],[60.37,38.42],[60.56,38.22],[60.53,38.09],[60.74,37.96],[60.66,37.64],[60.8,37.58],[60.78,37.45],[60.97,37.25],[60.89,37.25],[60.87,37.19],[60.95,37.19],[61.54,36.67],[61.5,36.16],[61.58,36.16],[61.48,35.71],[61.32,35.64],[61.19,35.39],[61.05,34.74],[60.78,34.55],[60.82,34.36],[60.57,34.23],[60.49,33.84],[60.57,33.84],[60.6,33.59],[60.89,33.52],[60.69,33.26],[60.62,32.88],[60.69,32.88],[60.66,32.69],[60.88,32.24],[60.84,31.59],[61.05,31.46],[61.03,31.34],[60.63,31.21],[59.69,30.63],[59.67,30.5],[59.81,30.44],[59.75,30.05],[59.83,30.05],[59.76,28.57],[59.9,28.51],[59.88,28.38],[59.72,28.25],[59.41,28.25],[59.05,27.8],[58.91,27.29],[57.77,26.58],[57.45,25.74],[57.38,25.74],[57.11,26.07],[57.05,26.84],[56.71,27.16],[56.19,27.16],[56.1,27.03],[56.32,27.03],[56.31,26.9],[56.06,26.71],[55.29,26.52],[55.31,26.71],[55.54,26.77],[55.24,26.77],[54.99,26.52],[54.68,26.45],[54.26,26.71],[53.66,26.71],[53.46,26.97],[52.74,27.22],[52.48,27.61],[52.05,27.8],[51.45,27.87],[51.07,28.44],[51.03,28.77],[50.81,28.83],[50.92,29.09],[50.62,29.15],[50.65,29.41],[50.24,29.73],[50.06,30.18],[49.59,29.99],[48.94,30.31],[48.99,30.05],[48.37,29.92],[48.4,29.6],[47.87,29.54],[47.85,29.41],[48.08,29.41],[48.22,29.28],[48.19,29.09],[48.46,28.77],[48.56,28.32],[48.97,27.93],[48.87,27.67],[49.24,27.61],[49.36,27.29],[50.13,26.77],[50.12,26.58],[50.25,26.45],[50.22,26.13],[50.07,26.07],[50.21,26],[50.33,25.62],[50.61,25.42],[50.65,25.1],[50.73,25.1],[50.77,25.55],[50.92,25.62],[50.95,25.94],[51.12,26.13],[51.42,26.13],[51.7,25.87],[51.57,25.36],[51.72,25.29],[51.69,24.97],[51.52,24.78],[51.41,24.33],[51.85,24.26],[51.91,24.01],[52.28,24.01],[52.6,24.26],[53.11,24.14],[54.08,24.14],[54.1,24.33],[54.32,24.26],[54.56,24.46],[54.74,24.84],[55.14,25.1],[55.41,25.55],[55.97,25.87],[56.17,26.32],[56.48,26.39],[56.54,26.32],[56.39,25.55],[56.46,25.55],[56.42,25.16],[56.5,25.16],[56.4,24.97],[56.54,24.91],[56.79,24.33],[57.49,23.88],[58.81,23.62],[59.08,23.3],[59.07,23.17],[59.28,23.04],[59.27,22.91],[58.9,22.91],[58.91,23.04],[58.61,23.04],[58.33,23.3],[57.96,23.3],[57.97,23.43],[57.83,23.49],[56.81,23.75],[56.82,23.88],[56.54,24.07],[56.49,24.33],[56.27,24.39],[56.29,24.59],[56.09,24.84],[55.86,24.78],[55.84,24.59],[55.62,24.65],[54.81,23.94],[54.27,23.75],[51.88,23.69],[51.82,23.88],[51.17,24.07],[51.1,24.2],[51.2,24.52],[51.13,24.59],[51.29,24.71],[51.33,25.1],[51.4,25.1],[51.27,25.29],[51.35,25.36],[51.32,25.87],[51.17,25.87],[51.23,25.68],[50.98,25.42],[50.96,25.23],[51.12,25.29],[50.92,24.71],[50.62,24.65],[50.34,24.97],[50.03,25.68],[49.67,25.87],[49.88,26.45],[49.25,26.97],[49.27,27.09],[49.06,27.29],[48.55,27.48],[48.47,28.12],[48.25,28.19],[48.21,28.51],[48.06,28.51],[48.14,28.64],[48,28.7],[48.01,28.83],[47.81,29.02],[47.65,28.96],[47.67,29.15],[47.53,29.28],[47.65,29.67],[47.29,29.79],[46.98,29.73],[46.99,29.86],[46.85,29.92],[46.62,29.86],[46.59,30.31],[45.77,30.44],[44.95,31.27],[44.58,31.34],[44.46,31.59],[43.15,32.81],[42.71,32.94],[42.58,33.14],[41.49,33.65],[41.21,33.91],[40.91,33.97],[40.85,34.1],[40.31,34.1],[40.4,34.23],[39.51,34.49],[39.12,34.49],[38.56,34.23],[38.48,34.23],[38.33,34.29],[38.08,34.81],[38.27,35.77],[38.07,36.1],[38.21,36.61],[38.13,36.61],[38.16,36.87],[38.18,37],[37.96,37.13],[37.99,37.38],[37.64,37.71],[37.76,38.09],[38.15,38.03],[38.31,38.09],[38.42,38.35],[38.66,38.35],[38.87,38.16],[39.18,38.16],[39.2,38.29],[39.28,38.29],[39.28,38.35],[39.36,38.35],[39.37,38.42],[39.38,38.48],[40.52,38.22],[40.6,38.22],[40.57,38.03],[41.67,38.03],[42.8,37.77],[43.89,37.71],[44.01,38.03],[43.93,38.03],[43.95,38.16],[44.32,38.48],[44.36,38.74],[44.11,39.13],[44.07,39.38],[44.4,39.45],[44.5,39.58],[44.5,40.03],[44.64,40.42],[44.52,40.61],[44.85,40.68],[44.87,41.26],[44.89,41.33],[45.12,41.33],[45.26,41.2],[45.23,41.07],[45.47,41.07],[45.67,40.87],[45.49,40.74],[45.52,40.48],[46.2,40.29],[46.48,40.1],[46.47,40.03],[47.05,39.77],[47.38,39.84],[47.52,39.71]]],[[[47.16,39.9],[47.14,39.84],[47.07,39.84],[47.08,39.9],[47.16,39.9]]],[[[47.01,39.97],[47,39.9],[46.92,39.9],[46.93,39.97],[47.01,39.97]]]]}},{"type":"Feature","properties":{"NAME":"Ptolemaic Kingdom","C":9,"name":"Ptolemaic Kingdom","start_year":-110,"end_year":-32,"capital":"","type":"polity","region":"","event":"","source":"Cliopatria / Seshat Global History Databank (CC BY 4.0)","wikipedia":"Ptolemaic Kingdom","wikidata":"Q2320005","_a":138,"_c":[30.29,29.54],"_nz":"托勒密王国","_sz":""},"geometry":{"type":"MultiPolygon","coordinates":[[[[29.88,31.27],[30.34,31.27],[30.27,31.4],[30.35,31.46],[30.81,31.46],[30.97,31.53],[30.97,31.66],[31.2,31.66],[31.12,31.53],[31.27,31.46],[31.88,31.46],[31.78,31.21],[31.94,31.27],[32,31.08],[32.3,31.08],[32.24,31.21],[32.39,31.21],[32.53,31.08],[32.77,31.14],[32.83,31.01],[33.37,31.08],[33.45,31.08],[33.33,30.56],[33.07,30.18],[32.6,29.92],[32.53,29.92],[32.43,29.6],[32.64,29.34],[32.69,28.96],[32.84,28.89],[33.11,28.38],[33.61,27.99],[33.59,27.61],[33.8,27.42],[33.93,27.03],[34.07,26.97],[34.05,26.58],[34.2,26.52],[34.46,25.87],[34.61,25.81],[35.15,24.65],[35.86,24.01],[35.85,23.88],[35.56,23.94],[35.55,23.81],[35.11,23.88],[33.76,23.69],[33.68,23.69],[33.39,23.81],[32.04,23.69],[31.67,23.75],[30.54,23.36],[30.46,23.36],[30.4,23.56],[30.1,23.75],[30.11,23.88],[29.96,23.88],[29.67,24.2],[28.57,24.65],[28.29,25.16],[28.24,25.94],[28.35,26.58],[28.27,26.58],[28.15,27.35],[27.94,27.54],[27.71,27.54],[27.79,27.67],[27.43,27.99],[27.28,27.93],[27.29,28.12],[27.14,28.25],[25.59,28.96],[25.37,29.28],[24.85,29.41],[24.85,29.47],[24.86,29.73],[24.72,29.92],[24.74,30.44],[24.98,30.69],[24.86,31.4],[25.1,31.59],[25.18,31.59],[25.25,31.46],[26.85,31.46],[27.3,31.34],[27.51,31.14],[28.5,31.01],[28.87,30.82],[29.4,30.82],[29.49,31.01],[29.79,31.01],[29.88,31.21],[29.88,31.27]]],[[[34.39,35.71],[34.54,35.71],[34.53,35.58],[33.96,35.26],[34.09,35],[33.7,34.94],[33.52,34.74],[33.13,34.68],[33.04,34.55],[32.37,34.74],[32.23,34.94],[32.25,35.13],[32.55,35.13],[32.88,35.26],[32.89,35.39],[33.74,35.39],[34.31,35.71],[34.39,35.71]]]]}},{"type":"Feature","properties":{"NAME":"Qataban","C":10,"name":"Qataban","start_year":-110,"end_year":-67,"capital":"","type":"polity","region":"","event":"","source":"Cliopatria / Seshat Global History Databank (CC BY 4.0)","wikipedia":"Qataban","wikidata":"Q748595","_a":2,"_c":[45.44,15.11],"_nz":"盖特班","_sz":""},"geometry":{"type":"Polygon","coordinates":[[[45.08,14.81],[45.6,14.81],[45.6,14.88],[46.34,15.01],[46.58,15.26],[46.58,15.33],[46.15,15.52],[45.86,15.52],[45.85,15.39],[45.18,15.26],[45.02,15.14],[44.29,15.14],[44.42,14.75],[44.93,14.69],[45.01,14.81],[45.08,14.81]]]}},{"type":"Feature","properties":{"NAME":"Yuezhi","C":2,"name":"Yuezhi","start_year":-110,"end_year":-92,"capital":"","type":"polity","region":"","event":"","source":"Cliopatria / Seshat Global History Databank (CC BY 4.0)","wikipedia":"Yuezhi","wikidata":"Q467985","_a":72,"_c":[69.39,37.78],"_nz":"月氏","_sz":""},"geometry":{"type":"Polygon","coordinates":[[[73.68,40.42],[73.86,40.23],[73.87,40.03],[74.03,40.03],[73.87,39.77],[73.95,39.77],[73.87,39.51],[73.69,39.45],[73.63,39.26],[73.75,39.13],[73.49,38.55],[72.66,37.84],[72.4,37.45],[71.83,37.06],[71.66,36.74],[71.25,36.35],[71.24,36.03],[71.67,35.58],[71.6,35],[71.94,34.81],[71.49,34.23],[71.48,34.16],[70.96,34.23],[70.77,34.1],[70.82,33.97],[70.57,33.91],[69.99,34.04],[69.74,34.29],[66.81,34.29],[66.69,34.42],[66.04,34.61],[66.07,34.74],[65.93,34.81],[65.62,34.81],[65.41,34.94],[65.09,34.87],[64.85,35.19],[64.83,35.77],[64.75,35.77],[65.14,38.67],[65.16,38.74],[65.08,38.74],[65.14,39],[65.07,39],[65.28,39.51],[65.2,39.51],[65.29,39.84],[65.56,39.97],[65.88,40.81],[65.96,40.81],[66.65,41.26],[66.89,41.26],[67.01,41.39],[67.81,41.65],[68.82,41.33],[68.9,41.33],[68.86,40.94],[69.33,40.42],[69.27,40.23],[69,40.1],[68.96,39.97],[69.33,39.9],[69.59,39.71],[70.56,39.77],[70.75,39.9],[70.81,40.1],[70.95,40.03],[70.91,39.9],[71.07,39.9],[71.21,40.1],[71.96,40.23],[73.02,40.81],[73.1,40.81],[73.14,40.68],[73.68,40.42]]]}},{"type":"Feature","properties":{"NAME":"Kingdom of Pontus","C":11,"name":"Kingdom of Pontus","start_year":-110,"end_year":-92,"capital":"","type":"polity","region":"","event":"","source":"Cliopatria / Seshat Global History Databank (CC BY 4.0)","wikipedia":"Kingdom of Pontus","wikidata":"Q7380487","_a":59,"_c":[35.75,39.42],"_nz":"本都王国","_sz":""},"geometry":{"type":"Polygon","coordinates":[[[37.92,41],[37.44,41],[37.21,41.07],[37.23,41.2],[37.07,41.13],[36.77,41.33],[36.21,41.26],[35.95,41.72],[35.16,41.72],[35.12,42.04],[34.88,42.04],[34.78,41.91],[32.63,41.91],[32.69,41.78],[32.19,41.59],[32.11,41.59],[32.32,41.33],[32.31,41.2],[32.14,41.13],[32.1,40.81],[32.18,40.81],[32.16,40.61],[32.31,40.55],[32.3,40.42],[32.11,40.16],[31.71,40.1],[31.7,40.03],[31.62,40.03],[31.54,40.03],[31.46,40.03],[31.39,40.03],[31.31,40.03],[31.3,39.97],[31.38,39.97],[31.23,39.32],[31.44,39.06],[31.39,38.48],[30.99,38.42],[30.89,38.22],[30.25,38.03],[30.15,37.84],[30.53,37.71],[30.75,37.51],[30.74,37.38],[31.05,37.38],[31.22,37.51],[31.52,37.45],[31.6,37.45],[31.59,37.38],[31.97,37.25],[32.24,36.8],[32.55,36.8],[32.8,36.93],[32.76,37.32],[33.1,37.58],[33.13,37.9],[33.3,38.09],[33.27,38.48],[33.68,38.67],[34.48,38.8],[34.77,39.26],[34.73,39.58],[34.83,39.77],[35.29,39.71],[35.44,39.58],[36.93,39.58],[38.17,39.38],[38.23,39.26],[38.53,39.19],[38.36,39.06],[38.64,38.8],[38.62,38.67],[38.93,38.61],[38.98,38.42],[39.2,38.29],[39.28,38.29],[39.28,38.35],[39.36,38.35],[39.37,38.42],[39.38,38.48],[39.23,38.55],[39.25,38.67],[39.11,38.8],[38.81,38.93],[38.95,39.38],[38.74,39.58],[38.93,39.77],[38.79,39.9],[40.4,40.1],[40.51,40.29],[40.75,40.36],[40.77,40.48],[40.57,40.68],[41.01,40.94],[41.08,40.94],[41.35,41.13],[41.24,41.39],[41.05,41.2],[40.54,41],[40.39,41.07],[40.37,40.94],[39.74,40.94],[39.21,41.13],[38.54,40.87],[38,41],[37.92,41]]]}},{"type":"Feature","properties":{"NAME":"Indo-Scythians","C":9,"name":"Indo-Scythians","start_year":-110,"end_year":-92,"capital":"","type":"polity","region":"","event":"","source":"Cliopatria / Seshat Global History Databank (CC BY 4.0)","wikipedia":"Indo-Scythians","wikidata":"Q240123","_a":213,"_c":[64.19,32.92],"_nz":"印度-斯基泰人","_sz":""},"geometry":{"type":"Polygon","coordinates":[[[65.14,38.67],[64.75,35.77],[64.83,35.77],[64.85,35.19],[65.09,34.87],[65.41,34.94],[65.62,34.81],[65.93,34.81],[66.07,34.74],[66.04,34.61],[66.69,34.42],[66.81,34.29],[69.74,34.29],[69.99,34.04],[70.57,33.91],[70.82,33.97],[70.93,33.78],[70.87,33.52],[70.62,33.46],[70.58,33.26],[70.4,33.14],[70.43,32.94],[70.23,32.75],[69.44,32.62],[68.35,31.79],[68.12,31.79],[67.93,31.59],[66.88,31.27],[66.6,31.01],[66.53,31.01],[66.35,30.5],[66.18,30.37],[66.05,30.05],[65.62,29.79],[65.43,29.54],[65.19,29.47],[64.17,28.32],[64.15,28.12],[63.59,27.42],[63.36,26.84],[63.2,26.77],[62.47,25.1],[62.18,25.16],[62.02,25.04],[61.72,25.04],[61.66,25.16],[61.13,25.1],[60.92,25.23],[60.62,25.23],[60.63,25.36],[59.06,25.36],[58.78,25.55],[57.96,25.55],[57.53,25.74],[57.45,25.74],[57.77,26.58],[58.91,27.29],[59.05,27.8],[59.41,28.25],[59.72,28.25],[59.88,28.38],[59.9,28.51],[59.76,28.57],[59.83,30.05],[59.75,30.05],[59.81,30.44],[59.67,30.5],[59.69,30.63],[60.63,31.21],[61.03,31.34],[61.05,31.46],[60.84,31.59],[60.88,32.24],[60.66,32.69],[60.69,32.88],[60.62,32.88],[60.69,33.26],[60.89,33.52],[60.6,33.59],[60.57,33.84],[60.49,33.84],[60.57,34.23],[60.82,34.36],[60.78,34.55],[61.05,34.74],[61.19,35.39],[61.32,35.64],[61.48,35.71],[61.58,36.16],[61.5,36.16],[61.54,36.67],[60.95,37.19],[60.97,37.25],[60.78,37.45],[60.8,37.58],[60.66,37.64],[60.74,37.96],[60.53,38.09],[60.56,38.22],[60.37,38.42],[60.43,38.67],[60.32,38.87],[60.41,39.26],[60.71,39.51],[60.79,39.51],[62.5,40.03],[62.88,39.97],[64.02,40.1],[64.39,40.29],[65.24,40.48],[65.27,40.61],[65.35,40.61],[65.37,40.68],[65.45,40.68],[65.43,40.61],[65.59,40.61],[65.8,40.81],[65.88,40.81],[65.56,39.97],[65.29,39.84],[65.2,39.51],[65.28,39.51],[65.07,39],[65.14,39],[65.08,38.74],[65.16,38.74],[65.14,38.67]]]}},{"type":"Feature","properties":{"NAME":"Gojoseon","C":10,"name":"Gojoseon","start_year":-110,"end_year":-92,"capital":"","type":"polity","region":"","event":"","source":"Cliopatria / Seshat Global History Databank (CC BY 4.0)","wikipedia":"Gojoseon","wikidata":"Q28405","_a":16,"_c":[125.93,39.52],"_nz":"古朝鲜","_sz":""},"geometry":{"type":"Polygon","coordinates":[[[127.38,40.74],[127.3,40.87],[126.86,40.94],[126.9,41],[126.39,41.07],[126.43,41.13],[126.27,41.13],[126.35,41.26],[126.07,41.2],[126.11,41.26],[125.51,41.33],[125.55,41.39],[124.92,41.13],[124.84,41.13],[124.41,40.29],[123.8,39.77],[123.88,39.77],[124.34,39.9],[124.51,39.64],[124.86,39.71],[124.87,39.58],[125.31,39.51],[125.39,39.38],[125.03,38.74],[125.19,38.74],[125.15,38.67],[124.96,38.61],[124.79,38.29],[124.87,38.29],[124.76,38.09],[125.08,38.09],[124.9,37.9],[125.21,37.9],[125.3,37.77],[125.23,37.64],[125.39,37.64],[125.68,37.9],[125.83,37.9],[125.84,37.77],[126.27,37.84],[126.35,37.84],[126.9,38.29],[127.18,38.93],[127.76,39.13],[127.8,39.19],[127.44,39.26],[127.67,39.64],[127.55,39.71],[128.05,40.03],[127.93,40.23],[127.65,40.29],[127.57,40.42],[127.65,40.68],[127.34,40.68],[127.38,40.74]]]}},{"type":"Feature","properties":{"NAME":"Xiongnu","C":6,"name":"Xiongnu","start_year":-110,"end_year":-92,"capital":"","type":"polity","region":"","event":"","source":"Cliopatria / Seshat Global History Databank (CC BY 4.0)","wikipedia":"Xiongnu","wikidata":"Q188836","_a":603,"_c":[94.04,46.57],"_nz":"匈奴","_sz":""},"geometry":{"type":"MultiPolygon","coordinates":[[[[98.84,54.07],[100.48,54.07],[100.43,54],[101.76,53.94],[101.71,53.87],[104.34,53.46],[104.29,53.39],[104.96,53.26],[104.91,53.19],[105.08,53.19],[105.03,53.12],[106.41,52.79],[105.91,52.59],[105.26,52.05],[104.44,51.85],[103.84,51.85],[103.57,51.58],[104.12,51.51],[104.07,51.45],[104.83,51.45],[105.74,51.65],[106.01,51.78],[106.4,52.32],[106.82,52.32],[106.92,52.45],[107.1,52.45],[107.05,52.38],[107.22,52.38],[107.17,52.32],[107.63,52.25],[107.58,52.18],[107.95,52.12],[107.9,52.05],[108.07,52.05],[108.02,51.98],[109.23,51.78],[109.18,51.71],[109.4,51.78],[109.39,51.65],[109.78,51.71],[109.68,51.58],[110.02,51.58],[109.97,51.51],[110.51,51.45],[110.46,51.38],[111.56,51.38],[111.51,51.31],[113.48,51.11],[113.43,51.05],[113.59,51.05],[113.54,50.98],[113.71,50.98],[113.66,50.91],[113.83,50.91],[113.81,50.78],[114.14,50.65],[114.04,50.51],[114.12,50.51],[114.01,50.25],[114.09,50.25],[113.17,49.18],[112,48.32],[111.12,47.99],[108.76,47.53],[108.15,47.2],[108.15,47.07],[107.94,47.01],[107.82,46.81],[107.5,46.68],[105.3,46.15],[104.14,45.69],[104.15,45.56],[103.8,45.24],[103.29,45.04],[103.06,44.78],[102.97,44.32],[103.06,44.19],[102.96,43.99],[103.04,43.99],[102.93,43.8],[103.02,43.67],[102.89,43.41],[102.48,42.95],[101.25,42.11],[100.86,41.65],[100.5,40.74],[99.65,40.1],[99.62,40.03],[98.5,40.36],[98.27,40.55],[97.91,40.61],[97.89,40.74],[97.6,40.81],[97.63,40.87],[96.9,41],[96.93,41.07],[95.23,41],[93.69,40.74],[93.72,40.81],[93.27,40.87],[93.3,40.94],[92.48,41.07],[91.87,40.94],[91.15,40.55],[90.83,39.97],[90.91,39.97],[90.88,39.71],[90.57,39.51],[90.49,39.51],[89.17,39.58],[87.49,39.9],[85.51,39.9],[85.23,39.77],[82.88,39.38],[82.08,39.13],[79.86,39.06],[78.92,39.32],[78.58,39.71],[78.42,39.71],[78.27,39.97],[78.12,39.97],[77.97,40.23],[77.81,40.23],[77.29,41],[77.13,41],[77.37,41.46],[76.82,41.46],[76.86,41.59],[76.62,41.59],[76.62,41.78],[76.8,41.85],[76.16,41.85],[76.13,41.98],[76.28,42.17],[76.14,42.24],[76.16,42.5],[75.81,42.43],[75.7,42.56],[75.88,42.82],[75.63,43.02],[75.25,43.08],[75.14,43.21],[75.19,43.34],[75.11,43.34],[75.2,43.6],[74.79,43.8],[75,44.12],[74.56,44.25],[74.44,44.58],[74.09,44.71],[73.97,44.84],[74.02,44.97],[73.94,44.97],[74.13,45.04],[74.25,45.37],[74.12,45.43],[74.32,45.96],[74.75,46.02],[74.88,46.35],[75.32,46.41],[75.45,46.55],[77.39,46.48],[77.36,46.41],[77.83,46.35],[77.8,46.28],[78.46,46.28],[78.97,46.35],[79.09,46.61],[79.25,46.61],[79.33,46.81],[78.7,46.87],[78.1,46.61],[77.91,46.74],[76.73,46.68],[76.76,46.74],[76.35,46.74],[76.32,46.87],[74.41,46.81],[74.57,47.2],[74.94,47.73],[75.49,48.06],[76.42,48.85],[77.32,49.38],[77.38,49.52],[78.52,49.98],[79.78,50.85],[80.36,50.98],[80.41,51.25],[80.65,51.38],[82.12,51.92],[86.88,53.06],[87.65,53.33],[88.98,53.53],[89.06,53.66],[89.45,53.6],[91.44,53.87],[93.94,53.87],[95.38,54.07],[98.75,54.07],[98.84,54.07]]],[[[109.52,51.71],[109.44,51.71],[109.49,51.78],[109.57,51.78],[109.52,51.71]]]]}},{"type":"Feature","properties":{"NAME":"Great Yuan","C":4,"name":"Great Yuan","start_year":-110,"end_year":-64,"capital":"","type":"polity","region":"","event":"","source":"Cliopatria / Seshat Global History Databank (CC BY 4.0)","wikipedia":"Yuan dynasty","wikidata":"Q7313","_a":8,"_c":[70.95,40.72],"_nz":"大元","_sz":""},"geometry":{"type":"Polygon","coordinates":[[[71.92,41.33],[71.63,41.65],[70.02,41.59],[69.82,41.72],[69.4,41.65],[68.98,41.33],[68.9,41.33],[68.86,40.94],[69.33,40.42],[69.27,40.23],[69,40.1],[68.96,39.97],[69.33,39.9],[69.59,39.71],[70.56,39.77],[70.75,39.9],[70.81,40.1],[70.95,40.03],[70.91,39.9],[71.07,39.9],[71.21,40.1],[71.96,40.23],[73.02,40.81],[73.04,40.87],[72.72,40.87],[72.47,41.07],[72.23,41.07],[72,41.33],[71.92,41.33]]]}},{"type":"Feature","properties":{"NAME":"Seleucid Empire","C":0,"name":"Seleucid Empire","start_year":-110,"end_year":-92,"capital":"","type":"polity","region":"","event":"","source":"Cliopatria / Seshat Global History Databank (CC BY 4.0)","wikipedia":"Seleucid dynasty","wikidata":"Q705904","_a":17,"_c":[36.67,34.71],"_nz":"塞琉古帝国","_sz":""},"geometry":{"type":"Polygon","coordinates":[[[38.48,34.23],[38.33,34.29],[38.08,34.81],[38.27,35.77],[38.07,36.1],[38.21,36.61],[38.13,36.61],[38.16,36.87],[37.6,36.74],[37.52,36.74],[37.2,36.61],[36.16,37.06],[36,37],[35.98,36.87],[36.06,36.87],[36.14,36.93],[36.29,36.8],[36.26,36.61],[35.84,36.29],[35.99,36.22],[35.84,35.58],[35.99,35.52],[35.88,35.19],[35.96,35.19],[35.93,34.87],[36.07,34.74],[36.05,34.55],[35.79,34.29],[35.64,34.36],[35.68,33.97],[35.45,33.91],[35.5,33.65],[35.35,33.65],[35.4,33.39],[35.22,33.07],[35.06,33.01],[35.02,32.62],[34.86,32.56],[34.85,32.36],[34.92,32.36],[35.32,32.49],[35.5,32.81],[35.87,32.75],[35.93,32.49],[36.32,32.62],[36.55,32.62],[36.69,32.49],[36.7,32.56],[36.81,32.94],[36.9,33.07],[37.05,33.07],[37.07,33.26],[37.57,33.65],[37.73,33.65],[37.74,33.78],[37.99,33.97],[38.47,34.16],[38.48,34.23]]]}}]}