{"type":"FeatureCollection", "features": [
{"type":"Feature","geometry":{"type":"Polygon","coordinates":[[[127.55,34.61],[127.76,34.74],[128.07,34.74],[128.08,34.94],[128.31,34.94],[128.33,34.81],[128.68,34.74],[128.88,35],[129.15,35.07],[129.35,35.32],[129.07,35.39],[129.01,35.58],[128.62,35.58],[128.61,35.71],[128.22,35.71],[128.21,35.84],[127.93,35.9],[127.63,35.45],[127.45,35.07],[127.57,35],[127.45,34.74],[127.55,34.61]]]},"properties":{"NAME":"Byeonhan","C":0,"name":"Byeonhan","start_year":-91,"end_year":533,"capital":"无固定都城（弁韩诸部）","type":"polity","region":"korea","event":"","source":"Cliopatria / Seshat Global History Databank (CC BY 4.0)","wikipedia":"Byeonhan confederacy","wikidata":"Q1378584","_a":2,"_c":[128.4,35.25],"_nz":"弁韩","_sz":""}},
{"type":"Feature","geometry":{"type":"Polygon","coordinates":[[[96.83,22.14],[96.86,22.79],[96.78,22.79],[96.87,23.3],[96.59,23.88],[96.17,24.01],[95.29,23.69],[94.66,22.08],[94.72,21.95],[94.55,21.82],[94.41,20.86],[94.65,20.47],[94.61,20.21],[94.84,19.7],[94.73,19.44],[94.89,19.06],[94.85,18.8],[95.09,18.35],[95.68,18.35],[95.84,18.48],[96.19,18.86],[96.42,19.38],[96.4,19.76],[96.58,19.96],[96.48,20.28],[96.71,20.34],[96.62,20.73],[96.79,20.86],[96.89,21.56],[96.82,21.56],[96.95,21.95],[96.83,22.14]]]},"properties":{"NAME":"Pyu City-States","C":4,"name":"Pyu City-States","start_year":84,"end_year":849,"capital":"","type":"polity","region":"","event":"","source":"Cliopatria / Seshat Global History Databank (CC BY 4.0)","wikipedia":"Pyu city-states","wikidata":"Q1627675","_a":14,"_c":[95.68,21.18],"_nz":"骠国城邦","_sz":""}},
{"type":"Feature","geometry":{"type":"Polygon","coordinates":[[[-98.87,19.19],[-98.51,18.86],[-98.29,18.86],[-98.2,19.19],[-98.05,19.19],[-98.02,19.38],[-98.42,19.57],[-98.44,19.7],[-98.74,19.7],[-98.88,19.64],[-98.84,19.44],[-98.99,19.44],[-98.87,19.19]]]},"properties":{"NAME":"Teotihuacan","C":3,"name":"Teotihuacan","start_year":106,"end_year":655,"capital":"","type":"polity","region":"","event":"","source":"Cliopatria / Seshat Global History Databank (CC BY 4.0)","wikipedia":"Teotihuacan","wikidata":"Q172613","_a":1,"_c":[-98.5,19.28],"_nz":"特奥蒂瓦坎","_sz":""}},
{"type":"Feature","geometry":{"type":"Polygon","coordinates":[[[108.24,13.34],[108.35,13.08],[108.25,12.18],[108.1,12.12],[108.08,11.92],[108.14,11.79],[108.5,11.73],[108.62,11.54],[109.05,11.47],[109.21,11.6],[109.23,12.37],[109.32,12.56],[109.47,12.56],[109.51,12.95],[109.33,13.27],[109.35,14.04],[109.18,14.36],[109.16,14.75],[108.97,15.01],[109.02,15.33],[108.68,15.52],[108.7,15.65],[108.37,15.91],[108.33,16.16],[108.14,16.36],[107.84,16.36],[107.72,16.49],[107.67,16.68],[107.48,16.87],[107.33,16.87],[107.29,17.06],[107.03,17.26],[106.95,17.26],[106.53,16.94],[106.52,16.87],[106.75,16.42],[106.97,16.42],[107.02,16.23],[107.5,16.04],[107.25,15.84],[107.22,15.65],[107.63,15.39],[107.67,15.14],[107.9,15.2],[107.88,15.07],[108.02,15.01],[107.99,14.81],[108.11,14.62],[108.05,14.17],[108.28,13.66],[108.24,13.34]]]},"properties":{"NAME":"Chámpa","C":6,"name":"Chámpa","start_year":207,"end_year":545,"capital":"","type":"polity","region":"","event":"","source":"Cliopatria / Seshat Global History Databank (CC BY 4.0)","wikipedia":"Champa","wikidata":"Q216786","_a":17,"_c":[108.02,14.37],"_nz":"占婆","_sz":""}},
{"type":"Feature","geometry":{"type":"Polygon","coordinates":[[[-95.59,17.32],[-95.66,17.32],[-95.99,17.51],[-96.28,17.51],[-96.61,17.71],[-96.91,17.71],[-97.54,17.96],[-98.06,17.96],[-98.25,17.77],[-98.23,17.64],[-98.02,17.32],[-98.03,16.94],[-97.9,17],[-97.77,16.68],[-98.04,16.55],[-98.05,16.1],[-97.72,15.91],[-97.05,15.84],[-96.73,15.65],[-96.21,15.65],[-94.95,16.1],[-94.85,16.36],[-94.63,16.42],[-94.38,16.68],[-94.6,17.13],[-95.07,17.32],[-95.59,17.32]]]},"properties":{"NAME":"Zapotec Civilization","C":5,"name":"Zapotec Civilization","start_year":207,"end_year":509,"capital":"","type":"polity","region":"","event":"","source":"Cliopatria / Seshat Global History Databank (CC BY 4.0)","wikipedia":"Zapotec civilization","wikidata":"Q844750","_a":9,"_c":[-96.31,16.81],"_nz":"萨波特克文明","_sz":""}},
{"type":"Feature","geometry":{"type":"Polygon","coordinates":[[[108.1,12.12],[108.25,12.18],[108.35,13.08],[108.24,13.34],[106.3,13.08],[106.24,13.21],[105.88,13.21],[105.54,13.47],[103.21,13.59],[101.87,14.04],[101.68,13.08],[101.81,12.95],[101.78,12.63],[102.11,12.31],[102.26,12.31],[102.22,11.99],[102.44,11.99],[102.6,12.12],[102.87,11.86],[102.84,11.6],[103.05,11.47],[103.06,10.83],[103.36,10.83],[103.6,11.09],[103.64,10.77],[103.49,10.7],[103.53,10.48],[104.01,9.87],[104.16,10.56],[104.53,10.09],[105.03,9.99],[104.79,9.74],[104.7,8.64],[104.77,8.51],[105.14,8.58],[105.62,9.16],[106.14,9.29],[106.23,9.48],[106.6,9.54],[106.55,9.8],[106.7,9.8],[106.64,9.99],[106.8,10.06],[106.82,10.32],[106.76,10.44],[106.98,10.51],[107.05,10.44],[107.34,10.38],[108.03,10.7],[108.12,10.89],[108.57,11.02],[108.58,11.15],[108.73,11.15],[109.05,11.41],[108.62,11.54],[108.5,11.73],[108.14,11.79],[108.1,12.12]]]},"properties":{"NAME":"Funan","C":0,"name":"Funan","start_year":238,"end_year":545,"capital":"","type":"polity","region":"","event":"","source":"Cliopatria / Seshat Global History Databank (CC BY 4.0)","wikipedia":"Funan","wikidata":"Q867782","_a":41,"_c":[105.37,11.27],"_nz":"扶南","_sz":""}},
{"type":"Feature","geometry":{"type":"Polygon","coordinates":[[[126.78,33.26],[127,33.59],[126.36,33.52],[126.14,33.2],[126.78,33.26]]]},"properties":{"NAME":"Tamna","C":11,"name":"Tamna","start_year":263,"end_year":681,"capital":"无固定城邑","type":"polity","region":"korea","event":"","source":"Cliopatria / Seshat Global History Databank (CC BY 4.0)","wikipedia":"Tamna","wikidata":"Q28057","_a":0,"_c":[126.57,33.4],"_nz":"耽罗","_sz":""}},
{"type":"Feature","geometry":{"type":"Polygon","coordinates":[[[-86.72,20.92],[-86.75,21.5],[-86.92,21.63],[-87.22,21.63],[-87.34,21.5],[-88.48,21.63],[-89.18,21.37],[-89.98,21.31],[-90.17,21.11],[-90.32,21.11],[-90.42,20.41],[-90.49,20.41],[-90.43,20.02],[-90.74,19.7],[-90.81,19.25],[-91.35,18.93],[-91.3,18.61],[-91.45,18.61],[-91.5,18.48],[-91.79,18.48],[-91.84,18.74],[-92.5,18.74],[-92.62,18.54],[-93.49,18.48],[-93.84,18.35],[-93.57,18.03],[-93.57,17.58],[-93.37,17.26],[-93.49,17.13],[-93.4,17],[-93.64,16.68],[-93.59,16.36],[-93.82,15.91],[-92.75,15.14],[-92.47,14.69],[-91.35,13.91],[-90.47,13.91],[-89.92,13.59],[-89.87,13.79],[-89.57,13.72],[-89.59,13.91],[-89.39,14.11],[-89.1,14.11],[-89.19,14.24],[-88.82,14.24],[-88.91,14.36],[-88.69,14.43],[-88.63,15.07],[-88.38,15.39],[-88.51,15.84],[-88.82,15.97],[-88.64,16.23],[-88.49,16.23],[-88.24,16.49],[-88.21,16.81],[-88.14,16.81],[-88.19,17.64],[-88.03,18.03],[-88.08,18.35],[-88.23,18.35],[-88.25,18.48],[-88.04,18.54],[-87.91,18.22],[-87.7,18.29],[-87.73,18.48],[-87.45,19.06],[-87.49,19.31],[-87.37,19.44],[-87.39,19.57],[-87.55,19.64],[-87.29,19.89],[-87.35,20.21],[-86.71,20.86],[-86.72,20.92]]]},"properties":{"NAME":"Mayan City-States","C":2,"name":"Mayan City-States","start_year":299,"end_year":554,"capital":"","type":"polity","region":"","event":"","source":"Cliopatria / Seshat Global History Databank (CC BY 4.0)","wikipedia":"Maya civilization","wikidata":"Q28567","_a":57,"_c":[-90.27,17.61],"_nz":"玛雅城邦","_sz":""}},
{"type":"Feature","geometry":{"type":"Polygon","coordinates":[[[31.1,18.29],[31.09,18.22],[31.21,17.32],[31.48,16.61],[31.39,16.36],[31.54,16.23],[31.53,15.97],[31.8,15.52],[32.53,15.33],[32.53,15.2],[33.86,15.46],[34.1,15.84],[34.68,15.78],[34.56,16.23],[34.71,16.49],[35.67,16.49],[36.05,16.81],[36,17.32],[35.5,17.64],[35.37,17.96],[35.29,17.96],[34.63,17.9],[34.48,18.03],[34.12,18.03],[33.24,18.29],[31.54,18.16],[31.1,18.29]]]},"properties":{"NAME":"Alodia","C":4,"name":"Alodia","start_year":347,"end_year":601,"capital":"","type":"polity","region":"","event":"","source":"Cliopatria / Seshat Global History Databank (CC BY 4.0)","wikipedia":"Alodia","wikidata":"Q449639","_a":15,"_c":[33.57,16.74],"_nz":"阿洛迪亚","_sz":""}},
{"type":"Feature","geometry":{"type":"Polygon","coordinates":[[[34.26,19.64],[33,19.7],[32.48,19.51],[32.03,19.51],[31.52,19.64],[31.38,19.83],[30.87,20.02],[30.86,19.96],[31.1,18.35],[31.1,18.29],[31.54,18.16],[33.24,18.29],[34.12,18.03],[34.48,18.03],[34.63,17.9],[35.29,17.96],[35.16,18.22],[34.94,18.29],[34.88,18.61],[34.6,18.93],[34.33,19.64],[34.26,19.64]]]},"properties":{"NAME":"Makuria","C":8,"name":"Makuria","start_year":347,"end_year":568,"capital":"","type":"polity","region":"","event":"","source":"Cliopatria / Seshat Global History Databank (CC BY 4.0)","wikipedia":"Makuria","wikidata":"Q829356","_a":9,"_c":[33.08,18.96],"_nz":"马库里亚","_sz":""}},
{"type":"Feature","geometry":{"type":"Polygon","coordinates":[[[34.26,19.64],[34.26,19.7],[33.82,21.63],[33.75,21.63],[33.84,22.01],[33.88,23.17],[33.81,23.17],[33.82,23.49],[33.68,23.69],[33.39,23.81],[32.04,23.69],[31.67,23.75],[30.54,23.36],[30.53,23.3],[30.74,22.85],[30.72,22.27],[30.56,21.95],[30.7,21.69],[30.87,20.02],[31.38,19.83],[31.52,19.64],[32.03,19.51],[32.48,19.51],[33,19.7],[34.26,19.64]]]},"properties":{"NAME":"Nobatia","C":8,"name":"Nobatia","start_year":347,"end_year":646,"capital":"","type":"polity","region":"","event":"","source":"Cliopatria / Seshat Global History Databank (CC BY 4.0)","wikipedia":"Nobatia","wikidata":"Q568523","_a":16,"_c":[32.39,21.66],"_nz":"诺巴提亚","_sz":""}},
{"type":"Feature","geometry":{"type":"Polygon","coordinates":[[[79.5,12.85],[78.91,12.84],[77.85,12.15],[77.25,12.28],[77.07,12.21],[77.06,11.55],[76.95,11.34],[76.05,10.51],[76.53,9.53],[76.36,9.52],[76.36,9.37],[76.6,8.87],[77.34,8.11],[77.54,8.08],[78.09,8.38],[78.21,8.95],[78.46,9.12],[79.02,9.32],[78.9,9.48],[79.25,10],[79.23,10.18],[79.39,10.32],[79.84,10.27],[79.76,11.67],[80.15,12.46],[79.73,12.81],[79.5,12.85]]]},"properties":{"NAME":"Kalabhra Dynasty","C":4,"name":"Kalabhra Dynasty","start_year":353,"end_year":591,"capital":"","type":"polity","region":"","event":"","source":"Cliopatria / Seshat Global History Databank (CC BY 4.0)","wikipedia":"Kalabhra dynasty","wikidata":"Q2572901","_a":20,"_c":[78.1,10.47],"_nz":"卡拉布拉王朝","_sz":""}},
{"type":"Feature","geometry":{"type":"Polygon","coordinates":[[[40.82,14.81],[40.68,15.01],[40.31,14.94],[39.97,15.52],[39.82,15.52],[39.81,15.2],[39.73,15.2],[39.61,15.59],[39.15,15.33],[38.93,15.39],[38.78,15.14],[38.63,15.07],[38.17,14.69],[38,14.17],[38.26,13.4],[38.4,13.08],[38.97,12.82],[41.32,12.82],[41.47,12.95],[41.91,13.01],[41.92,13.14],[42.22,13.27],[42.44,13.27],[42.38,13.59],[41.66,14.04],[41.39,14.56],[40.82,14.81]]]},"properties":{"NAME":"Kingdom of Axum","C":3,"name":"Kingdom of Axum","start_year":353,"end_year":533,"capital":"","type":"polity","region":"","event":"","source":"Cliopatria / Seshat Global History Databank (CC BY 4.0)","wikipedia":"Kingdom of Aksum","wikidata":"Q139377","_a":12,"_c":[40.22,14.21],"_nz":"阿克苏姆王国","_sz":""}},
{"type":"Feature","geometry":{"type":"Polygon","coordinates":[[[107.62,-6.53],[107.54,-6.4],[107.6,-6.21],[107,-5.89],[106.85,-5.89],[106.79,-6.08],[105.91,-5.89],[105.7,-6.08],[105.65,-6.46],[105.43,-6.53],[105.44,-6.66],[105.94,-6.59],[106.24,-6.66],[106.25,-6.79],[107.27,-6.79],[107.48,-6.72],[107.62,-6.53]]]},"properties":{"NAME":"Tarumanagara","C":8,"name":"Tarumanagara","start_year":367,"end_year":533,"capital":"","type":"polity","region":"","event":"","source":"Cliopatria / Seshat Global History Databank (CC BY 4.0)","wikipedia":"Tarumanagara","wikidata":"Q2247225","_a":2,"_c":[106.53,-6.34],"_nz":"多罗磨","_sz":""}},
{"type":"Feature","geometry":{"type":"Polygon","coordinates":[[[44.81,16.55],[44.81,16.61],[44.3,16.74],[44.31,16.87],[44.09,16.81],[43.95,16.94],[43.96,17.13],[43.82,17.26],[43.9,17.39],[43.55,17.77],[43.25,17.64],[43.03,17.71],[43.02,17.51],[42.63,17.19],[42.49,17.19],[42.48,17],[42.82,16.61],[42.78,15.84],[42.71,15.84],[42.75,15.14],[42.89,15.07],[42.95,14.88],[43.06,13.98],[43.26,13.72],[43.24,13.08],[43.45,12.89],[43.44,12.69],[44.39,12.63],[44.61,12.76],[45.05,12.76],[45.74,13.34],[46.84,13.4],[47.67,13.72],[47.75,13.91],[48.79,14.04],[49.41,14.69],[50.23,14.81],[50.76,15.07],[51.27,15.14],[51.88,15.46],[52.1,15.46],[52.26,15.59],[52.38,16.29],[51.89,16.61],[51.08,16.68],[50.48,16.55],[50.12,16.61],[49.59,16.49],[47.67,16.36],[46.7,16.1],[46.55,16.16],[46.47,15.97],[46.18,15.97],[46.02,15.84],[45.58,15.84],[45.37,15.97],[44.81,16.55]]]},"properties":{"NAME":"Himyarite Kingdom","C":7,"name":"Himyarite Kingdom","start_year":378,"end_year":533,"capital":"","type":"polity","region":"","event":"","source":"Cliopatria / Seshat Global History Databank (CC BY 4.0)","wikipedia":"Himyarite Kingdom","wikidata":"Q289577","_a":59,"_c":[47.43,15.62],"_nz":"希米亚里特王国","_sz":""}},
{"type":"Feature","geometry":{"type":"Polygon","coordinates":[[[129.35,35.32],[129.44,35.52],[129.55,35.58],[129.67,35.97],[129.58,36.1],[129.42,36.1],[129.54,36.93],[129.35,37.32],[129.21,37.19],[128.7,37.25],[127.99,36.8],[127.9,36.61],[128.02,36.55],[127.97,36.29],[128.09,36.22],[127.93,35.9],[128.21,35.84],[128.22,35.71],[128.61,35.71],[128.62,35.58],[129.01,35.58],[129.07,35.39],[129.35,35.32]]]},"properties":{"NAME":"Silla","C":3,"name":"Silla","start_year":378,"end_year":533,"capital":"","type":"polity","region":"","event":"","source":"Cliopatria / Seshat Global History Databank (CC BY 4.0)","wikipedia":"Silla","wikidata":"Q28456","_a":4,"_c":[128.76,36.32],"_nz":"新罗","_sz":""}},
{"type":"Feature","geometry":{"type":"Polygon","coordinates":[[[45.7,42.24],[45.68,42.56],[45.44,42.56],[45.16,42.76],[44.84,42.76],[44.69,42.82],[43.78,42.69],[43.74,42.89],[43.2,43.02],[42.92,43.21],[42.5,43.15],[42.61,42.82],[42.75,42.76],[42.72,42.56],[42.93,42.43],[42.62,41.59],[42.86,41.59],[43.34,41.13],[43.98,41.13],[44.24,41.26],[44.35,41.46],[44.77,41.59],[45.07,41.91],[45.31,41.91],[45.54,42.24],[45.7,42.24]]]},"properties":{"NAME":"Caucasian Iberia","C":6,"name":"Caucasian Iberia","start_year":402,"end_year":509,"capital":"","type":"polity","region":"","event":"","source":"Cliopatria / Seshat Global History Databank (CC BY 4.0)","wikipedia":"Kingdom of Iberia","wikidata":"Q19083","_a":7,"_c":[44.1,42.17],"_nz":"高加索伊比利亚","_sz":""}},
{"type":"Feature","geometry":{"type":"Polygon","coordinates":[[[42.5,43.15],[42.53,43.28],[41.95,43.21],[40.74,43.6],[40.17,43.6],[39.99,43.47],[40.22,43.41],[40.42,43.15],[40.82,43.15],[41.12,43.02],[41.61,42.63],[41.48,42.37],[41.7,42.24],[41.82,41.98],[41.69,41.72],[41.84,41.65],[41.81,41.46],[41.53,41.26],[42.25,41.26],[42.36,41.46],[42.62,41.59],[42.93,42.43],[42.72,42.56],[42.75,42.76],[42.61,42.82],[42.5,43.15]]]},"properties":{"NAME":"Lazica","C":2,"name":"Lazica","start_year":402,"end_year":533,"capital":"","type":"polity","region":"","event":"","source":"Cliopatria / Seshat Global History Databank (CC BY 4.0)","wikipedia":"Lazica","wikidata":"Q136884","_a":7,"_c":[41.46,42.43],"_nz":"拉齐卡","_sz":""}},
{"type":"Feature","geometry":{"type":"Polygon","coordinates":[[[81.26,8.64],[80.99,8.96],[81,9.09],[80.85,9.16],[80.86,9.29],[80.72,9.35],[80.73,9.48],[80.44,9.54],[80.45,9.74],[79.88,9.86],[79.86,9.67],[80.08,9.61],[79.99,9.41],[80.05,9.16],[79.81,8.77],[79.76,8.06],[79.62,8.06],[79.61,7.87],[79.74,7.68],[79.76,6.65],[79.95,6.14],[80.23,5.88],[80.67,5.88],[81.34,6.14],[81.88,6.71],[81.92,7.42],[81.77,7.49],[81.65,7.94],[81.45,8.13],[81.4,8.51],[81.26,8.64]]]},"properties":{"NAME":"Anurādhapura","C":2,"name":"Anurādhapura","start_year":439,"end_year":616,"capital":"","type":"polity","region":"","event":"","source":"Cliopatria / Seshat Global History Databank (CC BY 4.0)","wikipedia":"Anurādhapura","wikidata":"Q5724","_a":9,"_c":[80.77,7.87],"_nz":"阿努拉德普勒","_sz":""}},
{"type":"Feature","geometry":{"type":"Polygon","coordinates":[[[78.56,15.87],[78.4,15.29],[77.88,15.42],[77.8,15.31],[77.74,14.66],[77.94,14.36],[78.31,14.31],[79.92,14.11],[80.12,14.2],[80.19,14.42],[80.05,15.07],[80.13,15.33],[79.68,15.47],[79.23,15.92],[78.56,15.87]]]},"properties":{"NAME":"Late Pallava Empire","C":3,"name":"Late Pallava Empire","start_year":451,"end_year":554,"capital":"","type":"polity","region":"","event":"","source":"Cliopatria / Seshat Global History Databank (CC BY 4.0)","wikipedia":"Pallava dynasty","wikidata":"Q466803","_a":4,"_c":[78.97,15.02],"_nz":"后期帕拉瓦帝国","_sz":""}},
{"type":"Feature","geometry":{"type":"Polygon","coordinates":[[[73.78,17.13],[74.3,15.72],[74.58,15.26],[74.68,14.86],[74.74,14.32],[75.51,13.17],[76.01,12.88],[76.94,12.76],[77.51,13.03],[77.76,13.35],[77.44,14.47],[77.5,15.5],[77.49,16.15],[77.5,17.03],[77.06,17.85],[75.82,18.72],[74.5,18.8],[74.04,18.41],[73.67,17.9],[73.78,17.13]]]},"properties":{"NAME":"Kadamba Empire","C":11,"name":"Kadamba Empire","start_year":451,"end_year":545,"capital":"","type":"polity","region":"","event":"","source":"Cliopatria / Seshat Global History Databank (CC BY 4.0)","wikipedia":"Kadamba Empire","wikidata":"Q1479952","_a":25,"_c":[75.72,15.78],"_nz":"卡丹巴帝国","_sz":""}},
{"type":"Feature","geometry":{"type":"Polygon","coordinates":[[[89.87,25.78],[90.34,25.34],[91.05,25.33],[91.85,25.15],[93.08,25.16],[94.24,25.6],[94.86,26.22],[95.46,26.6],[94.54,27.95],[94.23,28.23],[93.65,28.2],[92.2,27.68],[91.1,27.66],[90.45,27.37],[90.22,26.18],[90.09,26.05],[89.87,25.78]]]},"properties":{"NAME":"Kamarupa Kingdom","C":1,"name":"Kamarupa Kingdom","start_year":451,"end_year":554,"capital":"","type":"polity","region":"","event":"","source":"Cliopatria / Seshat Global History Databank (CC BY 4.0)","wikipedia":"Kamarupa","wikidata":"Q1194765","_a":17,"_c":[92.67,26.69],"_nz":"迦摩缕波王国","_sz":""}},
{"type":"Feature","geometry":{"type":"Polygon","coordinates":[[[37.76,45.63],[37.59,45.63],[37.58,45.56],[37.75,45.56],[37.76,45.63]]]},"properties":{"NAME":"Hunnic Empire","C":5,"name":"Hunnic Empire","start_year":476,"end_year":629,"capital":"","type":"polity","region":"","event":"","source":"Cliopatria / Seshat Global History Databank (CC BY 4.0)","wikipedia":"Huns","wikidata":"Q45813","_a":3,"_c":[33.9,45.76],"_nz":"匈人帝国","_sz":""}},
{"type":"Feature","geometry":{"type":"Polygon","coordinates":[[[68.53,23.36],[68.82,23.05],[69.66,22.76],[70.34,22.94],[70.18,22.57],[69.28,22.29],[69.05,22.44],[68.97,22.29],[70.49,20.84],[71.02,20.74],[72.02,21.16],[72.25,21.53],[72.21,21.73],[72.04,21.82],[72.31,22.19],[72.55,22.16],[72.52,21.98],[72.7,21.97],[72.54,21.7],[73.11,21.75],[72.72,21.55],[72.62,21.37],[72.67,21.24],[73.31,21.33],[74.03,21.65],[74,23.6],[71.91,24.04],[70.06,24.12],[69.89,23.98],[68.79,23.86],[68.42,23.57],[68.53,23.36]]]},"properties":{"NAME":"Maitraka Dynasty","C":4,"name":"Maitraka Dynasty","start_year":476,"end_year":533,"capital":"","type":"polity","region":"","event":"","source":"Cliopatria / Seshat Global History Databank (CC BY 4.0)","wikipedia":"Maitraka dynasty","wikidata":"Q6737189","_a":19,"_c":[71.22,22.43],"_nz":"梅特拉卡王朝","_sz":""}},
{"type":"Feature","geometry":{"type":"Polygon","coordinates":[[[92.48,41.07],[91.27,41.39],[90.78,41.72],[90.54,41.72],[90.43,41.85],[90.22,41.91],[89.61,41.98],[89.64,42.04],[88.82,42.17],[88.85,42.24],[88.08,42.3],[88.11,42.37],[85.76,42.69],[85.79,42.76],[84.11,42.76],[82.06,42.24],[80.96,42.3],[80.53,42.43],[80.03,42.37],[77.8,41.52],[78.04,41.33],[78.05,41.13],[78.24,41],[78.39,40.74],[78.29,40.23],[78.36,40.23],[78.26,39.45],[78.34,39.45],[78.03,38.74],[77.47,38.48],[77.67,38.35],[78.09,37.71],[78.39,37.64],[78.56,37.45],[79.15,37.32],[79.4,37.13],[80.37,37],[81.03,36.61],[82.02,36.8],[81.69,37],[82.06,37.64],[82.49,37.77],[82.91,38.09],[83.94,38.61],[84.18,38.61],[84.33,38.8],[85.15,39.13],[85.38,39.32],[88.25,40.23],[88.56,40.23],[90.78,40.81],[92.11,40.94],[92.48,41.07]]]},"properties":{"NAME":"Protectorate of the Western Regions","C":9,"name":"Protectorate of the Western Regions","start_year":476,"end_year":554,"capital":"海头","type":"polity","region":"central_asia","event":"","source":"Cliopatria / Seshat Global History Databank (CC BY 4.0)","wikipedia":"Protectorate of the Western Regions","wikidata":"Q911440","_a":92,"_c":[84.97,39.69],"_nz":"西域长史府","_sz":""}},
{"type":"Feature","geometry":{"type":"Polygon","coordinates":[[[12.04,50.31],[12.04,50.58],[12.3,50.65],[12.13,50.85],[12.05,51.11],[11.46,51.25],[11.29,51.38],[11.55,51.78],[10.87,51.92],[10.53,51.65],[10.27,51.65],[10.1,51.45],[9.43,51.25],[9.35,50.85],[9.18,50.71],[9.27,50.25],[9.52,49.98],[9.44,49.58],[9.69,49.58],[9.78,49.45],[10.53,49.25],[10.86,49.25],[11.03,49.65],[11.28,49.78],[11.28,49.91],[11.87,50.11],[11.87,50.25],[12.04,50.31]]]},"properties":{"NAME":"Kingdom of Thuringia","C":5,"name":"Kingdom of Thuringia","start_year":476,"end_year":522,"capital":"","type":"polity","region":"","event":"","source":"Cliopatria / Seshat Global History Databank (CC BY 4.0)","wikipedia":"Basina of Thuringia","wikidata":"Q268562","_a":8,"_c":[10.74,50.59],"_nz":"图林根王国","_sz":""}},
{"type":"Feature","geometry":{"type":"Polygon","coordinates":[[[126.77,37],[126.49,37.06],[126.05,36.8],[126.26,36.61],[126.45,36.67],[126.43,36.16],[126.52,36.03],[126.68,36.03],[126.3,35.26],[126.2,34.87],[126.48,34.81],[126.12,34.36],[126.42,34.36],[126.63,34.29],[127.13,34.55],[127.22,34.42],[127.55,34.61],[127.45,34.74],[127.57,35],[127.45,35.07],[127.63,35.45],[127.93,35.9],[128.09,36.22],[127.97,36.29],[128.02,36.55],[127.9,36.61],[127.99,36.8],[127.67,36.93],[127.7,37],[126.74,36.93],[126.77,37]]]},"properties":{"NAME":"Baekje","C":8,"name":"Baekje","start_year":476,"end_year":566,"capital":"汉城","type":"dynasty","region":"korea","event":"","source":"Cliopatria / Seshat Global History Databank (CC BY 4.0)","wikipedia":"Baekje","wikidata":"Q28428","_a":6,"_c":[127.07,35.67],"_nz":"百济","_sz":""}},
{"type":"Feature","geometry":{"type":"Polygon","coordinates":[[[103.21,33.39],[103.49,33.97],[103.39,34.1],[103.74,35.45],[103.63,35.58],[103.73,35.84],[103.73,36.03],[103.6,36.29],[103.65,36.42],[103.39,36.55],[103.26,36.8],[103.1,36.8],[102.79,37.19],[102.56,37.19],[102.53,37.32],[102.25,37.38],[102.09,37.58],[101.57,37.64],[101.55,37.77],[101.26,37.84],[101.24,37.96],[100.87,38.03],[100.41,38.61],[100.23,38.35],[99.81,38.48],[99.2,39.26],[98.91,39.13],[98.38,39.19],[98.22,39],[97.91,39],[97.21,39.38],[96.76,39.45],[96.7,38.74],[96.36,38.67],[95.81,38.87],[95.55,39.19],[95.4,39.19],[95.32,39.38],[95.06,39.32],[94.58,39.51],[93.88,39.51],[93.35,39.38],[93.22,39.64],[93.27,39.77],[93.09,39.9],[93.28,40.16],[93.36,40.55],[93.57,40.48],[93.85,40.74],[92.48,41.07],[92.11,40.94],[90.78,40.81],[88.56,40.23],[88.25,40.23],[85.38,39.32],[85.15,39.13],[84.33,38.8],[84.18,38.61],[83.94,38.61],[82.91,38.09],[82.49,37.77],[82.06,37.64],[81.69,37],[82.02,36.8],[82.1,36.8],[84.88,37.45],[86.83,37.45],[88.25,37.71],[91.09,37.58],[91.43,37.45],[91.77,37.51],[93.52,37.19],[94.51,37.13],[96.4,36.55],[98.84,36.03],[99.31,36.03],[99.42,35.9],[100.22,35.77],[101,35.39],[101.54,34.74],[101.42,34.61],[101.58,34.42],[101.45,34.29],[101.64,34.16],[101.5,33.78],[101.58,33.78],[101.6,33.39],[101.77,33.01],[101.69,32.75],[102.55,33.26],[103.21,33.39]]]},"properties":{"NAME":"Tuyuhun","C":8,"name":"Tuyuhun","start_year":476,"end_year":535,"capital":"无固定都城（游牧）","type":"polity","region":"tibet","event":"","source":"Cliopatria / Seshat Global History Databank (CC BY 4.0)","wikipedia":"Tuyuhun","wikidata":"Q1196201","_a":183,"_c":[92.72,36.91],"_nz":"吐谷浑","_sz":""}},
{"type":"Feature","geometry":{"type":"Polygon","coordinates":[[[-5.73,42.76],[-5.76,43.08],[-5.94,43.21],[-6.05,43.54],[-7.18,43.54],[-7.28,43.73],[-8.24,43.73],[-8.39,43.6],[-8.37,43.41],[-8.85,43.41],[-9.3,43.15],[-9.08,42.56],[-8.65,42.3],[-8.96,42.17],[-8.73,40.74],[-8.87,40.61],[-9.03,39.77],[-9.16,39.51],[-9.39,39.45],[-9.37,39.26],[-8.97,39.26],[-8.91,39.45],[-8.76,39.45],[-8.47,39.77],[-7.93,39.84],[-6.86,40.29],[-6.85,41.07],[-6.25,41.46],[-6.13,41.85],[-5.9,41.98],[-5.78,42.43],[-5.73,42.76]]]},"properties":{"NAME":"Kingdom of the Suebi","C":11,"name":"Kingdom of the Suebi","start_year":476,"end_year":576,"capital":"","type":"polity","region":"","event":"","source":"Cliopatria / Seshat Global History Databank (CC BY 4.0)","wikipedia":"Kingdom of the Suebi","wikidata":"Q1048918","_a":16,"_c":[-7.54,41.5],"_nz":"苏维汇王国","_sz":""}},
{"type":"Feature","geometry":{"type":"Polygon","coordinates":[[[119.23,34.81],[119.62,35.52],[119.99,35.64],[120.32,36.03],[120.66,36.1],[120.73,36.42],[120.96,36.42],[120.98,36.61],[121.21,36.61],[121.91,36.93],[122.39,36.8],[122.57,37],[122.47,37.13],[122.71,37.45],[122.12,37.51],[122.15,37.58],[121.5,37.51],[121.48,37.64],[121.17,37.64],[121.11,37.84],[120.75,37.9],[120.19,37.71],[120.2,37.58],[119.83,37.45],[119.7,37.19],[119.16,37.19],[118.98,37.32],[119.24,37.84],[119.46,37.96],[118.77,38.16],[118.58,38.09],[118.07,38.16],[118.05,38.29],[117.6,38.48],[117.58,38.74],[117.78,39.13],[118.05,39.19],[118.06,39.06],[118.45,39.06],[118.99,39.19],[119.22,39.32],[119.38,39.77],[120.5,40.23],[120.65,40.48],[120.73,40.48],[121.11,40.87],[121.82,40.87],[121.94,41.2],[122.49,41.46],[122.61,41.78],[121.22,41.33],[119.39,41.33],[119.43,41.39],[118.75,41.46],[117.48,41.33],[116.7,40.94],[116.35,40.87],[115.08,39.84],[114.84,39.84],[114.67,39.97],[113.73,39.51],[113.33,39.51],[113.24,39.64],[112.58,39.58],[111.74,38.67],[110.67,38.42],[110.4,38.16],[109.08,37.84],[107.91,37.84],[107.25,37.58],[106.41,37.45],[106.02,37.45],[106,37.58],[105.74,37.71],[105.38,37.77],[104.46,37.64],[104.36,37.77],[103.76,37.84],[103.66,37.96],[103.88,38.29],[103.75,38.35],[103.84,38.55],[104.11,38.8],[103.61,38.74],[103.67,38.87],[104.67,39.51],[104.58,39.84],[101.95,39.77],[100.94,39.64],[100.74,39.71],[100.51,39.9],[100.17,40.03],[99.38,40.03],[99.28,40.16],[98.95,40.29],[98.5,40.36],[98.27,40.55],[98.04,40.55],[97.63,40.87],[96.9,41],[96.93,41.07],[95.23,41],[93.85,40.74],[93.57,40.48],[93.36,40.55],[93.28,40.16],[93.09,39.9],[93.27,39.77],[93.22,39.64],[93.35,39.38],[93.88,39.51],[94.58,39.51],[95.06,39.32],[95.32,39.38],[95.4,39.19],[95.55,39.19],[95.81,38.87],[96.36,38.67],[96.7,38.74],[96.76,39.45],[97.21,39.38],[97.91,39],[98.22,39],[98.38,39.19],[98.91,39.13],[99.2,39.26],[99.81,38.48],[100.23,38.35],[100.41,38.61],[100.87,38.03],[101.24,37.96],[101.26,37.84],[101.55,37.77],[101.57,37.64],[102.09,37.58],[102.25,37.38],[102.53,37.32],[102.56,37.19],[102.79,37.19],[103.1,36.8],[103.26,36.8],[103.39,36.55],[103.65,36.42],[103.6,36.29],[103.73,36.03],[103.73,35.84],[103.63,35.58],[103.74,35.45],[103.39,34.1],[103.49,33.97],[103.21,33.39],[104.7,33.26],[105.17,33.07],[105.7,33.07],[105.95,33.33],[106.56,33.33],[106.75,33.2],[107.48,33.33],[107.67,33.2],[107.65,32.94],[107.88,32.94],[108.1,33.14],[108.24,32.88],[109.16,32.88],[109.5,32.56],[109.88,32.56],[109.91,32.43],[110.17,32.3],[111.24,32.3],[111.62,32.49],[113.44,32.88],[113.82,33.07],[113.95,33.01],[114.08,33.14],[116.02,33.2],[116.22,33.33],[116.86,33.39],[118.05,33.84],[118.8,34.36],[119.23,34.81]]]},"properties":{"NAME":"Northern Wei","C":3,"name":"Northern Wei","start_year":476,"end_year":509,"capital":"","type":"polity","region":"","event":"","source":"Cliopatria / Seshat Global History Databank (CC BY 4.0)","wikipedia":"Northern Wei","wikidata":"Q875305","_a":281,"_c":[107.9,37.04],"_nz":"北魏","_sz":""}},
{"type":"Feature","geometry":{"type":"MultiPolygon","coordinates":[[[[-2.84,47.6],[-2.45,47.86],[-1.8,47.99],[-1.65,48.19],[-1.67,48.46],[-1.6,48.65],[-2.52,48.72],[-2.76,48.59],[-3.12,48.92],[-3.46,48.92],[-3.85,48.72],[-4.6,48.72],[-4.91,48.52],[-4.89,48.32],[-4.64,48.32],[-4.69,47.99],[-4.42,47.8],[-3.93,47.86],[-3.76,47.73],[-3.34,47.73],[-3.16,47.47],[-2.84,47.6]]],[[[-1.52,50.71],[-1.51,50.58],[-1.1,50.65],[-1.11,50.78],[-1.52,50.71]]],[[[-1.29,54.68],[-1.49,54.95],[-1.63,55.57],[-2.02,55.91],[-2.66,56.11],[-4.15,56.11],[-4.31,55.98],[-5.01,55.98],[-4.98,55.7],[-4.79,55.63],[-4.77,55.43],[-5.33,55.02],[-5.21,54.75],[-4.95,54.82],[-4.42,54.75],[-3.57,54.89],[-3.72,54.68],[-3.59,54.27],[-3.32,54.21],[-3.3,54.07],[-2.96,54.07],[-3.2,53.87],[-3.1,53.73],[-3.15,53.46],[-4.08,53.33],[-4.81,52.92],[-4.79,52.79],[-4.54,52.79],[-4.3,52.92],[-4.16,52.45],[-4.55,52.18],[-5.22,52.05],[-5.26,51.71],[-4.91,51.58],[-4.42,51.71],[-4.31,51.51],[-3.89,51.58],[-3.7,51.38],[-3.28,51.38],[-3.09,51.25],[-4.2,51.31],[-4.43,51.05],[-4.68,51.05],[-4.66,50.85],[-4.82,50.78],[-4.88,50.58],[-5.13,50.58],[-5.28,50.38],[-5.77,50.25],[-5.75,50.05],[-5.15,49.98],[-4.93,50.25],[-4.35,50.38],[-4.09,50.25],[-3.58,50.25],[-3.46,50.65],[-3.13,50.71],[-2.1,50.58],[-2.03,50.71],[-1.78,50.71],[-1.8,50.98],[-2.17,51.31],[-2.22,51.85],[-1.64,52.05],[-1.5,52.38],[-1.88,52.79],[-1.92,53.19],[-2.01,53.19],[-2.13,53.53],[-2.19,54.14],[-1.95,54.34],[-1.36,54.55],[-1.29,54.68]]]]},"properties":{"NAME":"Brythons","C":11,"name":"Brythons","start_year":480,"end_year":522,"capital":"","type":"polity","region":"","event":"","source":"Cliopatria / Seshat Global History Databank (CC BY 4.0)","wikipedia":"Celtic Britons","wikidata":"Q849967","_a":40,"_c":[-3.43,51.79],"_nz":"布立吞人","_sz":""}},
{"type":"Feature","geometry":{"type":"Polygon","coordinates":[[[125.05,44.32],[124.86,44.52],[124.46,44.65],[124.51,44.71],[123.31,44.97],[123.35,45.04],[121.69,45.1],[121.73,45.17],[120.87,45.1],[120.92,45.17],[119.94,45.17],[119.99,45.24],[119.38,45.3],[119.42,45.37],[118.66,45.69],[118.66,45.82],[118.38,45.89],[118.44,46.35],[118.36,46.48],[118.55,47.01],[119.04,47.73],[119.06,47.99],[119.9,49.38],[120.17,49.85],[120.08,49.85],[120.82,51.31],[120.76,51.45],[120.03,51.58],[119.88,51.71],[119.57,51.85],[119.42,51.98],[119.45,52.12],[118.85,52.32],[118.79,52.45],[118.34,52.52],[118.28,52.65],[117.05,52.72],[114.99,52.18],[113.86,52.05],[112.27,51.65],[110.36,51.58],[109.98,51.65],[110,51.78],[109.27,51.71],[108.72,51.78],[107.22,51.58],[104.93,50.98],[104.29,50.91],[103.5,50.98],[103.46,51.18],[103.22,51.31],[103.32,51.58],[103.19,51.65],[103.3,51.92],[102.8,52.05],[102.84,52.12],[102.27,52.38],[101.88,52.32],[101.72,52.45],[101.65,52.72],[100.56,52.99],[100.55,52.86],[100.07,52.79],[98.84,52.12],[98.59,52.25],[97.87,52.45],[97.92,52.52],[96.38,52.52],[94.58,52.25],[93.09,51.78],[92.58,51.78],[92.59,51.65],[92.38,51.58],[91.61,51.58],[91.65,51.65],[90.68,51.71],[90.67,51.85],[90.08,51.85],[88.53,51.38],[88.28,51.25],[86.86,50.98],[85.83,50.65],[84.98,50.31],[82.69,48.92],[82.35,48.39],[82.39,48.13],[82.58,47.99],[82.65,47.8],[82.59,47.66],[82.75,47.47],[82.71,47.2],[82.37,46.61],[81.75,46.15],[81.78,46.02],[81.28,45.63],[80.33,45.1],[79.87,44.97],[79.09,44.06],[77.96,43.02],[77.93,42.95],[79.08,42.82],[79.44,42.5],[80.03,42.37],[80.53,42.43],[80.96,42.3],[82.06,42.24],[84.11,42.76],[85.79,42.76],[85.76,42.69],[88.11,42.37],[88.08,42.3],[88.85,42.24],[88.82,42.17],[89.64,42.04],[89.61,41.98],[90.22,41.91],[90.43,41.85],[90.54,41.72],[90.78,41.72],[91.27,41.39],[92.48,41.07],[93.85,40.74],[95.23,41],[96.93,41.07],[96.9,41],[97.63,40.87],[98.04,40.55],[98.27,40.55],[98.5,40.36],[98.95,40.29],[99.28,40.16],[99.38,40.03],[100.17,40.03],[100.51,39.9],[100.74,39.71],[100.94,39.64],[101.95,39.77],[104.58,39.84],[104.67,39.51],[103.67,38.87],[103.61,38.74],[104.11,38.8],[103.84,38.55],[103.75,38.35],[103.88,38.29],[103.66,37.96],[103.76,37.84],[104.36,37.77],[104.46,37.64],[105.38,37.77],[105.74,37.71],[106,37.58],[106.02,37.45],[106.41,37.45],[107.25,37.58],[107.91,37.84],[109.08,37.84],[110.4,38.16],[110.67,38.42],[111.74,38.67],[112.58,39.58],[113.24,39.64],[113.33,39.51],[113.73,39.51],[114.67,39.97],[114.84,39.84],[115.08,39.84],[116.35,40.87],[116.7,40.94],[117.48,41.33],[118.75,41.46],[119.43,41.39],[119.39,41.33],[121.22,41.33],[122.61,41.78],[123.13,42.24],[123.82,42.56],[123.99,43.08],[125.05,44.32]]]},"properties":{"NAME":"Rouran Khaganate","C":9,"name":"Rouran Khaganate","start_year":480,"end_year":533,"capital":"","type":"polity","region":"","event":"","source":"Cliopatria / Seshat Global History Databank (CC BY 4.0)","wikipedia":"Rouran Khaganate","wikidata":"Q155361","_a":732,"_c":[101.49,45.22],"_nz":"柔然汗国","_sz":""}},
{"type":"Feature","geometry":{"type":"Polygon","coordinates":[[[0.05,51.11],[0.22,51.05],[0.56,51.05],[0.74,50.91],[0.82,50.91],[1.39,51.18],[1.38,51.38],[0.53,51.45],[-0.07,51.51],[0.05,51.11]]]},"properties":{"NAME":"Kingdom of Kent","C":0,"name":"Kingdom of Kent","start_year":490,"end_year":533,"capital":"","type":"polity","region":"","event":"","source":"Cliopatria / Seshat Global History Databank (CC BY 4.0)","wikipedia":"Kingdom of Kent","wikidata":"Q328818","_a":1,"_c":[0.66,51.21],"_nz":"肯特王国","_sz":""}},
{"type":"Feature","geometry":{"type":"Polygon","coordinates":[[[74.61,24.65],[75.04,24.52],[75.21,24.5],[75.8,24.62],[76.5,24.58],[76.7,24.2],[77.94,23.85],[78.8,23.35],[79.54,23.41],[80.17,22.99],[80.88,22.21],[81.43,22.43],[82.11,23.22],[82.44,23.22],[82.95,23.03],[83.76,22.31],[83.77,21.95],[83.1,20.8],[81.54,20.4],[81.92,20.02],[82.06,20.02],[83.11,18.93],[84.47,18.54],[84.92,19.19],[85.41,19.57],[85.37,19.83],[85.52,19.83],[85.5,19.64],[86.11,19.76],[86.42,19.89],[86.44,20.02],[86.84,20.28],[86.79,20.47],[87.03,20.6],[86.97,20.73],[86.89,21.24],[87.07,21.44],[87.76,21.63],[88.1,21.95],[88.18,21.95],[88.13,21.63],[88.35,21.56],[88.51,21.69],[88.64,22.08],[88.72,22.08],[88.73,21.63],[89.1,21.63],[89.12,21.76],[89.48,21.69],[89.56,21.76],[89.56,22.27],[89.67,22.53],[89.83,22.59],[89.83,23.11],[90.34,24.46],[90.2,24.52],[90.17,24.78],[90.03,24.84],[89.88,25.23],[89.88,26.07],[89.52,26.13],[89.27,26.39],[89.04,26.39],[88.99,26.52],[88.55,26.58],[87.99,26.39],[87.24,26.39],[87.11,26.52],[86.65,26.45],[86.31,26.64],[85.79,26.64],[85.74,26.77],[85.27,26.71],[85,26.84],[84.76,27.16],[84.43,27.42],[83.29,27.35],[82.54,27.74],[81.88,27.87],[81.19,28.19],[80.96,28.51],[80.1,28.77],[80.35,29.6],[81.04,30.31],[80.78,30.5],[80.34,30.56],[79.91,31.01],[79.53,31.01],[79.18,31.46],[78.81,31.53],[78.84,31.66],[78.45,31.59],[77.81,31.79],[77.73,31.79],[76.3,30.5],[76.24,29.86],[76.13,29.67],[76.25,29.54],[76.25,29.15],[76.38,29.02],[76.41,28.83],[76.65,28.06],[76.85,27.93],[76.83,27.8],[77.02,27.61],[77.05,26.9],[76.85,26.64],[76.7,26.64],[75.29,25.74],[75.27,25.62],[74.76,25.23],[74.77,24.78],[74.61,24.65]]]},"properties":{"NAME":"Gupta Empire","C":9,"name":"Gupta Empire","start_year":490,"end_year":533,"capital":"","type":"polity","region":"","event":"","source":"Cliopatria / Seshat Global History Databank (CC BY 4.0)","wikipedia":"Gupta Empire","wikidata":"Q11774","_a":208,"_c":[82.48,25.17],"_nz":"笈多帝国","_sz":""}},
{"type":"Feature","geometry":{"type":"MultiPolygon","coordinates":[[[[50.65,25.87],[50.69,26.26],[50.46,26.26],[50.43,25.94],[50.65,25.87]]],[[[54.04,37.32],[54.03,36.87],[53.09,36.8],[52.19,36.55],[51.64,36.55],[50.82,36.74],[50.53,36.87],[50.57,37.06],[50.32,37],[50,37.38],[49.09,37.51],[48.88,37.71],[48.84,38.35],[48.76,38.35],[48.74,38.67],[48.92,39.19],[48.78,39.32],[48.81,39.45],[48.53,39.64],[47.74,39.64],[47.53,39.77],[47.12,39.71],[47.07,39.84],[46.77,39.97],[46.46,39.97],[46.48,40.1],[46.26,40.16],[46.2,40.29],[45.59,40.42],[45.46,40.55],[45.6,40.87],[45.3,41],[45.11,41.26],[44.24,41.26],[43.98,41.13],[43.34,41.13],[42.86,41.59],[42.62,41.59],[42.36,41.46],[42.25,41.26],[41.53,41.26],[41.36,40.68],[41.7,40.36],[41.67,40.16],[41.48,39.97],[41.33,39.97],[41.26,39.51],[40.98,39.26],[40.97,38.61],[40.91,38.22],[41.13,38.09],[41.21,37],[41.55,36.61],[41.53,36.48],[41.68,36.42],[41.66,36.29],[41.09,36.03],[41.11,35],[40.77,34.74],[40.62,34.74],[40.1,34.29],[40.4,34.23],[40.31,34.1],[40.7,34.16],[40.91,33.97],[41.21,33.91],[41.27,33.78],[41.43,33.78],[41.49,33.65],[42,33.46],[42.06,33.33],[42.21,33.26],[42.58,33.14],[42.71,32.94],[43.15,32.81],[43.35,32.56],[43.7,32.24],[43.91,32.11],[44.73,31.98],[44.86,31.72],[44.81,31.34],[45.1,31.21],[45.08,31.08],[45.77,30.44],[46.45,30.37],[46.66,30.24],[46.7,29.92],[47.65,29.67],[47.53,29.28],[48.21,28.57],[48.25,28.19],[48.53,27.99],[48.55,27.48],[49.06,27.29],[49.27,27.09],[49.25,26.97],[49.88,26.45],[49.67,25.87],[50.03,25.68],[50.34,24.97],[50.62,24.65],[50.92,24.71],[51.12,25.29],[50.98,25.42],[51.23,25.68],[51.17,25.87],[51.32,25.87],[51.35,25.36],[51.27,25.29],[51.33,25.1],[51.29,24.71],[51.1,24.2],[51.17,24.07],[51.82,23.88],[51.88,23.69],[54.27,23.75],[54.81,23.94],[55.62,24.65],[55.84,24.59],[55.86,24.78],[56.09,24.84],[56.29,24.59],[56.27,24.39],[56.49,24.33],[56.54,24.07],[56.82,23.88],[56.81,23.75],[57.83,23.49],[57.97,23.43],[57.96,23.3],[58.33,23.3],[58.61,23.04],[58.91,23.04],[58.9,22.91],[59.27,22.91],[59.28,23.04],[59.07,23.17],[59.08,23.3],[58.81,23.62],[57.49,23.88],[56.79,24.33],[56.54,24.91],[56.4,24.97],[56.46,25.55],[56.39,25.55],[56.54,26.32],[56.48,26.39],[56.17,26.32],[55.97,25.87],[55.41,25.55],[55.14,25.1],[54.74,24.84],[54.56,24.46],[54.32,24.26],[54.1,24.33],[54.08,24.14],[53.11,24.14],[52.6,24.26],[52.28,24.01],[51.91,24.01],[51.85,24.26],[51.41,24.33],[51.52,24.78],[51.69,24.97],[51.72,25.29],[51.57,25.36],[51.7,25.87],[51.42,26.13],[51.12,26.13],[50.95,25.94],[50.92,25.62],[50.77,25.55],[50.73,25.1],[50.65,25.1],[50.61,25.42],[50.33,25.62],[50.21,26],[50.25,26.45],[50.12,26.58],[50.13,26.77],[49.36,27.29],[49.24,27.61],[48.87,27.67],[48.97,27.93],[48.56,28.32],[48.46,28.77],[48.19,29.09],[48.22,29.28],[48.08,29.41],[47.85,29.41],[47.87,29.54],[48.4,29.6],[48.37,29.92],[48.99,30.05],[48.94,30.31],[49.59,29.99],[50.06,30.18],[50.24,29.73],[50.65,29.41],[50.62,29.15],[50.92,29.09],[50.81,28.83],[51.03,28.77],[51.07,28.44],[51.33,28.12],[51.32,27.99],[51.6,27.8],[52.05,27.8],[52.48,27.61],[52.74,27.22],[53.46,26.97],[53.66,26.71],[54.26,26.71],[54.46,26.52],[54.83,26.45],[55.24,26.77],[55.29,26.52],[55.44,26.52],[55.6,26.64],[56.06,26.71],[56.31,26.9],[56.32,27.03],[56.19,27.16],[56.71,27.16],[57.05,26.84],[57.18,25.94],[57.38,25.74],[57.68,25.74],[57.74,25.62],[57.96,25.55],[58.78,25.55],[59.06,25.36],[60.63,25.36],[60.62,25.23],[60.92,25.23],[61.13,25.1],[61.66,25.16],[61.72,25.04],[62.02,25.04],[62.18,25.16],[62.47,25.1],[62.56,25.23],[63.39,25.23],[63.53,26.39],[63.18,26.58],[63,26.97],[62.8,27.09],[62.81,27.22],[62.61,27.35],[62.62,27.48],[62.35,27.67],[62.18,28.06],[61.97,28.19],[61.99,28.32],[61.78,28.44],[61.8,28.57],[61.66,28.64],[61.75,28.77],[61.49,29.02],[61.45,29.28],[60.98,29.67],[60.59,30.05],[60.61,30.18],[60.35,30.44],[60.19,30.44],[60.38,32.43],[60.3,32.43],[60.46,33.26],[60.38,33.26],[60.57,33.84],[60.49,33.84],[60.57,34.23],[60.82,34.36],[60.78,34.55],[61.05,34.74],[61.19,35.39],[61.26,35.39],[61.34,35.77],[61.22,35.9],[61.2,36.55],[60.44,36.61],[59.92,37.13],[59.41,37.25],[59.17,37.58],[58.4,37.64],[57.91,37.9],[57.52,37.9],[57.19,38.22],[56.9,38.29],[56.58,38.29],[56.31,38.09],[55.2,38.03],[54.83,37.77],[54.79,37.58],[54.61,37.45],[54.04,37.32]]]]},"properties":{"NAME":"Sasanian Empire","C":8,"name":"Sasanian Empire","start_year":490,"end_year":509,"capital":"","type":"polity","region":"","event":"","source":"Cliopatria / Seshat Global History Databank (CC BY 4.0)","wikipedia":"Sasanian Empire","wikidata":"Q1661685","_a":438,"_c":[51.82,32.25],"_nz":"萨珊帝国","_sz":""}},
{"type":"Feature","geometry":{"type":"MultiPolygon","coordinates":[[[[10.23,37.06],[10.23,37.25],[9.99,37.19],[9.6,37.32],[9.06,37.06],[8.9,37.13],[8.52,36.87],[7.74,36.87],[7.5,37.06],[7.35,37.06],[7.19,36.87],[6.8,36.87],[6.33,37.06],[6.1,36.93],[6.11,36.8],[5.64,36.8],[5.56,36.67],[5.1,36.67],[4.86,36.87],[4.47,36.93],[3.85,36.8],[3.46,36.87],[3.23,36.74],[2.84,36.74],[2.69,36.61],[2.38,36.67],[1.53,36.48],[1.22,36.55],[0.91,36.35],[0.38,36.22],[0.08,35.84],[-0.46,35.84],[-0.53,35.71],[-0.92,35.71],[-1.14,35.45],[-1.36,35.26],[-1.59,35.26],[-1.89,35.07],[-2.66,35.07],[-2.82,35.13],[-2.84,35.45],[-2.99,35.45],[-2.98,35.26],[-3.13,35.19],[-4.75,35.19],[-5.24,35.52],[-5.34,35.84],[-5.88,35.77],[-6,35.32],[-6.29,35.07],[-6.33,34.55],[-6.48,34.49],[-6.47,34.36],[-6.7,34.29],[-6.61,34.16],[-6.9,33.91],[-7.06,33.97],[-7.13,33.84],[-7.88,33.52],[-7.47,33.26],[-7.18,33.52],[-6.73,33.59],[-6.81,33.71],[-6.59,33.84],[-6.6,33.97],[-6.31,34.23],[-6.11,34.61],[-5.81,34.81],[-5.28,34.94],[-2.81,34.94],[-1.88,34.81],[-1.81,34.94],[-1.35,35],[-1.2,35.13],[-1.04,35.07],[-0.29,35.58],[0.48,35.64],[0.77,36.03],[1.01,36.03],[1.15,36.16],[2.01,36.16],[2,36.29],[2.32,36.22],[2.77,36.42],[5.65,36.35],[5.88,36.48],[6.35,36.42],[6.42,36.55],[6.89,36.48],[6.96,36.61],[7.59,36.61],[7.9,36.22],[7.91,35.52],[7.99,35.52],[7.99,35.07],[8.23,34.81],[8.46,34.87],[8.85,34.74],[8.93,34.36],[8.93,34.04],[9.08,34.04],[9.32,33.59],[9.62,33.46],[9.55,33.33],[9.63,33.14],[10.08,33.14],[10.01,33.01],[10.39,33.01],[11.16,32.69],[11.31,32.49],[11.46,32.56],[11.54,32.43],[11.77,32.43],[11.77,32.3],[12.46,32.36],[13.07,32.3],[13.83,32.11],[14.59,31.66],[14.58,31.53],[15.19,31.08],[15.18,30.89],[15.49,30.95],[16.7,30.69],[18.28,30.05],[18.81,29.99],[18.9,30.37],[18.59,30.37],[18,30.89],[17.47,31.08],[16.18,31.21],[15.65,31.4],[15.58,31.59],[15.42,31.66],[15.21,32.36],[14.75,32.43],[14.67,32.56],[14.44,32.49],[14.07,32.75],[13.76,32.75],[13.76,32.88],[13.45,32.81],[13.3,32.94],[12.84,32.88],[12.84,32.75],[12.53,32.75],[12.61,32.88],[12.23,32.81],[11.46,33.2],[11.16,33.2],[11.08,33.59],[10.7,33.52],[10.54,33.71],[10.24,33.71],[10.01,33.91],[10.08,34.23],[10,34.29],[10.54,34.55],[10.85,34.81],[10.85,34.94],[11.08,35],[11.01,35.39],[11.08,35.58],[10.7,35.71],[10.46,35.9],[10.54,36.35],[10.46,36.42],[11.01,36.8],[11.01,37],[10.85,37],[10.54,36.74],[10.23,36.8],[10.23,37.06]]],[[[1.66,39],[1.65,39.13],[1.26,39.13],[1.18,39.06],[1.27,38.8],[1.43,38.8],[1.66,39]]],[[[3.2,39.84],[3.19,39.97],[2.88,39.97],[2.34,39.64],[2.35,39.45],[2.66,39.51],[2.82,39.32],[3.3,39.32],[3.52,39.77],[3.2,39.84]]],[[[4.22,40.1],[3.74,40.1],[3.83,39.9],[4.3,39.84],[4.22,40.1]]],[[[9.82,40.74],[9.5,41.2],[9.02,41.26],[8.55,40.87],[8.15,40.94],[8.16,40.55],[8.32,40.48],[8.4,40.29],[8.32,39.97],[8.48,39.9],[8.41,39.51],[8.33,39.51],[8.34,39],[8.73,38.87],[8.97,38.87],[9.12,39.19],[9.59,39.13],[9.67,39.64],[9.75,39.64],[9.67,40.29],[9.82,40.36],[9.82,40.74]]],[[[9.49,42.76],[9.49,43.02],[9.25,43.02],[9.17,42.76],[8.77,42.69],[8.53,42.5],[8.54,42.11],[8.78,41.72],[8.78,41.52],[9.1,41.33],[9.26,41.39],[9.5,41.78],[9.58,41.98],[9.57,42.76],[9.49,42.76]]]]},"properties":{"NAME":"Vandal Kingdom","C":3,"name":"Vandal Kingdom","start_year":490,"end_year":522,"capital":"","type":"polity","region":"","event":"","source":"Cliopatria / Seshat Global History Databank (CC BY 4.0)","wikipedia":"Vandal Kingdom","wikidata":"Q10416611","_a":349,"_c":[5.51,36.51],"_nz":"汪达尔王国","_sz":""}},
{"type":"Feature","geometry":{"type":"Polygon","coordinates":[[[0.53,51.45],[0.86,51.51],[0.84,51.78],[1.18,51.78],[1.17,51.98],[1.43,51.98],[1.59,52.12],[1.74,52.38],[1.72,52.72],[1.53,52.92],[1.09,53.06],[0.49,53.06],[0.34,52.86],[0.07,52.99],[0.32,53.12],[0.3,53.39],[0.02,53.6],[0,53.8],[-0.18,53.94],[-0.2,54.21],[-0.67,54.61],[-1.29,54.68],[-1.36,54.55],[-1.95,54.34],[-2.19,54.14],[-2.13,53.53],[-2.01,53.19],[-1.92,53.19],[-1.88,52.79],[-1.5,52.38],[-1.64,52.05],[-2.22,51.85],[-2.17,51.31],[-1.8,50.98],[-1.78,50.71],[-1.52,50.71],[-1.37,50.85],[-1.47,51.05],[-1.15,51.25],[0.05,51.11],[-0.07,51.51],[0.53,51.45]]]},"properties":{"NAME":"Anglo-Saxon England","C":6,"name":"Anglo-Saxon England","start_year":490,"end_year":522,"capital":"","type":"polity","region":"","event":"","source":"Cliopatria / Seshat Global History Databank (CC BY 4.0)","wikipedia":"History of Anglo-Saxon England","wikidata":"Q784963","_a":16,"_c":[-0.24,52.7],"_nz":"盎格鲁-撒克逊英格兰","_sz":""}},
{"type":"Feature","geometry":{"type":"Polygon","coordinates":[[[129.35,37.32],[129.26,37.58],[129.1,37.58],[128.36,38.8],[127.92,39],[127.8,39.19],[127.44,39.26],[127.67,39.64],[127.58,39.77],[127.93,39.97],[128.37,40.03],[128.68,40.29],[129.08,40.42],[129.24,40.68],[129.76,40.87],[129.88,41.2],[129.69,41.52],[129.78,41.78],[130.32,42.24],[130.61,42.3],[130.9,42.63],[131.23,42.63],[131.75,43.28],[131.78,43.08],[132.1,43.08],[132.6,43.8],[132.05,43.93],[132.1,43.99],[131.26,44.06],[130.78,44.19],[130.47,44.32],[130.41,44.58],[129.99,44.78],[130,44.91],[129.16,45.1],[128.69,44.78],[127.71,44.65],[127.43,44.71],[127.34,44.58],[126.97,44.52],[125.13,44.32],[125.05,44.32],[123.99,43.08],[123.82,42.56],[123.13,42.24],[122.61,41.78],[122.49,41.46],[121.94,41.2],[121.82,40.87],[122.11,40.68],[122.23,40.48],[121.78,39.97],[121.5,39.9],[121.44,39.64],[121.28,39.64],[121.21,39.51],[121.3,39.38],[121.69,39.38],[121.52,39.06],[121.2,39.06],[121.03,38.74],[121.42,38.74],[121.72,39],[121.95,39],[122.17,39.26],[122.94,39.64],[123.6,39.84],[124.03,39.77],[124.34,39.9],[124.51,39.64],[124.86,39.71],[124.87,39.58],[125.31,39.51],[125.39,39.38],[124.79,38.29],[124.76,38.09],[125.08,38.09],[124.9,37.9],[125.21,37.9],[125.39,37.64],[125.68,37.9],[125.84,37.77],[126.35,37.84],[126.25,37.64],[126.6,37.58],[126.54,37.45],[126.7,37.32],[126.6,37.13],[126.77,37],[126.74,36.93],[127.7,37],[127.67,36.93],[127.99,36.8],[128.7,37.25],[129.21,37.19],[129.35,37.32]]]},"properties":{"NAME":"Goguryeo","C":11,"name":"Goguryeo","start_year":490,"end_year":522,"capital":"国内城（今集安）","type":"dynasty","region":"korea","event":"","source":"Cliopatria / Seshat Global History Databank (CC BY 4.0)","wikipedia":"Goguryeo","wikidata":"Q28370","_a":96,"_c":[126.82,40.95],"_nz":"高句丽","_sz":""}},
{"type":"Feature","geometry":{"type":"Polygon","coordinates":[[[77.49,16.15],[77.5,15.51],[77.59,15.5],[78.39,15.29],[78.56,15.87],[79.23,15.92],[79.68,15.51],[80.12,15.35],[80.38,15.79],[80.65,15.9],[80.98,15.76],[81.29,16.34],[81.5,16.36],[81.38,16.72],[81.53,17.17],[81.83,17.54],[81.13,17.98],[80.52,18.76],[80.46,19.11],[80.56,19.8],[81.12,20.23],[81.54,20.4],[83.1,20.8],[83.77,21.95],[83.76,22.31],[82.95,23.03],[82.44,23.22],[82.11,23.22],[81.43,22.43],[80.88,22.21],[80.17,22.99],[79.54,23.41],[78.8,23.35],[77.94,23.85],[76.7,24.2],[76.5,24.58],[75.8,24.62],[75.21,24.5],[74.78,24.5],[74.52,24.34],[74.27,24.33],[74.17,24.21],[74,23.6],[74.03,21.65],[73.31,21.33],[72.67,21.24],[72.81,21.12],[72.89,20.67],[72.67,19.83],[72.81,19.3],[72.8,19.08],[72.97,19.15],[73.01,19.02],[72.88,18.64],[73.28,16.9],[73.67,16.9],[73.83,17],[73.78,17.13],[73.67,17.9],[74.04,18.41],[74.5,18.8],[75.82,18.72],[77.06,17.85],[77.5,17.03],[77.49,16.15]]]},"properties":{"NAME":"Vakataka Kingdom","C":7,"name":"Vakataka Kingdom","start_year":490,"end_year":545,"capital":"","type":"polity","region":"","event":"","source":"Cliopatria / Seshat Global History Databank (CC BY 4.0)","wikipedia":"Vakataka dynasty","wikidata":"Q1501306","_a":104,"_c":[78.22,19.95],"_nz":"伐卡塔卡王国","_sz":""}},
{"type":"Feature","geometry":{"type":"Polygon","coordinates":[[[48.25,28.19],[48.21,28.57],[47.53,29.28],[47.65,29.67],[46.7,29.92],[46.66,30.24],[46.45,30.37],[45.77,30.44],[45.08,31.08],[45.1,31.21],[44.81,31.34],[44.86,31.72],[44.73,31.98],[43.91,32.11],[43.7,32.24],[43.35,32.56],[43.15,32.81],[42.71,32.94],[42.58,33.14],[42.21,33.26],[41.89,33.14],[41.64,32.94],[41.62,32.81],[41.37,32.62],[41.16,32.11],[40.83,31.85],[40.74,31.72],[40.41,31.53],[40.06,31.08],[39.93,30.5],[39.98,30.24],[40.12,30.05],[41.06,29.6],[41.11,29.34],[41.27,29.41],[41.77,29.15],[41.84,29.02],[42.13,28.96],[42.2,28.83],[42.42,28.83],[42.71,28.64],[42.87,28.7],[42.93,28.57],[43.23,28.51],[43.28,28.32],[43.44,28.38],[43.74,28.32],[43.8,28.19],[44.03,28.25],[44.92,28.06],[45.14,27.99],[45.13,27.87],[45.43,27.93],[45.8,27.8],[46.7,27.74],[47.69,27.87],[48.17,28.19],[48.25,28.19]]]},"properties":{"NAME":"Lakhmid Kingdom","C":9,"name":"Lakhmid Kingdom","start_year":490,"end_year":509,"capital":"","type":"polity","region":"","event":"","source":"Cliopatria / Seshat Global History Databank (CC BY 4.0)","wikipedia":"Lakhmid kingdom","wikidata":"Q943191","_a":46,"_c":[44.09,30.5],"_nz":"莱赫米王国","_sz":""}},
{"type":"Feature","geometry":{"type":"Polygon","coordinates":[[[63.39,25.23],[63.63,25.36],[64.23,25.36],[64.28,25.23],[64.8,25.16],[64.82,25.29],[66.02,25.36],[66.35,25.55],[66.68,25.23],[66.63,24.84],[67.21,24.71],[67.25,24.39],[67.33,24.39],[67.29,24.07],[67.44,24.07],[67.49,23.88],[67.63,23.81],[68.16,23.81],[68.13,23.56],[68.35,23.56],[68.34,23.43],[68.53,23.36],[68.42,23.57],[68.79,23.86],[69.89,23.98],[70.06,24.12],[71.91,24.04],[74,23.6],[74.17,24.21],[74.27,24.33],[74.57,24.39],[74.61,24.65],[74.77,24.78],[74.76,25.23],[75.27,25.62],[75.29,25.74],[76.7,26.64],[76.85,26.64],[77.05,26.9],[77.02,27.61],[76.83,27.8],[76.85,27.93],[76.65,28.06],[76.41,28.83],[76.38,29.02],[76.25,29.15],[76.25,29.54],[76.13,29.67],[76.24,29.86],[76.3,30.5],[77.73,31.79],[77.75,31.85],[76.89,32.11],[76.85,32.24],[76.69,32.24],[76.49,32.36],[76.11,32.69],[76.1,32.94],[75.93,32.88],[75.62,33.2],[75.47,33.2],[75.4,33.84],[75.32,33.84],[75.38,34.36],[75.44,34.61],[75.28,34.87],[75.34,35.71],[75.16,35.9],[75.2,36.03],[75,36.16],[74.85,36.74],[74.71,36.8],[74.78,37.06],[74.57,37.13],[74.53,37.25],[74.66,37.45],[74.54,37.58],[74.54,37.84],[74.65,38.22],[74.81,38.22],[74.98,38.55],[75.98,38.74],[76.61,38.74],[77.22,38.67],[77.47,38.48],[78.03,38.74],[78.34,39.45],[78.26,39.45],[78.36,40.23],[78.29,40.23],[78.39,40.74],[78.24,41],[78.05,41.13],[78.04,41.33],[77.8,41.52],[80.03,42.37],[79.44,42.5],[79.08,42.82],[77.93,42.95],[75.87,43.02],[75.74,42.89],[75.34,42.89],[74.69,43.08],[74.3,43.34],[74.01,43.21],[72.5,43.02],[71.38,43.02],[70.39,43.41],[70.15,43.67],[69.85,43.73],[69.84,43.93],[69.58,43.86],[68.74,44.25],[67.65,44.39],[67.7,44.52],[66.95,44.45],[64.48,44.58],[62.9,44.97],[62.56,45.17],[61.7,45.3],[61.58,44.91],[61.02,44.65],[60.78,44.12],[60.6,44.06],[60.5,43.73],[60.29,43.54],[59.12,43.41],[58.63,43.67],[58.42,43.47],[58.26,43.47],[57.46,41.39],[56.83,40.74],[54.39,40.81],[53.4,40.68],[53.34,40.74],[52.94,40.74],[52.79,40.42],[52.72,40.1],[53.5,40.03],[53.54,39.51],[53.52,39.38],[53.99,39],[53.83,37.84],[53.91,37.84],[53.96,37.32],[54.04,37.32],[54.61,37.45],[54.79,37.58],[54.83,37.77],[55.2,38.03],[56.31,38.09],[56.58,38.29],[56.9,38.29],[57.19,38.22],[57.52,37.9],[57.91,37.9],[58.4,37.64],[59.17,37.58],[59.41,37.25],[59.92,37.13],[60.44,36.61],[61.2,36.55],[61.22,35.9],[61.34,35.77],[61.26,35.39],[61.19,35.39],[61.05,34.74],[60.78,34.55],[60.82,34.36],[60.57,34.23],[60.49,33.84],[60.57,33.84],[60.38,33.26],[60.46,33.26],[60.3,32.43],[60.38,32.43],[60.19,30.44],[60.35,30.44],[60.61,30.18],[60.59,30.05],[60.98,29.67],[61.45,29.28],[61.49,29.02],[61.75,28.77],[61.66,28.64],[61.8,28.57],[61.78,28.44],[61.99,28.32],[61.97,28.19],[62.18,28.06],[62.35,27.67],[62.62,27.48],[62.61,27.35],[62.81,27.22],[62.8,27.09],[63,26.97],[63.18,26.58],[63.53,26.39],[63.39,25.23]],[[77.37,42.11],[77.29,42.11],[76.51,42.37],[76.53,42.63],[78.66,42.76],[78.58,42.56],[78.04,42.17],[77.37,42.11]]]},"properties":{"NAME":"White Huns","C":5,"name":"White Huns","start_year":490,"end_year":522,"capital":"","type":"polity","region":"","event":"","source":"Cliopatria / Seshat Global History Databank (CC BY 4.0)","wikipedia":"White Huns","wikidata":"Q41761342","_a":599,"_c":[66.37,34.33],"_nz":"白匈奴","_sz":""}},
{"type":"Feature","geometry":{"type":"MultiPolygon","coordinates":[[[[24.16,35.52],[23.62,35.52],[23.68,35.26],[24.45,35.19],[24.76,35.19],[24.82,35],[26.14,35.07],[26.23,35.19],[25.68,35.13],[25.69,35.32],[24.3,35.32],[24.15,35.39],[24.16,35.52]]],[[[14.34,36.03],[14.34,35.84],[14.57,35.77],[14.57,35.97],[14.34,36.03]]],[[[22.89,36.42],[22.87,36.16],[23.11,36.16],[23.12,36.35],[22.89,36.42]]],[[[24.99,37.71],[25.05,37.51],[25.29,37.51],[25.22,37.71],[24.99,37.71]]],[[[20.62,37.9],[20.61,37.71],[20.92,37.64],[20.93,37.9],[20.62,37.9]]],[[[24.68,37.84],[24.83,37.71],[25.07,37.77],[24.77,38.03],[24.68,37.84]]],[[[20.33,38.35],[20.32,38.16],[20.79,38.09],[20.8,38.29],[20.57,38.42],[20.33,38.35]]],[[[24.36,38.87],[24.66,38.74],[24.67,38.93],[24.36,39],[24.36,38.87]]],[[[25.07,40.03],[24.97,39.84],[25.45,39.84],[25.46,40.03],[25.07,40.03]]],[[[24.55,40.55],[24.79,40.61],[24.81,40.81],[24.49,40.81],[24.55,40.55]]],[[[41.69,41.72],[41.57,41.46],[41.16,41.39],[41.05,41.2],[40.37,40.94],[39.74,40.94],[39.05,41.13],[38.78,40.94],[38.3,40.87],[38.16,41],[37.83,40.94],[37.77,41.07],[37.21,41.07],[36.77,41.33],[36.21,41.26],[35.95,41.72],[35.16,41.72],[35.12,42.04],[34.88,42.04],[34.78,41.91],[33.28,41.98],[32.86,41.85],[32.03,41.52],[31.53,41.39],[31.18,41.07],[30.62,41.07],[30.48,41.2],[28.96,41.13],[28.98,41.26],[28.51,41.33],[28.28,41.46],[28.22,41.65],[27.98,41.65],[27.94,42.04],[27.49,42.43],[27.51,42.63],[27.85,42.76],[27.8,43.15],[27.9,43.28],[28.23,43.34],[28.16,43.47],[28.48,43.47],[28.62,43.99],[28.54,43.99],[28.58,44.39],[28.84,44.58],[28.8,44.97],[29.05,44.97],[29.11,44.84],[29.53,44.91],[29.67,45.43],[29.18,45.5],[28.76,45.3],[28.43,45.3],[28.27,45.37],[28.29,45.5],[27.79,45.37],[27.77,45.17],[27.92,45.1],[27.89,44.78],[27.73,44.78],[27.71,44.58],[27.87,44.58],[27.75,44.19],[26.37,44.12],[26.03,43.99],[25.77,43.73],[25.28,43.67],[24.81,43.8],[24.08,43.73],[23.92,43.86],[23.53,43.93],[22.88,43.86],[22.98,44.12],[22.51,44.39],[22.52,44.52],[22.77,44.58],[22.69,44.71],[22.37,44.71],[22.19,44.52],[22.03,44.52],[21.88,44.71],[21.64,44.71],[21.41,44.91],[20.67,44.78],[20.52,44.97],[20.61,45.1],[20.29,45.24],[19.94,44.71],[19.92,44.45],[19.67,44.25],[19.66,44.06],[19.41,43.93],[19.47,43.6],[19.31,43.6],[19.3,43.41],[19.46,43.28],[19.11,42.82],[19.17,42.3],[19.01,42.24],[19,42.17],[19.54,41.78],[19.45,41.52],[19.44,41.26],[19.5,40.87],[19.25,40.74],[19.25,40.61],[19.49,40.61],[19.47,40.29],[19.63,40.29],[20.01,39.97],[20,39.77],[20.15,39.71],[20.3,39.38],[20.91,39.06],[20.74,38.8],[20.97,38.74],[21.19,38.42],[21.74,38.35],[21.73,38.16],[21.42,38.16],[21.24,37.84],[21.7,37.51],[21.68,37.19],[21.74,36.87],[21.9,36.87],[21.91,37.06],[22.22,37.06],[22.36,36.67],[22.51,36.67],[22.6,36.87],[22.83,36.87],[23.06,36.67],[22.85,37.25],[22.7,37.32],[22.71,37.58],[22.95,37.58],[23.18,37.45],[23.17,37.32],[23.4,37.32],[23.34,37.64],[23.11,37.64],[23.04,37.9],[23.21,38.03],[23.44,38.03],[23.98,37.84],[24,38.22],[24.16,38.22],[24.18,38.55],[24.03,38.67],[23.56,38.74],[23.63,38.48],[23.31,38.48],[23.17,38.67],[22.94,38.74],[23.03,38.93],[23.33,38.8],[23.49,38.87],[22.96,39.13],[22.8,39.06],[22.82,39.38],[23.14,39.45],[22.61,39.9],[22.54,40.1],[22.57,40.55],[22.89,40.61],[22.96,40.42],[23.74,40.23],[23.84,40.55],[23.68,40.61],[23.7,40.81],[24.01,40.74],[24.35,41],[25.85,40.94],[26.08,40.87],[26.14,40.61],[26.55,40.74],[26.78,40.68],[26.77,40.55],[26.92,40.48],[27.02,40.68],[27.53,41.07],[29.12,41.07],[29.1,40.94],[29.39,40.68],[28.91,40.61],[28.9,40.48],[29.05,40.36],[27.94,40.36],[27.79,40.48],[27.7,40.29],[27.54,40.29],[27.47,40.42],[26.67,40.36],[26.6,40.48],[26.27,40.29],[26.13,39.51],[26.85,39.58],[26.74,39.26],[26.89,39.19],[26.96,39],[26.85,38.61],[27.08,38.55],[27.06,38.35],[26.59,38.35],[26.54,38.61],[26.38,38.67],[26.43,38.22],[26.82,38.22],[26.89,38.09],[27.28,38.03],[27.16,37.58],[27.31,37.45],[27.54,37.38],[27.6,37.13],[28.07,37.13],[28.14,37.06],[28.03,36.67],[28.19,36.67],[28.36,36.87],[28.59,36.87],[28.74,36.74],[29.12,36.74],[29.24,36.22],[29.94,36.22],[30.03,36.35],[30.49,36.35],[30.62,36.93],[31.09,36.93],[32.07,36.61],[32.5,36.22],[32.56,36.03],[32.71,36.03],[33.27,36.22],[33.98,36.29],[34.25,36.67],[34.58,36.87],[34.89,36.87],[34.95,36.67],[35.11,36.74],[35.33,36.61],[35.49,36.61],[35.83,36.93],[36.14,36.93],[36.29,36.8],[36.26,36.61],[35.84,36.29],[35.99,36.22],[35.84,35.58],[35.99,35.52],[35.93,34.87],[36.07,34.74],[36.05,34.55],[35.79,34.29],[35.64,34.36],[35.68,33.97],[35.45,33.91],[35.5,33.65],[35.35,33.65],[35.4,33.39],[35.22,33.07],[35.06,33.01],[35.02,32.62],[34.77,32.36],[34.81,31.98],[34.57,31.85],[34.64,31.72],[34.55,31.53],[34.31,31.4],[34.3,31.27],[33.98,31.14],[32.83,31.01],[32.77,31.14],[32.53,31.08],[32.39,31.21],[32.3,31.08],[32,31.08],[31.88,31.46],[31.27,31.46],[30.97,31.53],[30.81,31.46],[30.35,31.46],[30.34,31.27],[29.88,31.27],[29.87,31.08],[29.63,30.95],[29.49,31.01],[29.4,30.82],[28.87,30.82],[28.5,31.01],[27.51,31.14],[27.3,31.34],[26.85,31.46],[25.25,31.46],[25.1,31.59],[25.11,31.79],[24.89,31.98],[24.13,31.98],[23.68,32.17],[23.3,32.17],[23.08,32.36],[23.09,32.62],[21.88,32.94],[21.41,32.75],[21.11,32.81],[20.87,32.62],[20.56,32.56],[20.48,32.43],[20.33,32.49],[20.25,32.24],[20.09,32.11],[20,31.59],[20.21,31.27],[20.13,31.14],[20.2,30.89],[19.97,30.69],[19.96,30.56],[19.66,30.37],[19.27,30.24],[18.89,30.31],[18.81,30.05],[19.5,30.12],[19.65,30.24],[20.95,30.56],[21.94,30.56],[22.77,30.37],[23.51,29.99],[23.96,29.92],[24.33,29.67],[24.78,29.54],[24.85,29.34],[25,29.41],[25.15,29.28],[25.37,29.28],[25.59,28.96],[27.14,28.25],[28.15,27.35],[28.27,26.58],[28.35,26.58],[28.24,25.94],[28.29,25.16],[28.57,24.65],[29.67,24.2],[30.1,23.75],[30.4,23.56],[30.54,23.36],[31.67,23.75],[32.04,23.69],[33.39,23.81],[33.68,23.69],[33.76,23.69],[35.11,23.88],[35.55,23.81],[35.56,23.94],[35.85,23.88],[35.86,24.01],[35.15,24.65],[34.61,25.81],[34.46,25.87],[34.2,26.52],[34.05,26.58],[34.07,26.97],[33.93,27.03],[33.8,27.42],[33.59,27.61],[33.61,27.99],[33.11,28.38],[32.84,28.89],[32.69,28.96],[32.44,29.79],[32.59,29.73],[32.86,29.22],[33.15,29.02],[33.19,28.51],[33.4,28.32],[33.55,28.32],[33.62,28.12],[34.12,27.74],[34.35,27.74],[34.36,27.93],[34.52,28.06],[34.75,29.28],[34.91,29.41],[34.85,28.57],[34.61,28.25],[34.59,28.06],[35.2,28.06],[35.48,28.89],[35.64,29.02],[35.66,29.22],[35.81,29.22],[35.77,29.73],[35.85,29.73],[36.16,30.76],[36.4,30.95],[36.27,31.21],[36.42,31.21],[36.39,31.66],[36.75,32.3],[36.72,32.75],[36.9,33.07],[37.05,33.07],[37.07,33.26],[37.99,33.97],[39.12,34.49],[39.51,34.49],[40.1,34.29],[40.62,34.74],[40.77,34.74],[41.11,35],[41.09,36.03],[41.66,36.29],[41.68,36.42],[41.53,36.48],[41.55,36.61],[41.21,37],[41.13,38.09],[40.91,38.22],[40.97,38.61],[40.98,39.26],[41.26,39.51],[41.33,39.97],[41.48,39.97],[41.67,40.16],[41.7,40.36],[41.36,40.68],[41.53,41.26],[41.81,41.46],[41.84,41.65],[41.69,41.72]],[[22.91,38.22],[22.97,37.96],[22.66,37.96],[22.59,38.16],[22.44,38.22],[22.44,38.29],[22.29,38.42],[22.6,38.42],[22.51,38.22],[22.84,38.35],[22.91,38.22]]],[[[34.09,35],[33.96,35.26],[34.53,35.58],[34.54,35.71],[34.31,35.71],[33.74,35.39],[32.89,35.39],[32.88,35.26],[32.55,35.13],[32.25,35.13],[32.23,34.94],[32.37,34.74],[33.04,34.55],[33.13,34.68],[33.52,34.74],[33.7,34.94],[34.09,35]]],[[[27.74,35.9],[28.14,36.03],[28.25,36.48],[28.02,36.48],[27.69,36.29],[27.74,35.9]]],[[[27.12,36.93],[27.04,36.93],[26.87,36.67],[27.19,36.8],[27.12,36.93]]],[[[25.34,37.13],[25.33,37],[25.56,37],[25.57,37.13],[25.34,37.13]]],[[[25.99,37.51],[26.3,37.58],[26.31,37.71],[26.08,37.71],[25.99,37.51]]],[[[25.9,38.48],[25.88,38.16],[26.11,38.16],[26.22,38.55],[25.91,38.67],[25.9,38.48]]],[[[26.09,39],[26.25,38.93],[26.64,39],[26.51,39.32],[26.04,39.38],[25.79,39.19],[26.1,39.13],[26.09,39]]],[[[25.72,40.29],[25.7,40.1],[26.02,40.16],[26.04,40.29],[25.72,40.29]]],[[[33.47,44.65],[33.52,44.45],[33.93,44.45],[34.38,44.78],[34.55,44.84],[35.3,44.97],[35.43,45.3],[35.02,45.3],[34.99,45.63],[34.74,45.63],[34.6,45.76],[34.62,45.89],[34.38,45.96],[34.32,46.09],[33.74,46.02],[33.71,45.82],[32.61,45.5],[33.61,45.1],[33.55,44.65],[33.47,44.65]]]]},"properties":{"NAME":"Eastern Roman Empire","C":11,"name":"Eastern Roman Empire","start_year":490,"end_year":509,"capital":"","type":"polity","region":"","event":"","source":"Cliopatria / Seshat Global History Databank (CC BY 4.0)","wikipedia":"Byzantine Empire","wikidata":"Q12544","_a":625,"_c":[28.09,34.73],"_nz":"东罗马帝国","_sz":""}},
{"type":"Feature","geometry":{"type":"Polygon","coordinates":[[[-9.37,39.26],[-9.45,39.26],[-9.55,38.74],[-9.38,38.61],[-9.23,38.67],[-9.21,38.42],[-8.82,38.48],[-8.82,37.58],[-8.9,37.58],[-9,37],[-8.7,37.13],[-8.31,37.13],[-8.07,37],[-7.68,37],[-7.45,37.13],[-7.47,37.25],[-6.84,37.25],[-6.59,37],[-6.35,36.93],[-6.33,36.67],[-6.06,36.22],[-5.83,36.22],[-5.66,36.03],[-5.29,36.22],[-5.23,36.48],[-4.69,36.55],[-4.47,36.74],[-2.68,36.74],[-2.53,36.87],[-2.06,36.8],[-1.86,37.32],[-1.71,37.45],[-0.7,37.64],[-0.8,38.03],[-0.66,38.29],[0.1,38.74],[-0.31,39.13],[-0.35,39.71],[-0.13,40.03],[0.18,40.16],[0.25,40.42],[0.71,40.68],[0.7,40.94],[1.24,41.2],[2.11,41.33],[2.33,41.59],[2.57,41.59],[3.12,41.91],[3.18,42.37],[3.01,42.56],[2.98,43.15],[3.14,43.28],[3.62,43.41],[3.85,43.6],[4.17,43.6],[4.18,43.47],[5.06,43.47],[5.39,43.41],[5.39,43.28],[5.63,43.28],[5.8,43.15],[6.28,43.15],[6.6,43.28],[6.67,43.47],[6.99,43.54],[7.15,43.73],[7.47,43.8],[6.81,44.52],[6.09,44.39],[5.86,43.93],[5.05,43.99],[4.39,44.25],[4.22,44.39],[4.13,44.65],[3.97,44.71],[4.04,44.97],[3.87,45.17],[3.86,45.43],[3.08,46.48],[3.23,46.74],[2.97,47.07],[3.03,47.33],[2.95,47.47],[2.02,47.73],[1.31,47.2],[0,47.2],[-0.27,47.47],[-1.18,47.47],[-1.41,47.27],[-2.23,47.27],[-2.14,47.14],[-2.19,46.81],[-1.67,46.35],[-1.25,46.28],[-1.21,45.76],[-1.05,45.69],[-1.03,45.5],[-1.19,45.43],[-1.25,45.17],[-1.21,44.52],[-1.35,44.25],[-1.32,43.86],[-1.4,43.86],[-1.46,43.54],[-1.76,43.28],[-1.52,43.21],[-1.42,43.02],[-1.26,42.95],[-1.33,42.82],[-1.81,42.76],[-2.13,42.82],[-2.28,42.63],[-2.53,42.76],[-2.68,42.63],[-3.72,42.63],[-5.73,42.76],[-5.78,42.43],[-5.9,41.98],[-6.13,41.85],[-6.25,41.46],[-6.85,41.07],[-6.86,40.29],[-7.93,39.84],[-8.47,39.77],[-8.76,39.45],[-8.91,39.45],[-8.97,39.26],[-9.37,39.26]]]},"properties":{"NAME":"Visigothic Kingdom","C":2,"name":"Visigothic Kingdom","start_year":490,"end_year":509,"capital":"","type":"polity","region":"","event":"","source":"Cliopatria / Seshat Global History Databank (CC BY 4.0)","wikipedia":"Visigothic Kingdom","wikidata":"Q126936","_a":199,"_c":[-1.04,41.88],"_nz":"西哥特王国","_sz":""}},
{"type":"Feature","geometry":{"type":"Polygon","coordinates":[[[-1.37,50.85],[-0.27,50.78],[0.74,50.85],[0.74,50.91],[0.56,51.05],[0.22,51.05],[0.05,51.11],[-1.15,51.25],[-1.47,51.05],[-1.37,50.85]]]},"properties":{"NAME":"Kingdom of Sussex","C":1,"name":"Kingdom of Sussex","start_year":490,"end_year":691,"capital":"","type":"polity","region":"","event":"","source":"Cliopatria / Seshat Global History Databank (CC BY 4.0)","wikipedia":"Kingdom of Sussex","wikidata":"Q676184","_a":1,"_c":[-0.36,51.02],"_nz":"苏塞克斯王国","_sz":""}},
{"type":"Feature","geometry":{"type":"Polygon","coordinates":[[[16.91,48.26],[16.84,48.52],[16.93,48.72],[16.85,48.79],[16.1,48.79],[15.19,49.05],[14.94,49.05],[14.68,48.65],[14.1,48.65],[13.86,48.85],[13.69,48.85],[13.68,48.59],[13.76,48.46],[14.26,48.26],[16.83,48.26],[16.91,48.26]]]},"properties":{"NAME":"Lombards","C":4,"name":"Lombards","start_year":500,"end_year":539,"capital":"","type":"polity","region":"","event":"","source":"Cliopatria / Seshat Global History Databank (CC BY 4.0)","wikipedia":"Lombards","wikidata":"Q130900","_a":3,"_c":[15.31,48.66],"_nz":"伦巴第人","_sz":""}},
{"type":"Feature","geometry":{"type":"Polygon","coordinates":[[[6.43,49.71],[6.35,49.52],[6.18,49.45],[5.76,49.58],[5.44,49.18],[5.45,48.92],[4.78,48.99],[4.43,49.38],[4.32,49.98],[4.31,50.25],[4.48,50.25],[4.64,50.38],[4.64,50.51],[4.97,50.58],[5.05,50.71],[5.89,50.71],[5.97,50.78],[5.96,51.18],[6.2,51.51],[5.94,51.78],[4.41,51.71],[4.16,51.71],[4.26,51.38],[4.09,51.31],[3.42,51.31],[3.41,51.45],[3.16,51.45],[2.58,51.18],[1.66,51.05],[1.42,50.71],[1.45,50.25],[1.05,49.98],[0.22,49.85],[-0.01,49.65],[0.01,49.38],[-1.25,49.45],[-1.36,49.78],[-2.03,49.78],[-1.91,49.38],[-1.65,49.25],[-1.72,49.05],[-1.6,48.65],[-1.67,48.46],[-1.65,48.19],[-1.8,47.99],[-2.45,47.86],[-2.84,47.6],[-2.58,47.47],[-2.56,47.27],[-2.23,47.27],[-1.41,47.27],[-1.18,47.47],[-0.27,47.47],[0,47.2],[1.31,47.2],[2.02,47.73],[2.95,47.47],[3.92,47.73],[4.67,47.73],[4.76,47.47],[5.18,47.33],[5.18,47.2],[5.51,47.07],[5.59,47.14],[5.58,47.66],[5.82,47.73],[5.82,47.86],[6.31,47.99],[6.98,47.86],[7.07,47.53],[7.31,47.47],[7.48,47.27],[8.06,47.2],[8.39,46.94],[8.72,46.94],[9.13,47.27],[9.95,47.66],[9.95,47.86],[10.11,48.46],[11.03,48.79],[11.11,49.18],[10.86,49.25],[10.53,49.25],[9.78,49.45],[9.69,49.58],[9.44,49.58],[9.52,49.98],[9.27,50.25],[8.76,50.51],[8.43,50.31],[8.27,49.85],[7.09,49.91],[6.43,49.71]]]},"properties":{"NAME":"Salian Franks","C":9,"name":"Salian Franks","start_year":500,"end_year":509,"capital":"","type":"polity","region":"","event":"","source":"Cliopatria / Seshat Global History Databank (CC BY 4.0)","wikipedia":"Salian Franks","wikidata":"Q939852","_a":68,"_c":[4.14,49.36],"_nz":"萨利安法兰克人","_sz":""}},
{"type":"Feature","geometry":{"type":"Polygon","coordinates":[[[6.2,51.51],[5.96,51.18],[5.97,50.78],[5.89,50.71],[5.05,50.71],[4.97,50.58],[4.64,50.51],[4.64,50.38],[4.48,50.25],[4.31,50.25],[4.32,49.98],[4.43,49.38],[4.78,48.99],[5.45,48.92],[5.44,49.18],[5.76,49.58],[6.18,49.45],[6.35,49.52],[6.43,49.71],[6.17,49.91],[6.08,50.18],[6.4,50.45],[6.74,50.45],[6.99,50.58],[7.15,50.78],[7.15,50.98],[6.71,51.51],[6.2,51.51]]]},"properties":{"NAME":"Kingdom of the Franks","C":0,"name":"Kingdom of the Franks","start_year":500,"end_year":509,"capital":"","type":"polity","region":"","event":"","source":"Cliopatria / Seshat Global History Databank (CC BY 4.0)","wikipedia":"Francia","wikidata":"Q146246","_a":8,"_c":[5.7,50.22],"_nz":"法兰克王国","_sz":""}},
{"type":"Feature","geometry":{"type":"MultiPolygon","coordinates":[[[[110.18,18.48],[110.19,18.54],[110.51,18.67],[110.68,19.25],[110.85,19.38],[110.88,19.57],[111.03,19.57],[111.09,19.89],[110.91,20.15],[110.61,20.15],[110.59,20.02],[110.16,20.09],[109.25,19.96],[109.2,19.7],[108.7,19.38],[108.64,18.54],[108.76,18.41],[109.12,18.35],[109.25,18.22],[109.84,18.22],[109.86,18.35],[110.18,18.48]]],[[[106.95,17.26],[106.75,17.39],[106.77,17.51],[106.57,17.64],[106.57,18.09],[106.29,18.22],[106.18,18.41],[105.73,18.86],[105.97,19.83],[106.54,20.15],[106.69,20.6],[106.83,20.6],[106.96,20.92],[107.42,20.99],[107.79,21.44],[108.56,21.56],[108.65,21.69],[109.09,21.63],[109.12,21.37],[109.81,21.5],[109.87,21.44],[109.7,20.86],[109.77,20.86],[109.79,20.54],[109.93,20.47],[109.88,20.21],[110.49,20.28],[110.62,20.6],[110.36,20.86],[110.48,21.11],[110.72,21.18],[110.74,21.31],[110.98,21.44],[111.66,21.5],[111.86,21.76],[112.44,21.69],[112.77,21.89],[113.07,21.89],[113.11,22.08],[113.32,22.01],[113.42,22.14],[113.64,22.14],[113.7,22.46],[113.6,22.72],[113.75,22.72],[113.79,22.53],[114,22.46],[114,22.08],[114.37,22.08],[114.53,22.14],[114.64,22.72],[114.75,22.53],[114.9,22.53],[115.17,22.79],[115.37,22.66],[115.67,22.66],[115.7,22.79],[116.54,22.91],[116.59,23.17],[116.81,23.17],[116.78,23.36],[116.89,23.56],[117.18,23.49],[117.47,23.81],[117.69,23.81],[117.72,23.94],[118.08,24.2],[118.15,24.52],[118.76,24.59],[118.82,24.84],[119.07,24.97],[119.03,25.1],[119.34,25.16],[119.47,25.36],[119.87,25.49],[119.9,25.62],[119.53,25.62],[119.78,26],[119.59,26.13],[119.94,26.32],[119.84,26.52],[120.16,26.58],[120.25,26.9],[120.39,27.16],[120.55,27.16],[120.73,27.54],[120.71,27.74],[120.87,27.99],[121.04,28.06],[121.15,28.19],[121.65,28.32],[121.65,28.57],[121.52,28.64],[121.71,28.77],[121.74,29.09],[121.54,29.15],[121.59,29.54],[121.8,29.47],[121.71,29.22],[121.94,29.22],[121.93,29.41],[122.02,29.67],[121.86,29.67],[122.03,29.92],[121.62,30.05],[121.48,30.31],[121.1,30.31],[120.81,30.12],[120.68,30.18],[121.05,30.56],[121.2,30.56],[121.52,30.82],[121.9,30.82],[122,31.08],[121.74,31.4],[121.58,31.4],[121.45,31.66],[120.92,31.85],[121.58,31.79],[121.68,31.66],[121.84,31.66],[121.99,31.85],[121.78,32.11],[121.5,32.17],[121.4,32.49],[120.92,32.62],[120.93,33.2],[120.55,33.59],[120.49,34.16],[120.34,34.36],[119.98,34.42],[119.73,34.55],[119.71,34.68],[119.23,34.81],[118.8,34.36],[118.05,33.84],[116.86,33.39],[116.22,33.33],[116.02,33.2],[114.08,33.14],[113.95,33.01],[113.82,33.07],[113.44,32.88],[111.62,32.49],[111.24,32.3],[110.17,32.3],[109.91,32.43],[109.88,32.56],[109.5,32.56],[109.16,32.88],[108.24,32.88],[108.1,33.14],[107.88,32.94],[107.65,32.94],[107.67,33.2],[107.48,33.33],[106.75,33.2],[106.56,33.33],[105.95,33.33],[105.7,33.07],[105.17,33.07],[104.7,33.26],[103.21,33.39],[102.55,33.26],[101.69,32.75],[100.98,31.01],[101.06,31.01],[100.89,29.92],[100.96,29.67],[100.88,29.09],[101.02,28.77],[101.03,28.51],[100.92,28.06],[101.05,27.99],[101.01,27.54],[101.09,27.54],[101.2,26.39],[101.4,25.94],[101.46,25.16],[101.81,24.26],[102.09,24.14],[102.32,23.81],[102.47,23.81],[102.85,23.43],[103.43,23.3],[104.9,23.24],[104.96,23.11],[105.36,23.3],[105.69,23.04],[105.51,22.85],[105.21,22.85],[105.24,22.59],[104.87,22.21],[105.13,21.95],[105.1,21.76],[104.93,21.63],[104.98,21.5],[104.85,21.18],[105.1,20.86],[104.87,20.86],[104.91,20.6],[104.62,20.66],[104.44,20.47],[104.98,20.15],[104.86,19.89],[104.99,19.76],[105.02,18.99],[105.14,18.86],[105.19,18.67],[105.14,18.41],[106.42,17.13],[106.4,17],[106.53,16.94],[106.95,17.26]]],[[[122.27,30.18],[122.05,30.18],[121.98,29.99],[122.28,29.99],[122.27,30.18]]]]},"properties":{"NAME":"Southern Qi","C":4,"name":"Southern Qi","start_year":500,"end_year":509,"capital":"","type":"polity","region":"","event":"","source":"Cliopatria / Seshat Global History Databank (CC BY 4.0)","wikipedia":"Southern Qi","wikidata":"Q62456","_a":382,"_c":[111.58,25.88],"_nz":"南齐","_sz":""}},
{"type":"Feature","geometry":{"type":"Polygon","coordinates":[[[11.55,51.78],[11.8,51.98],[11.55,52.18],[11.64,52.32],[11.82,53.12],[11.47,53.12],[11.48,53.26],[10.96,53.33],[10.88,53.73],[11.14,53.94],[11.14,54.07],[9.58,54.07],[9.32,54.14],[9.15,54.34],[8.97,54.34],[8.97,54.55],[8.8,54.55],[8.54,54.41],[8.54,54.27],[8.8,54.21],[8.89,53.87],[8.37,53.87],[8.38,53.33],[7.44,53.06],[7.1,53.12],[7.02,52.92],[6.95,52.25],[6.7,52.05],[6.7,51.98],[7.3,51.71],[7.39,51.45],[7.65,51.31],[7.65,51.18],[8.34,50.71],[8.84,51.05],[9.43,51.25],[10.1,51.45],[10.27,51.65],[10.53,51.65],[10.87,51.92],[11.55,51.78]]]},"properties":{"NAME":"Saxons","C":6,"name":"Saxons","start_year":500,"end_year":533,"capital":"","type":"polity","region":"","event":"","source":"Cliopatria / Seshat Global History Databank (CC BY 4.0)","wikipedia":"Saxons","wikidata":"Q101985","_a":20,"_c":[9.26,52.63],"_nz":"萨克森人","_sz":""}},
{"type":"Feature","geometry":{"type":"MultiPolygon","coordinates":[[[[10.46,42.89],[10.13,42.89],[10.21,42.69],[10.46,42.69],[10.46,42.89]]],[[[16.91,48.26],[16.83,48.26],[14.26,48.26],[13.76,48.46],[13.68,48.59],[12.94,48.72],[12.11,49.18],[11.69,49.12],[11.61,48.99],[11.03,48.79],[10.11,48.46],[9.95,47.86],[9.95,47.66],[9.13,47.27],[8.72,46.94],[8.64,46.68],[8.08,46.22],[8.08,46.09],[7.52,45.76],[7.44,45.56],[7.11,45.43],[7.04,45.24],[6.63,45.1],[6.64,44.97],[6.88,44.91],[6.89,44.71],[6.81,44.52],[7.47,43.8],[8.03,43.93],[8.19,44.19],[8.59,44.45],[9.16,44.45],[9.73,44.12],[10.13,44.06],[10.37,43.67],[10.54,43.08],[11.02,42.82],[11.02,42.63],[11.18,42.63],[11.26,42.43],[11.65,42.37],[11.81,42.11],[12.13,42.04],[12.13,41.91],[13,41.33],[13.71,41.26],[13.79,41.13],[13.95,41.13],[14.1,40.87],[14.42,40.87],[14.42,40.68],[14.89,40.68],[15.04,40.23],[15.2,40.23],[15.43,40.03],[15.75,40.03],[15.67,39.9],[15.9,39.77],[16.12,39.06],[16.27,38.93],[16.27,38.74],[15.95,38.67],[15.86,38.29],[14.06,37.96],[13.67,37.96],[13.35,38.16],[13.12,38.16],[13.04,38.03],[12.65,38.09],[12.49,37.9],[12.49,37.71],[13.19,37.58],[13.58,37.25],[14.28,37.13],[14.66,36.74],[15.05,36.74],[15.21,37],[15.21,37.19],[15.06,37.25],[15.07,37.64],[15.39,38.16],[15.62,38.16],[15.7,37.96],[15.93,37.96],[16.49,38.42],[16.5,38.8],[17.14,39.06],[17.07,39.38],[16.92,39.51],[16.45,39.64],[16.46,39.97],[16.7,40.1],[16.62,40.29],[16.86,40.29],[17.03,40.55],[17.35,40.55],[17.42,40.36],[17.81,40.36],[18.11,39.9],[18.35,39.9],[18.44,40.16],[17.98,40.61],[17.51,40.74],[17.2,41],[15.94,41.39],[15.87,41.72],[16.11,41.78],[16.12,41.91],[15.24,41.91],[15.17,42.04],[14.92,41.98],[14.61,42.11],[14.06,42.5],[13.9,42.76],[13.99,42.95],[13.75,43.08],[13.67,43.41],[13.36,43.67],[12.87,43.8],[12.31,44.19],[12.15,44.45],[12.16,44.84],[12.4,44.78],[12.4,45.04],[12.16,45.17],[12.16,45.5],[12.65,45.56],[12.82,45.69],[13.06,45.63],[13.14,45.82],[13.71,45.76],[13.71,45.5],[13.55,45.5],[13.54,45.3],[13.71,45.24],[13.78,44.91],[13.95,45.04],[14.19,45.04],[14.2,45.37],[14.6,45.37],[14.52,45.1],[14.92,44.97],[14.91,44.58],[15.15,44.39],[15.22,44.06],[15.62,43.93],[15.86,43.8],[16.01,43.6],[15.93,43.47],[16.58,43.6],[16.73,43.54],[16.73,43.34],[17.05,43.41],[17.12,43.15],[17.37,43.21],[17.36,42.95],[17.83,42.89],[18.14,42.63],[18.85,42.37],[19.01,42.24],[19.17,42.3],[19.11,42.82],[19.46,43.28],[19.3,43.41],[19.31,43.6],[19.47,43.6],[19.41,43.93],[19.66,44.06],[19.67,44.25],[19.92,44.45],[19.94,44.71],[20.29,45.24],[20.3,45.3],[19.24,45.3],[19,45.37],[19,45.5],[19.01,45.63],[18.85,45.76],[19.05,46.41],[18.9,46.61],[18.91,46.81],[18.83,47.01],[19.17,47.07],[19.09,47.2],[19.27,47.47],[18.95,47.66],[18.96,47.8],[18.8,47.93],[18.63,47.8],[17.63,47.8],[17.07,48.06],[16.91,48.26]]],[[[14.51,44.91],[14.27,44.97],[14.26,44.58],[14.5,44.52],[14.51,44.91]]]]},"properties":{"NAME":"Ostrogothic Kingdom","C":10,"name":"Ostrogothic Kingdom","start_year":500,"end_year":509,"capital":"","type":"polity","region":"","event":"","source":"Cliopatria / Seshat Global History Databank (CC BY 4.0)","wikipedia":"Ostrogothic Kingdom","wikidata":"Q583038","_a":170,"_c":[13.47,42.96],"_nz":"东哥特王国","_sz":""}},
{"type":"Feature","geometry":{"type":"Polygon","coordinates":[[[6.81,44.52],[6.89,44.71],[6.88,44.91],[6.64,44.97],[6.63,45.1],[7.04,45.24],[7.11,45.43],[7.44,45.56],[7.52,45.76],[8.08,46.09],[8.08,46.22],[8.64,46.68],[8.72,46.94],[8.39,46.94],[8.06,47.2],[7.48,47.27],[7.31,47.47],[7.07,47.53],[6.98,47.86],[6.31,47.99],[5.82,47.86],[5.82,47.73],[5.58,47.66],[5.59,47.14],[5.51,47.07],[5.18,47.2],[5.18,47.33],[4.76,47.47],[4.67,47.73],[3.92,47.73],[2.95,47.47],[3.03,47.33],[2.97,47.07],[3.23,46.74],[3.08,46.48],[3.86,45.43],[3.87,45.17],[4.04,44.97],[3.97,44.71],[4.13,44.65],[4.22,44.39],[4.39,44.25],[5.05,43.99],[5.86,43.93],[6.09,44.39],[6.81,44.52]]]},"properties":{"NAME":"Burgundian Kingdom","C":6,"name":"Burgundian Kingdom","start_year":500,"end_year":509,"capital":"","type":"polity","region":"","event":"","source":"Cliopatria / Seshat Global History Databank (CC BY 4.0)","wikipedia":"Kingdom of the Burgundians","wikidata":"Q13590051","_a":23,"_c":[5.84,45.96],"_nz":"勃艮第王国","_sz":""}},
{"type":"Feature","geometry":{"type":"Polygon","coordinates":[[[48.92,39.19],[49.15,39.19],[49.27,39.38],[49.51,40.23],[49.69,40.36],[50.26,40.42],[50.05,40.55],[49.51,40.61],[49.24,40.87],[49.27,41],[49.06,41.13],[49.09,41.26],[48.56,41.78],[48.12,41.59],[47.99,41.33],[47.5,41.26],[47.35,41.33],[46.82,41.85],[46.43,41.91],[46.23,42.11],[45.68,42.17],[45.7,42.24],[45.54,42.24],[45.31,41.91],[45.07,41.91],[44.77,41.59],[44.35,41.46],[44.24,41.26],[45.11,41.26],[45.3,41],[45.6,40.87],[45.46,40.55],[45.59,40.42],[46.2,40.29],[46.26,40.16],[46.48,40.1],[46.46,39.97],[46.77,39.97],[47.07,39.84],[47.12,39.71],[47.53,39.77],[47.74,39.64],[48.53,39.64],[48.81,39.45],[48.78,39.32],[48.92,39.19]]]},"properties":{"NAME":"Caucasian Albania","C":4,"name":"Caucasian Albania","start_year":500,"end_year":509,"capital":"","type":"polity","region":"","event":"","source":"Cliopatria / Seshat Global History Databank (CC BY 4.0)","wikipedia":"Caucasian Albania","wikidata":"Q177076","_a":18,"_c":[47.25,40.72],"_nz":"高加索阿尔巴尼亚","_sz":""}},
{"type":"Feature","geometry":{"type":"Polygon","coordinates":[[[9.27,50.25],[9.18,50.71],[9.35,50.85],[9.43,51.25],[8.84,51.05],[8.34,50.71],[7.65,51.18],[7.65,51.31],[7.39,51.45],[7.3,51.71],[6.7,51.98],[6.7,52.05],[6.95,52.25],[7.02,52.92],[6.93,52.92],[6.67,53.19],[6.49,53.19],[6.24,53.06],[6.25,52.79],[5.65,52.65],[5.56,52.92],[4.89,52.65],[4.81,52.38],[4.56,52.32],[4.65,52.12],[4.41,51.71],[5.94,51.78],[6.2,51.51],[6.71,51.51],[7.15,50.98],[7.15,50.78],[6.99,50.58],[6.74,50.45],[6.4,50.45],[6.08,50.18],[6.17,49.91],[6.43,49.71],[7.09,49.91],[8.27,49.85],[8.43,50.31],[8.76,50.51],[9.27,50.25]]]},"properties":{"NAME":"Ripuarian Franks","C":0,"name":"Ripuarian Franks","start_year":500,"end_year":509,"capital":"","type":"polity","region":"","event":"","source":"Cliopatria / Seshat Global History Databank (CC BY 4.0)","wikipedia":"Ripuarian Franks","wikidata":"Q316860","_a":17,"_c":[6.92,51.45],"_nz":"里普利安法兰克人","_sz":""}},
{"type":"Feature","geometry":{"type":"MultiPolygon","coordinates":[[[[11.83,54.66],[12.17,54.84],[11.71,54.94],[11.56,54.82],[11.14,54.95],[10.99,54.79],[11.45,54.62],[11.83,54.66]]],[[[10.62,55.61],[10.32,55.61],[9.69,55.5],[10.18,55.83],[10.24,56.17],[10.52,56.1],[10.75,56.16],[10.96,56.44],[10.31,56.58],[10.31,56.98],[9.97,57.07],[9.3,57],[9.07,56.81],[8.68,56.62],[8.74,56.49],[8.25,56.61],[8.14,56.11],[8.4,55.89],[8.19,55.81],[8.09,55.56],[8.62,55.43],[8.69,55.16],[8.66,54.91],[8.55,54.87],[8.92,54.56],[10.04,54.62],[9.93,54.78],[9.44,54.81],[9.6,54.93],[9.46,55.12],[9.68,55.19],[9.59,55.42],[9.68,55.49],[10.15,55.08],[10.68,55.06],[10.83,55.3],[10.62,55.61]]],[[[12.18,55.12],[12.46,55.29],[12.19,55.48],[12.6,55.7],[12.54,55.89],[12.62,56.04],[12.28,56.13],[11.51,55.87],[11.09,55.67],[11.25,55.2],[11.73,55.2],[11.73,55.06],[12.07,54.97],[12.18,55.12]]],[[[8.73,56.69],[8.88,56.8],[8.65,56.89],[8.51,56.74],[8.73,56.69]]],[[[8.58,56.69],[8.42,56.68],[8.68,56.95],[9.12,57.05],[10,57.09],[10.32,56.99],[10.53,57.22],[10.43,57.59],[9.96,57.59],[9.39,57.15],[8.62,57.12],[8.26,56.83],[8.24,56.7],[8.55,56.59],[8.58,56.69]]],[[[14.75,59.86],[12.95,60.27],[12.11,60.6],[11.48,61.08],[10.96,61.92],[10.59,62.95],[11.08,63.7],[10.76,63.51],[10.06,63.42],[9.65,63.62],[8.48,63.29],[8.94,63.21],[8.16,63.12],[7.47,62.91],[7.27,63.01],[6.95,62.93],[6.95,62.72],[8.14,62.69],[7.54,62.5],[7.09,62.65],[5.55,62.08],[5.43,61.94],[6.76,61.87],[6.47,61.8],[5.42,61.91],[4.98,61.74],[4.97,61.63],[5.27,61.56],[4.95,61.41],[5.12,61.14],[6.43,61.11],[6.37,61.06],[5.01,61.04],[4.93,60.8],[5.29,60.52],[5.14,60.36],[5.41,60.13],[5.75,59.99],[5.7,59.83],[5.18,59.51],[5.28,59.35],[5.81,59.47],[6.13,59.26],[5.87,59.07],[5.56,59.03],[5.51,58.67],[6.01,58.38],[6.76,58.24],[6.78,58.11],[7.01,57.99],[8.13,58.1],[9.69,58.98],[9.88,58.95],[10.23,59.04],[10.37,59.27],[10.52,59.31],[10.26,59.53],[10.61,59.59],[10.76,59.22],[11.35,59.11],[11.11,59],[11.23,58.84],[11.2,58.4],[11.53,58.23],[11.88,58.2],[11.67,57.85],[11.89,57.69],[11.9,57.42],[12.09,57.43],[12.35,56.92],[12.92,56.58],[12.88,56.45],[12.62,56.42],[12.46,56.3],[13.06,55.68],[12.92,55.57],[12.98,55.4],[14.16,55.38],[14.37,55.54],[14.22,55.83],[14.69,56.16],[15.6,56.19],[15.87,56.09],[16.38,56.7],[16.5,57.04],[16.49,57.31],[16.69,57.48],[16.71,57.7],[16.59,57.96],[16.83,58.18],[16.77,58.37],[16.91,58.62],[17.35,58.75],[17.63,58.91],[17.89,58.86],[18.02,59.04],[18.31,59.13],[18.28,59.31],[17.35,59.32],[16.56,59.61],[18.09,59.33],[18.28,59.48],[19.07,59.74],[19.07,59.89],[18.82,60.1],[18.42,60.19],[17.94,60.6],[17.61,60.63],[16.84,60.21],[15.68,59.84],[14.75,59.86]]],[[[10.05,63.5],[10.94,63.74],[10.58,63.8],[11.33,64.11],[11.29,64.37],[10.97,64.6],[10.65,64.36],[10.17,64.19],[9.98,63.99],[9.63,63.81],[10.05,63.5]]],[[[11.69,64.81],[11.4,64.67],[11.73,64.58],[12.18,64.94],[11.69,64.81]]],[[[11.35,64.9],[11.37,64.81],[12.18,64.96],[12.21,65.05],[11.35,64.9]]],[[[14.99,55],[15.15,55.13],[14.75,55.29],[14.68,55.1],[14.99,55]]],[[[12.26,65.58],[12.06,65.21],[12.5,65.39],[12.26,65.58]]],[[[12.83,65.97],[12.35,65.64],[12.63,65.42],[12.25,65.23],[12.39,65.14],[12.94,65.32],[13.09,65.73],[13.58,66.21],[12.67,66.06],[12.83,65.97]]],[[[13.53,66.31],[13.91,66.29],[15.32,67.17],[15.06,67.21],[14.59,67.03],[13.55,66.93],[13.99,66.79],[13.23,66.71],[13.21,66.51],[13.02,66.32],[13.53,66.31]]],[[[14.73,67.49],[14.33,67.24],[15.41,67.24],[15.44,67.47],[14.73,67.49]]],[[[15.74,68.09],[15.87,67.92],[15.37,67.79],[15.18,67.62],[15.55,67.48],[15.96,67.55],[16.5,67.95],[16.22,68],[16.01,68.24],[15.74,68.09]]],[[[16.57,68.7],[16.45,68.84],[15.91,68.96],[15.63,68.94],[15.45,68.73],[15.19,68.52],[15.33,68.33],[15.93,68.37],[16.57,68.7]]],[[[14.63,68.83],[14.37,68.69],[14.5,68.6],[15.04,68.57],[15.36,68.66],[15.15,68.81],[14.63,68.83]]],[[[16.39,56.53],[16.5,56.24],[17.1,57.35],[16.39,56.53]]],[[[18.81,57.7],[19.03,57.83],[18.69,57.91],[18.12,57.53],[18.23,57.01],[18.71,57.24],[18.81,57.7]]],[[[16.34,68.07],[16.72,68],[17.19,68.34],[16.52,68.25],[16.34,68.07]]],[[[17.06,68.43],[17.51,68.52],[18.04,68.79],[18.01,68.9],[18.93,69.3],[18.54,69.3],[18.26,69.49],[18,69.28],[18.15,69.15],[17.69,69.11],[17.51,69.01],[17.84,68.87],[16.97,68.7],[16.47,68.51],[17.06,68.43]]],[[[15.42,68.9],[15.87,69.03],[15.56,69.1],[15.42,68.9]]],[[[17.13,69.08],[17.88,69.24],[18.09,69.42],[17.84,69.59],[17.47,69.6],[17.48,69.42],[17.1,69.32],[17.13,69.08]]],[[[19.13,69.72],[18.94,69.61],[19.16,69.38],[19.6,69.47],[19.13,69.72]]]]},"properties":{"NAME":"Scandinavian minor kingdoms","C":2,"name":"Scandinavian minor kingdoms","start_year":500,"end_year":522,"capital":"","type":"polity","region":"","event":"","source":"Cliopatria / Seshat Global History Databank (CC BY 4.0)","wikipedia":"Vendel Period","wikidata":"Q1275225","_a":225,"_c":[12.27,62.22],"_nz":"斯堪的纳维亚小王国","_sz":""}}
]}