{"type":"FeatureCollection","features":[{"type":"Feature","properties":{"NAME":"Byeonhan","C":0,"name":"Byeonhan","start_year":-91,"end_year":533,"capital":"无固定都城（弁韩诸部）","type":"polity","region":"korea","event":"","source":"Cliopatria / Seshat Global History Databank (CC BY 4.0)","wikipedia":"Byeonhan confederacy","wikidata":"Q1378584","_a":2,"_c":[128.4,35.25],"_nz":"弁韩","_sz":""},"geometry":{"type":"Polygon","coordinates":[[[128.92,35.07],[128.88,35],[129.15,35.07],[129.32,35.26],[129.35,35.32],[129.07,35.39],[129.01,35.58],[128.62,35.58],[128.61,35.71],[128.22,35.71],[128.21,35.84],[127.93,35.9],[127.56,35.45],[127.63,35.45],[127.45,35.07],[127.57,35],[127.45,34.74],[127.55,34.61],[127.62,34.61],[127.76,34.74],[128.07,34.74],[128.08,34.94],[128.31,34.94],[128.33,34.81],[128.68,34.74],[128.81,35],[128.5,35],[128.64,35.13],[128.87,35.13],[128.84,35.07],[128.92,35.07]]]}},{"type":"Feature","properties":{"NAME":"Pyu City-States","C":4,"name":"Pyu City-States","start_year":84,"end_year":849,"capital":"","type":"polity","region":"","event":"","source":"Cliopatria / Seshat Global History Databank (CC BY 4.0)","wikipedia":"Pyu city-states","wikidata":"Q1627675","_a":14,"_c":[95.68,21.18],"_nz":"骠国城邦","_sz":""},"geometry":{"type":"MultiPolygon","coordinates":[[[[96.83,22.14],[96.95,21.95],[96.82,21.56],[96.89,21.56],[96.82,21.11],[96.75,21.11],[96.79,20.86],[96.62,20.73],[96.71,20.34],[96.48,20.28],[96.58,19.96],[96.4,19.76],[96.42,19.38],[96.19,18.86],[95.84,18.48],[95.69,18.48],[95.68,18.35],[95.09,18.35],[94.85,18.8],[94.89,19.06],[94.73,19.44],[94.84,19.7],[94.61,20.21],[94.65,20.47],[94.41,20.86],[94.55,21.82],[94.72,21.95],[94.66,22.08],[95.29,23.69],[96.17,24.01],[96.59,23.88],[96.87,23.3],[96.78,22.79],[96.86,22.79],[96.84,22.21],[96.83,22.14]]],[[[96.72,23.75],[96.73,23.81],[96.8,23.81],[96.79,23.75],[96.72,23.75]]],[[[96.65,23.81],[96.67,23.88],[96.74,23.88],[96.73,23.81],[96.65,23.81]]]]}},{"type":"Feature","properties":{"NAME":"Teotihuacan","C":3,"name":"Teotihuacan","start_year":106,"end_year":655,"capital":"","type":"polity","region":"","event":"","source":"Cliopatria / Seshat Global History Databank (CC BY 4.0)","wikipedia":"Teotihuacan","wikidata":"Q172613","_a":1,"_c":[-98.5,19.28],"_nz":"特奥蒂瓦坎","_sz":""},"geometry":{"type":"Polygon","coordinates":[[[-98.87,19.19],[-98.51,18.86],[-98.29,18.86],[-98.2,19.19],[-98.05,19.19],[-98.02,19.38],[-98.42,19.57],[-98.44,19.7],[-98.74,19.7],[-98.72,19.57],[-98.88,19.64],[-98.84,19.44],[-98.99,19.44],[-98.86,19.12],[-98.87,19.19]]]}},{"type":"Feature","properties":{"NAME":"Chámpa","C":6,"name":"Chámpa","start_year":207,"end_year":545,"capital":"","type":"polity","region":"","event":"","source":"Cliopatria / Seshat Global History Databank (CC BY 4.0)","wikipedia":"Champa","wikidata":"Q216786","_a":17,"_c":[108.02,14.37],"_nz":"占婆","_sz":""},"geometry":{"type":"Polygon","coordinates":[[[108.24,13.34],[108.16,13.34],[108.28,13.66],[108.05,14.17],[108.11,14.62],[107.99,14.81],[108.02,15.01],[107.88,15.07],[107.9,15.2],[107.67,15.14],[107.63,15.39],[107.22,15.65],[107.25,15.84],[107.5,16.04],[107.02,16.23],[106.97,16.42],[106.75,16.42],[106.52,16.87],[106.53,16.94],[106.95,17.26],[107.03,17.26],[107.29,17.06],[107.33,16.87],[107.48,16.87],[107.67,16.68],[107.72,16.49],[107.86,16.49],[107.84,16.36],[108.14,16.36],[108.33,16.16],[108.37,15.91],[108.7,15.65],[108.68,15.52],[109.02,15.33],[108.97,15.01],[109.16,14.75],[109.18,14.36],[109.35,14.04],[109.33,13.27],[109.51,12.95],[109.47,12.56],[109.32,12.56],[109.23,12.37],[109.21,11.6],[109.05,11.47],[108.62,11.54],[108.5,11.73],[108.14,11.79],[108.08,11.92],[108.1,12.12],[108.25,12.18],[108.35,13.08],[108.24,13.34]]]}},{"type":"Feature","properties":{"NAME":"Zapotec Civilization","C":5,"name":"Zapotec Civilization","start_year":207,"end_year":509,"capital":"","type":"polity","region":"","event":"","source":"Cliopatria / Seshat Global History Databank (CC BY 4.0)","wikipedia":"Zapotec civilization","wikidata":"Q844750","_a":9,"_c":[-96.31,16.81],"_nz":"萨波特克文明","_sz":""},"geometry":{"type":"MultiPolygon","coordinates":[[[[-95.59,17.32],[-95.07,17.32],[-94.6,17.13],[-94.38,16.68],[-94.63,16.42],[-94.54,16.29],[-94.85,16.36],[-94.95,16.1],[-96.21,15.65],[-96.73,15.65],[-97.05,15.84],[-97.72,15.91],[-98.05,16.1],[-98.04,16.55],[-97.77,16.68],[-97.9,17],[-98.03,16.94],[-98.02,17.32],[-98.23,17.64],[-98.25,17.77],[-98.06,17.96],[-97.54,17.96],[-96.91,17.71],[-96.61,17.71],[-96.28,17.51],[-95.99,17.51],[-95.66,17.32],[-95.59,17.32]]],[[[-94.77,17.26],[-94.84,17.26],[-94.85,17.32],[-94.78,17.32],[-94.77,17.26]]]]}},{"type":"Feature","properties":{"NAME":"Funan","C":0,"name":"Funan","start_year":238,"end_year":545,"capital":"","type":"polity","region":"","event":"","source":"Cliopatria / Seshat Global History Databank (CC BY 4.0)","wikipedia":"Funan","wikidata":"Q867782","_a":41,"_c":[105.37,11.27],"_nz":"扶南","_sz":""},"geometry":{"type":"Polygon","coordinates":[[[108.35,13.08],[108.24,13.34],[106.3,13.08],[106.24,13.21],[105.88,13.21],[105.54,13.47],[103.21,13.59],[101.87,14.04],[101.68,13.08],[101.81,12.95],[101.78,12.63],[102.11,12.31],[102.26,12.31],[102.22,11.99],[102.44,11.99],[102.6,12.12],[102.87,11.86],[102.84,11.6],[103.05,11.47],[103.06,10.83],[103.36,10.83],[103.6,11.09],[103.64,10.77],[103.49,10.7],[103.53,10.48],[104.01,9.87],[104.16,10.56],[104.53,10.09],[105.03,9.99],[104.79,9.74],[104.71,8.77],[104.86,8.77],[104.7,8.64],[104.77,8.51],[105.14,8.58],[105.62,9.16],[106.14,9.29],[106.23,9.48],[106.6,9.54],[106.55,9.8],[106.7,9.8],[106.64,9.99],[106.8,10.06],[106.81,10.19],[106.67,10.25],[106.82,10.32],[106.76,10.44],[106.98,10.51],[107,10.7],[107.07,10.7],[107.05,10.44],[107.34,10.38],[108.03,10.7],[108.12,10.89],[108.57,11.02],[108.58,11.15],[108.73,11.15],[109.05,11.41],[108.62,11.54],[108.5,11.73],[108.14,11.79],[108.1,12.12],[108.25,12.18],[108.35,13.08]]]}},{"type":"Feature","properties":{"NAME":"Tamna","C":11,"name":"Tamna","start_year":263,"end_year":681,"capital":"无固定城邑","type":"polity","region":"korea","event":"","source":"Cliopatria / Seshat Global History Databank (CC BY 4.0)","wikipedia":"Tamna","wikidata":"Q28057","_a":0,"_c":[126.57,33.4],"_nz":"耽罗","_sz":""},"geometry":{"type":"Polygon","coordinates":[[[126.78,33.26],[127,33.59],[126.36,33.52],[126.14,33.2],[126.7,33.26],[126.78,33.26]]]}},{"type":"Feature","properties":{"NAME":"Mayan City-States","C":2,"name":"Mayan City-States","start_year":299,"end_year":554,"capital":"","type":"polity","region":"","event":"","source":"Cliopatria / Seshat Global History Databank (CC BY 4.0)","wikipedia":"Maya civilization","wikidata":"Q28567","_a":57,"_c":[-90.27,17.61],"_nz":"玛雅城邦","_sz":""},"geometry":{"type":"Polygon","coordinates":[[[-86.72,20.92],[-86.75,21.5],[-86.92,21.63],[-87.22,21.63],[-87.34,21.5],[-88.48,21.63],[-89.18,21.37],[-89.98,21.31],[-90.17,21.11],[-90.32,21.11],[-90.42,20.41],[-90.49,20.41],[-90.43,20.02],[-90.74,19.7],[-90.81,19.25],[-91.35,18.93],[-91.3,18.61],[-91.45,18.61],[-91.5,18.48],[-91.79,18.48],[-91.84,18.74],[-92.5,18.74],[-92.62,18.54],[-93.49,18.48],[-93.84,18.35],[-93.57,18.03],[-93.57,17.58],[-93.37,17.26],[-93.49,17.13],[-93.4,17],[-93.64,16.68],[-93.55,16.55],[-93.62,16.55],[-93.59,16.36],[-93.82,15.91],[-92.75,15.14],[-92.47,14.69],[-91.35,13.91],[-90.47,13.91],[-89.92,13.59],[-89.87,13.79],[-89.57,13.72],[-89.59,13.91],[-89.39,14.11],[-89.1,14.11],[-89.19,14.24],[-88.82,14.24],[-88.91,14.36],[-88.69,14.43],[-88.63,15.07],[-88.38,15.39],[-88.51,15.84],[-88.82,15.97],[-88.64,16.23],[-88.49,16.23],[-88.24,16.49],[-88.21,16.81],[-88.14,16.81],[-88.19,17.64],[-88.03,18.03],[-88.08,18.35],[-88.23,18.35],[-88.25,18.48],[-87.99,18.74],[-87.96,18.54],[-88.04,18.54],[-87.91,18.22],[-87.7,18.29],[-87.73,18.48],[-87.45,19.06],[-87.49,19.31],[-87.37,19.44],[-87.39,19.57],[-87.55,19.64],[-87.29,19.89],[-87.35,20.21],[-86.71,20.86],[-86.72,20.92]]]}},{"type":"Feature","properties":{"NAME":"Alodia","C":4,"name":"Alodia","start_year":347,"end_year":601,"capital":"","type":"polity","region":"","event":"","source":"Cliopatria / Seshat Global History Databank (CC BY 4.0)","wikipedia":"Alodia","wikidata":"Q449639","_a":15,"_c":[33.57,16.74],"_nz":"阿洛迪亚","_sz":""},"geometry":{"type":"Polygon","coordinates":[[[35.37,17.96],[35.5,17.64],[36,17.32],[36.05,16.81],[35.67,16.49],[34.71,16.49],[34.56,16.23],[34.68,15.78],[34.1,15.84],[33.86,15.46],[32.53,15.2],[32.53,15.33],[31.8,15.52],[31.53,15.97],[31.54,16.23],[31.39,16.36],[31.48,16.61],[31.21,17.32],[31.09,18.22],[31.1,18.29],[31.54,18.16],[33.24,18.29],[34.12,18.03],[34.48,18.03],[34.63,17.9],[35.29,17.96],[35.37,17.96]]]}},{"type":"Feature","properties":{"NAME":"Makuria","C":8,"name":"Makuria","start_year":347,"end_year":568,"capital":"","type":"polity","region":"","event":"","source":"Cliopatria / Seshat Global History Databank (CC BY 4.0)","wikipedia":"Makuria","wikidata":"Q829356","_a":9,"_c":[33.08,18.96],"_nz":"马库里亚","_sz":""},"geometry":{"type":"Polygon","coordinates":[[[34.26,19.64],[33,19.7],[32.48,19.51],[32.03,19.51],[31.52,19.64],[31.38,19.83],[30.87,20.02],[30.86,19.96],[31.1,18.35],[31.1,18.29],[31.54,18.16],[33.24,18.29],[34.12,18.03],[34.48,18.03],[34.63,17.9],[35.29,17.96],[35.3,18.03],[35.16,18.22],[34.94,18.29],[34.88,18.61],[34.6,18.93],[34.33,19.64],[34.26,19.64]]]}},{"type":"Feature","properties":{"NAME":"Nobatia","C":8,"name":"Nobatia","start_year":347,"end_year":646,"capital":"","type":"polity","region":"","event":"","source":"Cliopatria / Seshat Global History Databank (CC BY 4.0)","wikipedia":"Nobatia","wikidata":"Q568523","_a":16,"_c":[32.39,21.66],"_nz":"诺巴提亚","_sz":""},"geometry":{"type":"Polygon","coordinates":[[[33.84,22.14],[33.88,23.17],[33.81,23.17],[33.82,23.49],[33.68,23.62],[33.68,23.69],[33.39,23.81],[32.04,23.69],[31.67,23.75],[30.54,23.36],[30.53,23.3],[30.74,22.85],[30.72,22.27],[30.56,21.95],[30.7,21.69],[30.87,20.09],[30.87,20.02],[31.38,19.83],[31.52,19.64],[32.03,19.51],[32.48,19.51],[33,19.7],[34.26,19.64],[34.26,19.7],[33.82,21.63],[33.75,21.63],[33.84,22.01],[33.76,22.08],[33.84,22.08],[33.84,22.14]]]}},{"type":"Feature","properties":{"NAME":"Kalabhra Dynasty","C":4,"name":"Kalabhra Dynasty","start_year":353,"end_year":591,"capital":"","type":"polity","region":"","event":"","source":"Cliopatria / Seshat Global History Databank (CC BY 4.0)","wikipedia":"Kalabhra dynasty","wikidata":"Q2572901","_a":20,"_c":[78.1,10.47],"_nz":"卡拉布拉王朝","_sz":""},"geometry":{"type":"Polygon","coordinates":[[[79.5,12.85],[78.91,12.84],[77.85,12.15],[77.25,12.28],[77.07,12.21],[77.06,11.55],[76.95,11.34],[76.05,10.51],[76.53,9.53],[76.36,9.52],[76.29,9.83],[76.36,9.37],[76.54,8.98],[76.69,9],[76.6,8.87],[77.34,8.11],[77.54,8.08],[78.09,8.38],[78.21,8.95],[78.46,9.12],[78.87,9.27],[79.29,9.26],[79.02,9.32],[78.9,9.48],[79.25,10],[79.23,10.18],[79.39,10.32],[79.84,10.27],[79.76,11.67],[80.15,12.46],[79.73,12.81],[79.5,12.85]]]}},{"type":"Feature","properties":{"NAME":"Kingdom of Axum","C":3,"name":"Kingdom of Axum","start_year":353,"end_year":533,"capital":"","type":"polity","region":"","event":"","source":"Cliopatria / Seshat Global History Databank (CC BY 4.0)","wikipedia":"Kingdom of Aksum","wikidata":"Q139377","_a":12,"_c":[40.22,14.21],"_nz":"阿克苏姆王国","_sz":""},"geometry":{"type":"MultiPolygon","coordinates":[[[[40.82,14.81],[41.39,14.56],[41.66,14.04],[42.38,13.59],[42.44,13.27],[42.22,13.27],[41.92,13.14],[41.91,13.01],[41.47,12.95],[41.32,12.82],[38.97,12.82],[38.4,13.08],[38.26,13.4],[38.11,13.4],[38.2,13.59],[38,14.17],[38.17,14.69],[38.63,15.07],[38.56,15.2],[38.78,15.14],[38.93,15.39],[39.15,15.33],[39.61,15.59],[39.73,15.2],[39.81,15.2],[39.82,15.52],[39.97,15.52],[40.31,14.94],[40.68,15.01],[40.82,14.88],[40.82,14.81]]],[[[38.4,14.94],[38.33,14.94],[38.33,15.01],[38.4,15.01],[38.4,14.94]]]]}},{"type":"Feature","properties":{"NAME":"Tarumanagara","C":8,"name":"Tarumanagara","start_year":367,"end_year":533,"capital":"","type":"polity","region":"","event":"","source":"Cliopatria / Seshat Global History Databank (CC BY 4.0)","wikipedia":"Tarumanagara","wikidata":"Q2247225","_a":2,"_c":[106.53,-6.34],"_nz":"多罗磨","_sz":""},"geometry":{"type":"Polygon","coordinates":[[[107.62,-6.53],[107.54,-6.4],[107.6,-6.21],[107,-5.89],[106.85,-5.89],[106.79,-6.08],[105.91,-5.89],[105.7,-6.08],[105.65,-6.46],[105.43,-6.53],[105.44,-6.66],[105.94,-6.59],[106.24,-6.66],[106.25,-6.79],[107.27,-6.79],[107.48,-6.72],[107.54,-6.53],[107.62,-6.53]]]}},{"type":"Feature","properties":{"NAME":"Himyarite Kingdom","C":7,"name":"Himyarite Kingdom","start_year":378,"end_year":533,"capital":"","type":"polity","region":"","event":"","source":"Cliopatria / Seshat Global History Databank (CC BY 4.0)","wikipedia":"Himyarite Kingdom","wikidata":"Q289577","_a":59,"_c":[47.43,15.62],"_nz":"希米亚里特王国","_sz":""},"geometry":{"type":"MultiPolygon","coordinates":[[[[44.81,16.55],[45.23,16.1],[45.21,15.91],[45.37,15.97],[45.58,15.84],[46.02,15.84],[46.18,15.97],[46.47,15.97],[46.55,16.16],[46.7,16.1],[47.67,16.36],[49.59,16.49],[50.12,16.61],[50.48,16.55],[51.08,16.68],[51.89,16.61],[52.38,16.29],[52.26,15.59],[52.1,15.46],[51.88,15.46],[51.27,15.14],[50.76,15.07],[50.23,14.81],[49.41,14.69],[48.79,14.04],[47.75,13.91],[47.67,13.72],[46.84,13.4],[45.74,13.34],[45.05,12.76],[44.61,12.76],[44.39,12.63],[43.44,12.69],[43.45,12.89],[43.24,13.08],[43.26,13.72],[43.06,13.98],[42.95,14.88],[42.89,15.07],[42.75,15.14],[42.71,15.84],[42.78,15.84],[42.82,16.61],[42.48,17],[42.49,17.19],[42.63,17.19],[43.02,17.51],[43.03,17.71],[43.25,17.64],[43.55,17.77],[43.9,17.39],[43.82,17.26],[43.96,17.13],[43.95,16.94],[44.09,16.81],[44.31,16.87],[44.3,16.74],[44.81,16.61],[44.81,16.55]]],[[[46.63,16.16],[46.63,16.23],[46.71,16.23],[46.7,16.16],[46.63,16.16]]],[[[43.89,18.48],[43.82,18.48],[43.74,18.48],[43.75,18.54],[43.82,18.54],[43.82,18.61],[43.9,18.61],[43.89,18.54],[43.89,18.48]]]]}},{"type":"Feature","properties":{"NAME":"Silla","C":3,"name":"Silla","start_year":378,"end_year":533,"capital":"","type":"polity","region":"","event":"","source":"Cliopatria / Seshat Global History Databank (CC BY 4.0)","wikipedia":"Silla","wikidata":"Q28456","_a":4,"_c":[128.76,36.32],"_nz":"新罗","_sz":""},"geometry":{"type":"Polygon","coordinates":[[[129.55,35.58],[129.67,35.97],[129.58,36.1],[129.42,36.1],[129.49,36.55],[129.42,36.55],[129.52,36.74],[129.44,36.74],[129.54,36.93],[129.41,37.13],[129.43,37.32],[129.35,37.32],[129.21,37.19],[128.7,37.25],[127.99,36.8],[127.9,36.61],[128.02,36.55],[127.97,36.29],[128.09,36.22],[127.85,35.9],[127.93,35.9],[128.21,35.84],[128.22,35.71],[128.61,35.71],[128.62,35.58],[129.01,35.58],[129.07,35.39],[129.35,35.32],[129.38,35.39],[129.41,35.45],[129.44,35.52],[129.52,35.52],[129.55,35.58]]]}},{"type":"Feature","properties":{"NAME":"Angles","C":8,"name":"Angles","start_year":387,"end_year":475,"capital":"","type":"polity","region":"","event":"","source":"Cliopatria / Seshat Global History Databank (CC BY 4.0)","wikipedia":"Angles","wikidata":"Q234218","_a":0,"_c":[9.58,54.72],"_nz":"盎格鲁人","_sz":""},"geometry":{"type":"Polygon","coordinates":[[[9.93,54.55],[9.93,54.82],[9.23,54.89],[9.32,54.82],[9.23,54.61],[9.84,54.55],[9.93,54.55]]]}},{"type":"Feature","properties":{"NAME":"Baekje","C":8,"name":"Baekje","start_year":395,"end_year":475,"capital":"汉城","type":"dynasty","region":"korea","event":"","source":"Cliopatria / Seshat Global History Databank (CC BY 4.0)","wikipedia":"Baekje","wikidata":"Q28428","_a":7,"_c":[127.07,36.07],"_nz":"百济","_sz":""},"geometry":{"type":"Polygon","coordinates":[[[127.52,34.55],[127.22,34.42],[127.13,34.55],[127.3,34.74],[127.22,34.74],[127.02,34.49],[126.63,34.29],[126.42,34.36],[126.48,34.49],[126.35,34.36],[126.12,34.36],[126.48,34.81],[126.2,34.87],[126.38,35.26],[126.3,35.26],[126.52,35.71],[126.77,35.9],[126.61,35.9],[126.68,36.03],[126.52,36.03],[126.43,36.16],[126.45,36.67],[126.26,36.61],[126.05,36.8],[126.3,37],[126.65,37.06],[126.7,37.32],[126.57,37.51],[126.6,37.58],[127.6,37.84],[127.69,37.71],[127.62,37.58],[127.88,37.19],[127.82,37.06],[127.94,37],[127.87,36.87],[127.99,36.8],[127.9,36.61],[128.02,36.55],[127.97,36.29],[128.09,36.22],[127.85,35.9],[127.93,35.9],[127.56,35.45],[127.63,35.45],[127.45,35.07],[127.57,35],[127.45,34.74],[127.55,34.61],[127.52,34.55]]]}},{"type":"Feature","properties":{"NAME":"Caucasian Iberia","C":6,"name":"Caucasian Iberia","start_year":402,"end_year":509,"capital":"","type":"polity","region":"","event":"","source":"Cliopatria / Seshat Global History Databank (CC BY 4.0)","wikipedia":"Kingdom of Iberia","wikidata":"Q19083","_a":7,"_c":[44.1,42.17],"_nz":"高加索伊比利亚","_sz":""},"geometry":{"type":"Polygon","coordinates":[[[44.82,42.69],[44.69,42.82],[43.78,42.69],[43.74,42.89],[43.2,43.02],[42.92,43.21],[42.5,43.15],[42.49,43.08],[42.57,43.08],[42.61,42.82],[42.75,42.76],[42.72,42.56],[42.93,42.43],[42.62,41.59],[42.86,41.59],[43.34,41.13],[43.98,41.13],[44.24,41.26],[44.35,41.46],[44.77,41.59],[45.07,41.91],[45.31,41.91],[45.54,42.24],[45.7,42.24],[45.71,42.3],[45.68,42.56],[45.44,42.56],[45.16,42.76],[44.84,42.76],[44.82,42.69]]]}},{"type":"Feature","properties":{"NAME":"Lazica","C":2,"name":"Lazica","start_year":402,"end_year":533,"capital":"","type":"polity","region":"","event":"","source":"Cliopatria / Seshat Global History Databank (CC BY 4.0)","wikipedia":"Lazica","wikidata":"Q136884","_a":7,"_c":[41.46,42.43],"_nz":"拉齐卡","_sz":""},"geometry":{"type":"Polygon","coordinates":[[[42.5,43.15],[42.6,43.21],[42.53,43.28],[41.95,43.21],[40.74,43.6],[40.17,43.6],[39.99,43.47],[40.22,43.41],[40.42,43.15],[40.82,43.15],[41.12,43.02],[41.61,42.63],[41.48,42.37],[41.7,42.24],[41.6,42.11],[41.76,42.11],[41.74,41.98],[41.82,41.98],[41.7,41.78],[41.69,41.72],[41.84,41.65],[41.81,41.46],[41.53,41.26],[42.25,41.26],[42.36,41.46],[42.62,41.59],[42.93,42.43],[42.72,42.56],[42.75,42.76],[42.61,42.82],[42.57,43.08],[42.49,43.08],[42.5,43.15]]]}},{"type":"Feature","properties":{"NAME":"Protectorate of the Western Regions","C":9,"name":"Protectorate of the Western Regions","start_year":402,"end_year":468,"capital":"海头","type":"polity","region":"central_asia","event":"","source":"Cliopatria / Seshat Global History Databank (CC BY 4.0)","wikipedia":"Protectorate of the Western Regions","wikidata":"Q911440","_a":101,"_c":[85.65,39.69],"_nz":"西域长史府","_sz":""},"geometry":{"type":"Polygon","coordinates":[[[88.64,38.8],[87.66,38.48],[86.78,38.42],[86.08,38.22],[85.81,37.9],[85.36,37.71],[85.11,37.45],[81.46,36.74],[81.26,36.61],[81.03,36.61],[80.37,37],[79.4,37.13],[79.15,37.32],[78.42,37.51],[78.39,37.64],[78.09,37.71],[77.8,38.03],[77.84,38.16],[77.67,38.35],[77.45,38.42],[77.47,38.48],[78.03,38.74],[78.34,39.45],[78.26,39.45],[78.36,40.23],[78.29,40.23],[78.39,40.74],[78.24,41],[78.29,41.13],[78.05,41.13],[78.04,41.33],[77.8,41.52],[80.03,42.37],[80.53,42.43],[80.96,42.3],[82.06,42.24],[84.11,42.76],[85.79,42.76],[85.76,42.69],[88.11,42.37],[88.08,42.3],[88.85,42.24],[88.82,42.17],[89.64,42.04],[89.61,41.98],[90.22,41.91],[90.19,41.85],[90.43,41.85],[90.54,41.72],[90.78,41.72],[91.27,41.39],[93.85,40.74],[93.57,40.48],[93.36,40.55],[93.28,40.16],[93.2,40.16],[93.09,39.9],[93.27,39.77],[93.3,39.45],[93.01,39.32],[92.25,39.38],[91.54,39.19],[90.49,39.13],[88.72,38.8],[88.64,38.8]]]}},{"type":"Feature","properties":{"NAME":"Norse","C":3,"name":"Norse","start_year":402,"end_year":489,"capital":"","type":"polity","region":"","event":"","source":"Cliopatria / Seshat Global History Databank (CC BY 4.0)","wikipedia":"Norse","wikidata":"Q909583","_a":78,"_c":[13.06,58.15],"_nz":"诺斯人","_sz":""},"geometry":{"type":"MultiPolygon","coordinates":[[[[10.71,55.02],[9.93,55.09],[9.75,55.36],[9.49,55.16],[9.49,55.02],[9.23,55.09],[9.05,55.02],[9.06,54.89],[8.53,54.89],[8.53,55.09],[8.44,55.09],[8.53,55.36],[9.14,55.36],[9.22,55.91],[9.13,55.98],[9.92,56.32],[10.37,56.25],[10.28,56.25],[10.28,55.98],[9.93,55.84],[9.93,55.7],[9.75,55.7],[9.75,55.57],[10.63,55.63],[10.63,55.5],[10.8,55.43],[10.8,55.36],[10.71,55.02]]],[[[18.23,57.83],[18.6,57.97],[19.05,57.97],[19.03,57.83],[18.84,57.7],[18.91,57.42],[18.45,57.21],[18.34,56.94],[18.08,56.94],[18.03,57.49],[18.03,57.56],[18.23,57.83]]],[[[7.84,59.09],[7.84,59.16],[7.93,59.16],[7.93,59.09],[7.84,59.09]]],[[[16.93,59.92],[16.94,60.07],[17.31,60.07],[17.3,59.92],[17.48,59.92],[17.47,59.78],[17.74,59.71],[17.63,59.5],[17.45,59.5],[17.34,59.22],[16.89,59.22],[16.9,59.36],[16.72,59.36],[16.72,59.5],[16.45,59.5],[16.55,59.57],[16.55,59.64],[16.56,59.78],[16.93,59.92]]],[[[11.92,59.78],[11.74,59.64],[11.73,59.43],[11.82,59.43],[11.82,59.22],[11.64,59.02],[11.73,58.95],[11.72,58.46],[11.54,58.32],[11.18,58.39],[11.1,59.16],[10.83,59.16],[10.56,59.36],[10.56,59.64],[10.47,59.64],[10.47,59.5],[10.37,59.5],[10.46,59.29],[10.01,58.95],[9.65,59.02],[9.56,58.88],[9.38,58.88],[9.38,58.74],[9.11,58.74],[9.11,58.6],[8.93,58.6],[8.67,58.32],[8.04,58.18],[7.86,58.04],[7.06,58.04],[7.4,58.67],[7.85,58.81],[7.93,59.09],[8.02,59.09],[7.93,59.22],[8.2,59.22],[8.2,59.36],[8.38,59.43],[8.47,59.71],[8.56,59.71],[8.55,60],[8.73,60.14],[8.64,60.42],[8.82,60.49],[8.91,60.84],[9.09,60.98],[9.09,61.19],[9.27,61.34],[9.74,61.41],[10.66,61.05],[10.84,61.12],[10.93,60.98],[11.3,60.91],[11.66,60.63],[11.66,60.35],[11.66,60.28],[11.84,60.21],[11.92,59.78]]]]}},{"type":"Feature","properties":{"NAME":"Goguryeo","C":11,"name":"Goguryeo","start_year":426,"end_year":475,"capital":"国内城（今集安）","type":"dynasty","region":"korea","event":"","source":"Cliopatria / Seshat Global History Databank (CC BY 4.0)","wikipedia":"Goguryeo","wikidata":"Q28370","_a":96,"_c":[126.82,40.95],"_nz":"高句丽","_sz":""},"geometry":{"type":"Polygon","coordinates":[[[130.78,44.19],[130.47,44.32],[130.41,44.58],[129.99,44.78],[130,44.91],[129.36,45.04],[129.41,45.1],[129.16,45.1],[128.69,44.78],[127.71,44.65],[127.43,44.71],[127.34,44.58],[126.97,44.52],[125.13,44.32],[125.05,44.32],[125.01,44.25],[125.16,44.12],[125.07,43.86],[125.15,43.86],[125.06,43.73],[125.14,43.73],[125.06,43.6],[125.14,43.6],[124.96,43.21],[125.04,43.21],[124.91,42.89],[124.99,42.89],[124.82,42.63],[125.01,42.43],[124.93,42.3],[122.61,41.78],[122.49,41.46],[121.94,41.2],[121.82,40.87],[121.79,40.81],[122.11,40.68],[122.23,40.48],[121.78,39.97],[121.5,39.9],[121.44,39.64],[121.28,39.64],[121.21,39.51],[121.3,39.38],[121.69,39.38],[121.52,39.06],[121.2,39.06],[121.03,38.74],[121.42,38.74],[121.72,39],[121.95,39],[122.17,39.26],[122.94,39.64],[123.6,39.84],[124.03,39.77],[124.34,39.9],[124.51,39.64],[124.86,39.71],[124.87,39.58],[125.31,39.51],[125.39,39.38],[125.03,38.74],[125.19,38.74],[125.15,38.67],[124.96,38.61],[124.79,38.29],[124.87,38.29],[124.76,38.09],[125.08,38.09],[124.9,37.9],[125.21,37.9],[125.3,37.77],[125.23,37.64],[125.39,37.64],[125.68,37.9],[125.83,37.9],[125.84,37.77],[126.35,37.84],[126.25,37.64],[126.52,37.58],[126.6,37.58],[127.6,37.84],[127.69,37.71],[127.62,37.58],[127.88,37.19],[127.82,37.06],[127.94,37],[127.87,36.87],[127.99,36.8],[128.7,37.25],[129.21,37.19],[129.35,37.32],[129.39,37.38],[129.26,37.58],[129.1,37.58],[128.36,38.8],[127.92,39],[127.8,39.19],[127.44,39.26],[127.67,39.64],[127.58,39.77],[127.93,39.97],[128.37,40.03],[128.68,40.29],[129.08,40.42],[129.24,40.68],[129.76,40.87],[129.88,41.2],[129.69,41.52],[129.78,41.78],[130.32,42.24],[130.61,42.3],[130.9,42.63],[131.23,42.63],[131.75,43.28],[131.91,43.28],[131.78,43.08],[132.1,43.08],[132.6,43.8],[132.05,43.93],[132.1,43.99],[131.26,44.06],[131.3,44.12],[131.01,44.06],[131.06,44.12],[130.86,44.19],[130.78,44.19]]]}},{"type":"Feature","properties":{"NAME":"Anurādhapura","C":2,"name":"Anurādhapura","start_year":439,"end_year":616,"capital":"","type":"polity","region":"","event":"","source":"Cliopatria / Seshat Global History Databank (CC BY 4.0)","wikipedia":"Anurādhapura","wikidata":"Q5724","_a":9,"_c":[80.77,7.87],"_nz":"阿努拉德普勒","_sz":""},"geometry":{"type":"Polygon","coordinates":[[[81.26,8.64],[80.99,8.96],[81,9.09],[80.85,9.16],[80.86,9.29],[80.72,9.35],[80.73,9.48],[80.44,9.54],[80.52,9.67],[80.45,9.74],[79.88,9.86],[79.86,9.67],[80.08,9.61],[79.99,9.41],[80.05,9.16],[79.81,8.77],[79.76,8.06],[79.62,8.06],[79.61,7.87],[79.74,7.68],[79.76,6.65],[79.95,6.14],[80.23,5.88],[80.67,5.88],[81.34,6.14],[81.88,6.71],[81.92,7.42],[81.77,7.49],[81.65,7.94],[81.45,8.13],[81.4,8.51],[81.26,8.58],[81.26,8.64]]]}},{"type":"Feature","properties":{"NAME":"Tuyuhun","C":8,"name":"Tuyuhun","start_year":441,"end_year":468,"capital":"无固定都城（游牧）","type":"polity","region":"tibet","event":"","source":"Cliopatria / Seshat Global History Databank (CC BY 4.0)","wikipedia":"Tuyuhun","wikidata":"Q1196201","_a":102,"_c":[96.23,36.13],"_nz":"吐谷浑","_sz":""},"geometry":{"type":"MultiPolygon","coordinates":[[[[95.97,38.87],[96.36,38.67],[96.7,38.74],[96.73,39.19],[96.65,39.19],[96.76,39.45],[97.21,39.38],[97.91,39],[98.22,39],[98.38,39.19],[98.91,39.13],[99.2,39.26],[99.81,38.48],[100.23,38.35],[100.41,38.61],[100.87,38.03],[101.24,37.96],[101.26,37.84],[101.55,37.77],[101.57,37.64],[101.86,37.58],[102.1,37.77],[102.09,37.58],[102.25,37.38],[102.53,37.32],[102.56,37.19],[102.79,37.19],[103.1,36.8],[103.26,36.8],[103.39,36.55],[103.65,36.42],[103.6,36.29],[103.73,36.03],[103.65,35.84],[103.73,35.84],[103.63,35.58],[103.74,35.45],[103.39,34.1],[103.49,33.97],[103.21,33.39],[102.55,33.26],[101.69,32.75],[101.71,32.81],[101.77,33.01],[101.6,33.39],[101.58,33.78],[101.5,33.78],[101.64,34.16],[101.45,34.29],[101.58,34.42],[101.42,34.61],[101.54,34.74],[101,35.39],[100.22,35.77],[99.42,35.9],[99.31,36.03],[98.84,36.03],[96.4,36.55],[96.21,36.67],[95.9,36.67],[95.5,36.87],[94.7,37],[92.6,37.64],[90.39,38.03],[90.28,38.16],[90.05,38.16],[89.94,38.29],[89.71,38.29],[89.6,38.42],[88.96,38.61],[88.8,38.8],[88.72,38.8],[90.49,39.13],[91.54,39.19],[92.25,39.38],[93.01,39.32],[93.3,39.45],[93.51,39.38],[93.88,39.51],[94.58,39.51],[95.06,39.32],[95.32,39.38],[95.4,39.19],[95.55,39.19],[95.63,39],[95.89,38.87],[95.97,38.87]]],[[[91.39,37.77],[91.32,37.77],[91.34,37.84],[91.42,37.84],[91.39,37.77]]]]}},{"type":"Feature","properties":{"NAME":"Rouran Khaganate","C":9,"name":"Rouran Khaganate","start_year":441,"end_year":475,"capital":"","type":"polity","region":"","event":"","source":"Cliopatria / Seshat Global History Databank (CC BY 4.0)","wikipedia":"Rouran Khaganate","wikidata":"Q155361","_a":734,"_c":[101.55,45.22],"_nz":"柔然汗国","_sz":""},"geometry":{"type":"MultiPolygon","coordinates":[[[[102.51,52.25],[102.84,52.12],[102.8,52.05],[103.3,51.92],[103.2,51.78],[103.29,51.78],[103.19,51.65],[103.32,51.58],[103.22,51.31],[103.3,51.31],[103.29,51.18],[103.46,51.18],[103.5,50.98],[104.29,50.91],[104.93,50.98],[107.22,51.58],[108.72,51.78],[109.27,51.71],[109.54,51.85],[109.52,51.71],[110,51.78],[109.98,51.65],[110.41,51.65],[110.36,51.58],[112.27,51.65],[113.86,52.05],[114.99,52.18],[117.05,52.72],[118.28,52.65],[118.22,52.59],[118.39,52.59],[118.34,52.52],[118.79,52.45],[118.74,52.38],[118.91,52.38],[118.85,52.32],[119.11,52.32],[119.05,52.25],[119.45,52.12],[119.42,51.98],[119.59,51.98],[119.57,51.85],[119.74,51.85],[119.68,51.78],[119.88,51.71],[119.83,51.65],[120.14,51.71],[120.03,51.58],[120.56,51.51],[120.51,51.45],[120.76,51.45],[120.71,51.38],[120.82,51.31],[120.08,49.85],[120.17,49.85],[119.82,49.38],[119.9,49.38],[119.06,47.99],[119.15,47.99],[118.96,47.73],[119.04,47.73],[118.55,47.01],[118.63,47.01],[118.45,46.74],[118.62,46.74],[118.36,46.48],[118.44,46.48],[118.35,46.35],[118.44,46.35],[118.38,45.89],[118.66,45.82],[118.66,45.69],[119.42,45.37],[119.38,45.3],[119.99,45.24],[119.94,45.17],[120.92,45.17],[120.87,45.1],[121.73,45.17],[121.69,45.1],[123.35,45.04],[123.31,44.97],[124.51,44.71],[124.46,44.65],[124.86,44.52],[124.82,44.45],[124.97,44.32],[125.05,44.32],[125.01,44.25],[125.16,44.12],[125.07,43.86],[125.15,43.86],[125.06,43.73],[125.14,43.73],[125.06,43.6],[125.14,43.6],[124.96,43.21],[125.04,43.21],[124.91,42.89],[124.99,42.89],[124.82,42.63],[125.01,42.43],[124.93,42.3],[122.61,41.78],[121.22,41.33],[119.39,41.33],[119.43,41.39],[118.75,41.46],[117.48,41.33],[116.7,40.94],[116.35,40.87],[115.08,39.84],[114.84,39.84],[114.83,39.97],[114.67,39.97],[113.73,39.51],[113.33,39.51],[113.24,39.64],[112.58,39.58],[111.74,38.67],[110.67,38.42],[110.4,38.16],[109.08,37.84],[107.91,37.84],[107.25,37.58],[106.41,37.45],[106.02,37.45],[106,37.58],[105.71,37.64],[105.74,37.71],[105.35,37.71],[105.38,37.77],[104.46,37.64],[104.36,37.77],[103.76,37.84],[103.66,37.96],[103.88,38.29],[103.75,38.35],[103.84,38.55],[104.11,38.8],[103.61,38.74],[103.67,38.87],[104.67,39.51],[104.58,39.84],[101.95,39.77],[100.94,39.64],[100.97,39.71],[100.74,39.71],[100.51,39.9],[100.35,39.9],[100.38,39.97],[100.14,39.97],[100.17,40.03],[99.38,40.03],[99.28,40.16],[98.92,40.23],[98.95,40.29],[98.5,40.36],[98.27,40.55],[98.04,40.55],[97.63,40.87],[96.9,41],[96.93,41.07],[95.23,41],[93.85,40.74],[91.27,41.39],[90.78,41.72],[90.54,41.72],[90.43,41.85],[90.19,41.85],[90.22,41.91],[89.61,41.98],[89.64,42.04],[88.82,42.17],[88.85,42.24],[88.08,42.3],[88.11,42.37],[85.76,42.69],[85.79,42.76],[84.11,42.76],[82.06,42.24],[80.96,42.3],[80.53,42.43],[80.03,42.37],[79.44,42.5],[79.41,42.63],[79.25,42.63],[79.08,42.82],[77.93,42.95],[77.96,43.02],[79.09,44.06],[79.87,44.97],[80.33,45.1],[81.28,45.63],[81.78,46.02],[81.75,46.15],[82.37,46.61],[82.71,47.2],[82.63,47.2],[82.75,47.47],[82.59,47.66],[82.65,47.8],[82.52,47.86],[82.58,47.99],[82.39,48.13],[82.44,48.39],[82.35,48.39],[82.69,48.92],[84.98,50.31],[85.83,50.65],[86.86,50.98],[88.28,51.25],[88.4,51.45],[88.53,51.38],[90.08,51.85],[90.67,51.85],[90.68,51.71],[91.65,51.65],[91.61,51.58],[92.38,51.58],[92.59,51.65],[92.58,51.78],[93.09,51.78],[94.58,52.25],[96.38,52.52],[97.92,52.52],[97.87,52.45],[98.3,52.32],[98.25,52.25],[98.59,52.25],[98.55,52.18],[98.84,52.12],[100.07,52.79],[100.55,52.86],[100.56,52.99],[101.65,52.72],[101.64,52.59],[101.73,52.59],[101.72,52.45],[101.89,52.45],[101.88,52.32],[102.27,52.38],[102.22,52.32],[102.47,52.32],[102.43,52.25],[102.51,52.25]]],[[[93.14,51.85],[93.05,51.85],[93.09,51.92],[93.18,51.92],[93.14,51.85]]]]}},{"type":"Feature","properties":{"NAME":"Anglo-Saxon England","C":6,"name":"Anglo-Saxon England","start_year":441,"end_year":461,"capital":"","type":"polity","region":"","event":"","source":"Cliopatria / Seshat Global History Databank (CC BY 4.0)","wikipedia":"History of Anglo-Saxon England","wikidata":"Q784963","_a":13,"_c":[-0.24,52.76],"_nz":"盎格鲁-撒克逊英格兰","_sz":""},"geometry":{"type":"MultiPolygon","coordinates":[[[[0.68,51.65],[0.78,51.51],[0.53,51.45],[1.21,51.45],[1.38,51.38],[1.39,51.18],[1.31,51.18],[0.29,51.25],[0.19,51.38],[-0.65,51.31],[-0.92,51.51],[-1.42,51.45],[-1.61,51.65],[-2.2,51.65],[-2.22,51.85],[-1.98,51.98],[-1.47,51.98],[-1.36,51.78],[-0.95,51.85],[-0.85,51.71],[-0.18,51.78],[0.35,51.58],[0.6,51.65],[0.68,51.65]]],[[[0.34,52.86],[0.49,53.06],[1.09,53.06],[1.53,52.92],[1.72,52.72],[1.74,52.38],[1.65,52.38],[1.59,52.12],[1.43,51.98],[1.17,51.98],[1.18,51.78],[0.84,51.78],[0.85,51.71],[-0.03,52.05],[-1.14,52.12],[-1.42,52.38],[-1.46,52.86],[-1.3,52.99],[-1.31,53.12],[-0.9,53.33],[-0.96,53.94],[-1.31,54],[-1.32,54.14],[-0.99,54.34],[-0.38,54.27],[-0.29,54.27],[-0.18,53.94],[0,53.8],[0.02,53.6],[0.3,53.39],[0.32,53.12],[0.07,52.99],[0.25,52.86],[0.34,52.86]]]]}},{"type":"Feature","properties":{"NAME":"Caucasian Albania","C":4,"name":"Caucasian Albania","start_year":451,"end_year":489,"capital":"","type":"polity","region":"","event":"","source":"Cliopatria / Seshat Global History Databank (CC BY 4.0)","wikipedia":"Caucasian Albania","wikidata":"Q177076","_a":18,"_c":[47.25,40.72],"_nz":"高加索阿尔巴尼亚","_sz":""},"geometry":{"type":"Polygon","coordinates":[[[47.51,41.33],[47.35,41.33],[46.82,41.85],[46.43,41.91],[46.23,42.11],[45.68,42.17],[45.7,42.24],[45.54,42.24],[45.31,41.91],[45.07,41.91],[44.77,41.59],[44.35,41.46],[44.24,41.26],[45.11,41.26],[45.3,41],[45.6,40.87],[45.46,40.55],[45.59,40.42],[46.2,40.29],[46.26,40.16],[46.48,40.1],[46.46,39.97],[46.77,39.97],[47.05,39.77],[47.13,39.77],[47.12,39.71],[48.3,39.71],[48.67,39.58],[48.92,39.19],[48.99,39.19],[49.15,39.19],[49.27,39.38],[49.51,40.23],[49.69,40.36],[50.26,40.42],[50.05,40.55],[49.51,40.61],[49.24,40.87],[49.27,41],[49.06,41.13],[49.09,41.26],[48.56,41.78],[48.12,41.59],[47.99,41.33],[47.5,41.26],[47.51,41.33]]]}},{"type":"Feature","properties":{"NAME":"Liu Song Dynasty","C":5,"name":"Liu Song Dynasty","start_year":451,"end_year":475,"capital":"","type":"polity","region":"","event":"","source":"Cliopatria / Seshat Global History Databank (CC BY 4.0)","wikipedia":"Liu Song dynasty","wikidata":"Q49697","_a":382,"_c":[111.58,25.88],"_nz":"刘宋","_sz":""},"geometry":{"type":"MultiPolygon","coordinates":[[[[110.18,18.48],[109.86,18.35],[109.84,18.22],[109.25,18.22],[109.12,18.35],[108.76,18.41],[108.64,18.54],[108.7,19.38],[109.2,19.7],[109.25,19.96],[110.16,20.09],[110.59,20.02],[110.61,20.15],[110.91,20.15],[111.09,19.89],[111.03,19.57],[110.88,19.57],[110.85,19.38],[110.68,19.25],[110.51,18.67],[110.19,18.54],[110.18,18.48]]],[[[120.55,33.59],[120.93,33.2],[120.92,32.62],[121.4,32.49],[121.5,32.17],[121.78,32.11],[121.99,31.85],[121.84,31.66],[121.68,31.66],[121.58,31.79],[120.92,31.85],[121.45,31.66],[121.48,31.53],[121.63,31.53],[121.58,31.4],[121.74,31.4],[122,31.08],[121.9,30.82],[121.52,30.82],[121.2,30.56],[121.05,30.56],[120.68,30.18],[120.81,30.12],[121.1,30.31],[121.48,30.31],[121.62,30.05],[122.03,29.92],[121.86,29.67],[122.02,29.67],[121.93,29.41],[122,29.41],[121.94,29.22],[121.71,29.22],[121.8,29.47],[121.59,29.54],[121.54,29.15],[121.74,29.09],[121.71,28.77],[121.52,28.64],[121.65,28.57],[121.65,28.32],[121.15,28.19],[121.19,28.32],[121.12,28.32],[121.04,28.06],[120.87,27.99],[120.71,27.74],[120.66,27.54],[120.73,27.54],[120.55,27.16],[120.39,27.16],[120.25,26.9],[120.1,26.9],[120.06,26.77],[120.21,26.77],[120.16,26.58],[119.84,26.52],[119.94,26.32],[119.59,26.13],[119.78,26],[119.53,25.62],[119.9,25.62],[119.87,25.49],[119.47,25.36],[119.42,25.49],[119.27,25.49],[119.39,25.36],[119.34,25.16],[119.03,25.1],[119.07,24.97],[118.82,24.84],[118.76,24.59],[118.15,24.52],[118.08,24.2],[117.72,23.94],[117.69,23.81],[117.47,23.81],[117.18,23.49],[116.89,23.56],[116.78,23.36],[116.81,23.17],[116.59,23.17],[116.54,22.91],[115.7,22.79],[115.67,22.66],[115.37,22.66],[115.17,22.79],[114.9,22.53],[114.75,22.53],[114.64,22.72],[114.53,22.14],[114.37,22.08],[114,22.08],[114,22.46],[113.79,22.53],[113.75,22.72],[113.6,22.72],[113.7,22.46],[113.64,22.14],[113.42,22.14],[113.32,22.01],[113.11,22.08],[113.07,21.89],[112.77,21.89],[112.44,21.69],[111.86,21.76],[111.66,21.5],[110.98,21.44],[110.74,21.31],[110.72,21.18],[110.42,21.18],[110.48,21.11],[110.36,20.86],[110.62,20.6],[110.49,20.28],[109.88,20.21],[109.93,20.47],[109.79,20.54],[109.77,20.86],[109.7,20.86],[109.87,21.44],[109.81,21.5],[109.12,21.37],[109.09,21.63],[108.65,21.69],[108.56,21.56],[107.79,21.44],[107.42,20.99],[106.96,20.92],[106.83,20.6],[106.69,20.6],[106.54,20.15],[105.97,19.83],[105.73,18.86],[106.05,18.54],[106.03,18.41],[106.18,18.41],[106.29,18.22],[106.57,18.09],[106.57,17.64],[106.77,17.51],[106.75,17.39],[106.96,17.32],[106.95,17.26],[106.53,16.94],[106.54,17],[106.4,17],[106.42,17.13],[105.14,18.41],[105.19,18.67],[105.04,18.67],[105.14,18.86],[105.02,18.99],[105.01,19.44],[104.94,19.44],[104.99,19.76],[104.86,19.89],[104.98,20.15],[104.44,20.47],[104.62,20.66],[104.91,20.6],[104.87,20.86],[105.1,20.86],[104.85,21.18],[104.98,21.5],[104.93,21.63],[105.1,21.76],[105.13,21.95],[104.87,22.21],[105.24,22.59],[105.21,22.85],[105.51,22.85],[105.69,23.04],[105.36,23.3],[104.96,23.11],[104.9,23.24],[103.43,23.3],[102.85,23.43],[102.47,23.81],[102.32,23.81],[102.09,24.14],[101.81,24.26],[101.46,25.16],[101.4,25.94],[101.2,26.39],[101.09,27.54],[101.01,27.54],[101.05,27.99],[100.92,28.06],[101.04,28.25],[100.96,28.25],[101.03,28.51],[100.95,28.51],[101.02,28.77],[100.88,29.09],[100.96,29.67],[100.89,29.67],[100.96,29.92],[100.89,29.92],[101.06,31.01],[100.98,31.01],[101.67,32.69],[101.69,32.75],[102.55,33.26],[103.21,33.39],[104.7,33.26],[105.17,33.07],[105.7,33.07],[105.95,33.33],[106.56,33.33],[106.75,33.2],[107.48,33.33],[107.67,33.2],[107.65,32.94],[107.88,32.94],[108.1,33.14],[108.24,32.88],[109.16,32.88],[109.32,32.69],[109.47,32.69],[109.5,32.56],[109.88,32.56],[109.91,32.43],[110.17,32.3],[111.24,32.3],[111.62,32.49],[113.44,32.88],[113.82,33.07],[113.95,33.01],[114.08,33.14],[116.02,33.2],[116.22,33.33],[116.86,33.39],[118.05,33.84],[118.8,34.36],[119.23,34.81],[119.3,34.81],[119.71,34.68],[119.73,34.55],[119.98,34.42],[120.34,34.36],[120.49,34.16],[120.53,33.71],[120.6,33.71],[120.55,33.59]]],[[[122.27,30.18],[122.28,29.99],[121.98,29.99],[122.02,30.12],[122.05,30.18],[122.27,30.18]]]]}},{"type":"Feature","properties":{"NAME":"Late Pallava Empire","C":3,"name":"Late Pallava Empire","start_year":451,"end_year":554,"capital":"","type":"polity","region":"","event":"","source":"Cliopatria / Seshat Global History Databank (CC BY 4.0)","wikipedia":"Pallava dynasty","wikidata":"Q466803","_a":4,"_c":[78.97,15.02],"_nz":"后期帕拉瓦帝国","_sz":""},"geometry":{"type":"Polygon","coordinates":[[[78.31,14.31],[79.92,14.11],[80.12,14.2],[80.19,14.42],[80.05,15.07],[80.13,15.33],[79.68,15.47],[79.23,15.92],[78.56,15.87],[78.4,15.29],[77.88,15.42],[77.8,15.31],[77.74,14.66],[77.94,14.36],[78.31,14.31]]]}},{"type":"Feature","properties":{"NAME":"Kadamba Empire","C":11,"name":"Kadamba Empire","start_year":451,"end_year":545,"capital":"","type":"polity","region":"","event":"","source":"Cliopatria / Seshat Global History Databank (CC BY 4.0)","wikipedia":"Kadamba Empire","wikidata":"Q1479952","_a":25,"_c":[75.72,15.78],"_nz":"卡丹巴帝国","_sz":""},"geometry":{"type":"Polygon","coordinates":[[[74.74,14.32],[75.51,13.17],[76.01,12.88],[76.94,12.76],[77.51,13.03],[77.76,13.35],[77.44,14.47],[77.5,15.5],[77.49,16.15],[77.5,17.03],[77.06,17.85],[75.82,18.72],[74.5,18.8],[74.04,18.41],[73.67,17.9],[73.78,17.13],[74.3,15.72],[74.58,15.26],[74.68,14.86],[74.74,14.32]]]}},{"type":"Feature","properties":{"NAME":"White Huns","C":5,"name":"White Huns","start_year":451,"end_year":489,"capital":"","type":"polity","region":"","event":"","source":"Cliopatria / Seshat Global History Databank (CC BY 4.0)","wikipedia":"White Huns","wikidata":"Q41761342","_a":206,"_c":[71.16,37.53],"_nz":"白匈奴","_sz":""},"geometry":{"type":"MultiPolygon","coordinates":[[[[76.65,42.95],[77.85,42.95],[77.93,42.95],[79.08,42.82],[79.25,42.63],[79.41,42.63],[79.44,42.5],[80.03,42.37],[77.8,41.52],[78.04,41.33],[78.05,41.13],[78.29,41.13],[78.24,41],[78.39,40.74],[78.29,40.23],[78.36,40.23],[78.26,39.45],[78.34,39.45],[78.03,38.74],[77.47,38.48],[77.39,38.48],[77.22,38.67],[75.98,38.74],[74.98,38.55],[74.81,38.22],[74.65,38.22],[74.54,37.84],[74.62,37.84],[74.54,37.58],[74.66,37.45],[74.53,37.25],[74.68,37.25],[74.57,37.13],[74.78,37.06],[74.67,36.93],[74.75,36.93],[74.71,36.8],[74.95,36.55],[75,36.16],[75.2,36.03],[75.16,35.9],[75.3,35.84],[75.29,35.52],[75.37,35.52],[75.32,35.32],[74.91,34.94],[74.95,34.81],[74.72,34.81],[74.76,34.68],[74.44,34.61],[74.33,34.49],[74.25,34.49],[73.64,34.81],[73.61,34.68],[73.34,34.55],[73.37,34.04],[73.17,33.84],[72.77,33.78],[72.72,33.91],[72.42,33.91],[72.46,34.1],[72.14,34.04],[71.5,33.26],[70.95,32.88],[70.7,32.43],[69.87,32.11],[69.67,31.91],[69.29,31.91],[69.02,31.72],[68.94,32.04],[68.61,32.3],[68.64,32.43],[68.38,32.69],[68.09,32.75],[68.12,32.88],[67.42,33.2],[67.19,33.2],[67.22,33.33],[66.99,33.33],[66.88,33.52],[66.52,33.65],[66.02,34.16],[65.46,34.42],[65.14,34.74],[65.17,34.87],[64.85,35.19],[64.83,35.77],[64.75,35.77],[65.12,38.61],[63.7,39.19],[63.25,39.58],[63.09,39.58],[63.05,39.71],[62.61,39.84],[62.58,40.03],[62.66,40.03],[62.95,40.23],[63.02,40.48],[62.77,40.74],[62.76,41],[62.56,41.13],[62.6,41.26],[62.34,41.46],[62.45,41.59],[62.29,41.85],[62.36,42.11],[62.76,42.37],[66.03,42.37],[66.39,42.24],[68.17,42.04],[69.53,42.04],[69.73,42.17],[70.49,42.3],[70.64,42.5],[70.58,42.56],[70.74,42.56],[70.99,42.82],[71.46,43.02],[72.5,43.02],[74.01,43.21],[74.3,43.34],[74.69,43.08],[75.34,42.89],[75.74,42.89],[75.87,43.02],[76.57,42.95],[76.65,42.95]]],[[[62.36,41.26],[62.38,41.33],[62.46,41.33],[62.44,41.26],[62.36,41.26]]],[[[62.3,41.33],[62.32,41.39],[62.4,41.39],[62.38,41.33],[62.3,41.33]]]]}},{"type":"Feature","properties":{"NAME":"Lakhmid Kingdom","C":9,"name":"Lakhmid Kingdom","start_year":451,"end_year":489,"capital":"","type":"polity","region":"","event":"","source":"Cliopatria / Seshat Global History Databank (CC BY 4.0)","wikipedia":"Lakhmid kingdom","wikidata":"Q943191","_a":46,"_c":[44.09,30.5],"_nz":"莱赫米王国","_sz":""},"geometry":{"type":"MultiPolygon","coordinates":[[[[42.78,28.57],[42.78,28.64],[42.86,28.64],[42.85,28.57],[42.78,28.57]]],[[[41.9,28.89],[41.91,28.96],[41.98,28.96],[41.98,28.89],[41.9,28.89]]],[[[41.76,28.96],[41.76,29.02],[41.84,29.02],[41.83,28.96],[41.76,28.96]]],[[[46.7,27.74],[45.8,27.8],[45.43,27.93],[45.13,27.87],[45.14,27.99],[44.92,28.06],[44.03,28.25],[43.8,28.19],[43.74,28.32],[43.44,28.38],[43.28,28.32],[43.23,28.51],[42.99,28.44],[43.08,28.57],[42.93,28.57],[42.87,28.7],[42.71,28.64],[42.42,28.83],[42.2,28.83],[42.13,28.96],[41.84,29.02],[41.77,29.15],[41.27,29.41],[41.11,29.34],[41.06,29.6],[40.12,30.05],[39.98,30.24],[40.01,30.5],[39.93,30.5],[40.06,31.08],[40.41,31.53],[40.74,31.72],[40.68,31.85],[40.83,31.85],[41.16,32.11],[41.37,32.62],[41.62,32.81],[41.64,32.94],[41.89,33.14],[42.2,33.2],[42.21,33.26],[42.58,33.14],[42.71,32.94],[43.15,32.81],[43.35,32.56],[43.5,32.56],[43.49,32.43],[43.7,32.24],[43.92,32.17],[43.9,32.04],[44.73,31.98],[44.86,31.72],[44.81,31.34],[45.1,31.21],[45.08,31.08],[45.77,30.44],[46.45,30.37],[46.66,30.24],[46.7,29.92],[47.65,29.67],[47.53,29.28],[48.21,28.57],[48.25,28.19],[48.17,28.19],[47.69,27.87],[46.7,27.74]]]]}},{"type":"Feature","properties":{"NAME":"Kamarupa Kingdom","C":1,"name":"Kamarupa Kingdom","start_year":451,"end_year":554,"capital":"","type":"polity","region":"","event":"","source":"Cliopatria / Seshat Global History Databank (CC BY 4.0)","wikipedia":"Kamarupa","wikidata":"Q1194765","_a":17,"_c":[92.67,26.69],"_nz":"迦摩缕波王国","_sz":""},"geometry":{"type":"Polygon","coordinates":[[[89.87,25.78],[90.34,25.34],[91.05,25.33],[91.85,25.15],[93.08,25.16],[94.24,25.6],[94.86,26.22],[95.46,26.6],[94.54,27.95],[94.23,28.23],[93.65,28.2],[92.2,27.68],[91.1,27.66],[90.45,27.37],[90.22,26.18],[90.09,26.05],[89.87,25.78]]]}},{"type":"Feature","properties":{"NAME":"Vakataka Kingdom","C":7,"name":"Vakataka Kingdom","start_year":451,"end_year":475,"capital":"","type":"polity","region":"","event":"","source":"Cliopatria / Seshat Global History Databank (CC BY 4.0)","wikipedia":"Vakataka dynasty","wikidata":"Q1501306","_a":104,"_c":[78.22,19.95],"_nz":"伐卡塔卡王国","_sz":""},"geometry":{"type":"Polygon","coordinates":[[[77.5,15.51],[77.49,16.15],[77.5,17.03],[77.06,17.85],[75.82,18.72],[74.5,18.8],[74.04,18.41],[73.67,17.9],[73.78,17.13],[73.83,17],[73.67,16.9],[73.28,16.9],[72.88,18.64],[73.01,19.02],[72.97,19.15],[72.83,18.98],[72.8,19.08],[72.81,19.3],[72.99,19.28],[72.79,19.36],[72.67,19.83],[72.88,20.56],[72.84,20.95],[72.83,21.05],[72.67,21.24],[73.31,21.33],[74.03,21.65],[73.99,23.52],[74.27,24.33],[75.8,24.62],[76.5,24.58],[76.7,24.2],[77.94,23.85],[78.8,23.35],[79.67,23.35],[80.17,22.99],[80.88,22.21],[81.43,22.43],[82.11,23.22],[82.44,23.22],[82.95,23.03],[83.76,22.31],[83.77,21.95],[83.1,20.8],[81.12,20.23],[80.77,20.01],[80.56,19.8],[80.45,19.43],[80.46,19.11],[80.52,18.76],[81.13,17.98],[81.83,17.54],[81.53,17.17],[81.38,16.72],[81.5,16.36],[81.29,16.34],[80.98,15.76],[80.65,15.9],[80.38,15.79],[80.12,15.35],[79.68,15.51],[79.23,15.92],[78.56,15.87],[78.39,15.29],[77.59,15.5],[77.5,15.51]]]}},{"type":"Feature","properties":{"NAME":"Northern Wei","C":3,"name":"Northern Wei","start_year":451,"end_year":475,"capital":"","type":"polity","region":"","event":"","source":"Cliopatria / Seshat Global History Databank (CC BY 4.0)","wikipedia":"Northern Wei","wikidata":"Q875305","_a":281,"_c":[107.9,37.04],"_nz":"北魏","_sz":""},"geometry":{"type":"Polygon","coordinates":[[[120.73,40.48],[121.11,40.87],[121.74,40.87],[121.82,40.87],[121.94,41.2],[122.49,41.46],[122.61,41.78],[121.22,41.33],[119.39,41.33],[119.43,41.39],[118.75,41.46],[117.48,41.33],[116.7,40.94],[116.35,40.87],[115.08,39.84],[114.84,39.84],[114.83,39.97],[114.67,39.97],[113.73,39.51],[113.33,39.51],[113.24,39.64],[112.58,39.58],[111.74,38.67],[110.67,38.42],[110.4,38.16],[109.08,37.84],[107.91,37.84],[107.25,37.58],[106.41,37.45],[106.02,37.45],[106,37.58],[105.71,37.64],[105.74,37.71],[105.35,37.71],[105.38,37.77],[104.46,37.64],[104.36,37.77],[103.76,37.84],[103.66,37.96],[103.88,38.29],[103.75,38.35],[103.84,38.55],[104.11,38.8],[103.61,38.74],[103.67,38.87],[104.67,39.51],[104.58,39.84],[101.95,39.77],[100.94,39.64],[100.97,39.71],[100.74,39.71],[100.51,39.9],[100.35,39.9],[100.38,39.97],[100.14,39.97],[100.17,40.03],[99.38,40.03],[99.28,40.16],[98.92,40.23],[98.95,40.29],[98.5,40.36],[98.27,40.55],[98.04,40.55],[97.63,40.87],[96.9,41],[96.93,41.07],[95.23,41],[93.85,40.74],[93.57,40.48],[93.36,40.55],[93.28,40.16],[93.2,40.16],[93.09,39.9],[93.27,39.77],[93.3,39.45],[93.51,39.38],[93.88,39.51],[94.58,39.51],[95.06,39.32],[95.32,39.38],[95.4,39.19],[95.55,39.19],[95.63,39],[95.89,38.87],[95.97,38.87],[96.36,38.67],[96.7,38.74],[96.73,39.19],[96.65,39.19],[96.76,39.45],[97.21,39.38],[97.91,39],[98.22,39],[98.38,39.19],[98.91,39.13],[99.2,39.26],[99.81,38.48],[100.23,38.35],[100.41,38.61],[100.87,38.03],[101.24,37.96],[101.26,37.84],[101.55,37.77],[101.57,37.64],[101.86,37.58],[102.1,37.77],[102.09,37.58],[102.25,37.38],[102.53,37.32],[102.56,37.19],[102.79,37.19],[103.1,36.8],[103.26,36.8],[103.39,36.55],[103.65,36.42],[103.6,36.29],[103.73,36.03],[103.65,35.84],[103.73,35.84],[103.63,35.58],[103.74,35.45],[103.39,34.1],[103.49,33.97],[103.21,33.39],[104.7,33.26],[105.17,33.07],[105.7,33.07],[105.95,33.33],[106.56,33.33],[106.75,33.2],[107.48,33.33],[107.67,33.2],[107.65,32.94],[107.88,32.94],[108.1,33.14],[108.24,32.88],[109.16,32.88],[109.32,32.69],[109.47,32.69],[109.5,32.56],[109.88,32.56],[109.91,32.43],[110.17,32.3],[111.24,32.3],[111.62,32.49],[113.44,32.88],[113.82,33.07],[113.95,33.01],[114.08,33.14],[116.02,33.2],[116.22,33.33],[116.86,33.39],[118.05,33.84],[118.8,34.36],[119.23,34.81],[119.26,34.87],[119.62,35.52],[119.99,35.64],[120.32,36.03],[120.66,36.1],[120.73,36.42],[120.96,36.42],[120.98,36.61],[121.21,36.61],[121.91,36.93],[122.39,36.8],[122.57,37],[122.47,37.13],[122.71,37.45],[122.12,37.51],[122.15,37.58],[121.5,37.51],[121.48,37.64],[121.17,37.64],[121.11,37.84],[120.75,37.9],[120.19,37.71],[120.2,37.58],[119.83,37.45],[119.7,37.19],[119.16,37.19],[119.14,37.32],[118.98,37.32],[119.24,37.84],[119.39,37.84],[119.46,37.96],[118.77,38.16],[118.8,38.22],[118.65,38.22],[118.58,38.09],[118.07,38.16],[118.05,38.29],[117.6,38.48],[117.65,38.74],[117.58,38.74],[117.78,39.13],[118.05,39.19],[118.06,39.06],[118.45,39.06],[118.99,39.19],[119.22,39.32],[119.38,39.77],[120.5,40.23],[120.65,40.48],[120.73,40.48]]]}},{"type":"Feature","properties":{"NAME":"Gupta Empire","C":9,"name":"Gupta Empire","start_year":451,"end_year":475,"capital":"","type":"polity","region":"","event":"","source":"Cliopatria / Seshat Global History Databank (CC BY 4.0)","wikipedia":"Gupta Empire","wikidata":"Q11774","_a":482,"_c":[79.71,25.59],"_nz":"笈多帝国","_sz":""},"geometry":{"type":"MultiPolygon","coordinates":[[[[91.03,22.14],[91.06,22.34],[91.28,22.34],[91.26,22.21],[91.19,22.21],[91.03,22.14]]],[[[70.3,20.86],[69.89,21.24],[69.9,21.37],[69.5,21.76],[69.35,21.76],[68.95,22.21],[68.98,22.46],[69.2,22.46],[69.26,22.34],[69.41,22.34],[69.5,22.46],[69.87,22.46],[70.26,22.66],[70.37,22.91],[69.45,22.72],[68.81,22.98],[68.55,23.36],[68.34,23.43],[68.35,23.56],[68.13,23.56],[68.16,23.81],[67.63,23.81],[67.49,23.88],[67.44,24.07],[67.29,24.07],[67.33,24.39],[67.15,24.78],[66.63,24.84],[66.64,24.91],[67.11,25.1],[67.5,25.81],[67.2,26.32],[67.17,27.22],[67.06,27.48],[67.12,27.87],[67.05,27.87],[67.04,28.32],[66.97,28.32],[67.01,28.57],[66.93,28.57],[67.21,29.79],[67.52,30.24],[67.96,30.56],[68.29,31.08],[69,31.59],[69.02,31.72],[69.29,31.91],[69.67,31.91],[69.87,32.11],[70.7,32.43],[70.95,32.88],[71.5,33.26],[72.14,34.04],[72.46,34.1],[72.42,33.91],[72.72,33.91],[72.77,33.78],[73.17,33.84],[73.37,34.04],[73.34,34.55],[73.61,34.68],[73.64,34.81],[74.25,34.49],[74.24,34.42],[74.63,34.16],[74.6,34.04],[75.03,33.59],[75,33.46],[75.13,33.39],[75.1,33.26],[75.24,33.2],[75.27,33.01],[75.42,33.01],[75.47,32.88],[75.88,32.69],[76.13,32.75],[76.08,32.56],[76.46,32.24],[78.45,31.59],[78.84,31.66],[78.81,31.53],[79.18,31.46],[79.61,31.01],[79.62,30.76],[79.87,30.5],[79.84,30.05],[79.95,29.86],[79.89,29.54],[79.96,29.54],[79.87,29.09],[80.17,28.7],[80.96,28.51],[81.19,28.19],[81.61,27.99],[81.76,27.99],[81.78,28.12],[81.95,28.19],[83.02,28.25],[83.07,28.12],[83.48,27.93],[84.28,27.8],[84.75,27.87],[84.86,27.67],[85.25,27.74],[85.33,27.42],[85.55,27.35],[85.45,26.84],[85.74,26.77],[85.79,26.64],[86.31,26.64],[86.65,26.45],[87.11,26.52],[87.24,26.39],[87.99,26.39],[88.55,26.58],[88.99,26.52],[89.04,26.39],[89.27,26.39],[89.52,26.13],[90.17,26.13],[89.87,25.78],[90.34,25.34],[91.05,25.33],[91.79,25.16],[91.06,25.16],[91.03,24.97],[91.24,24.91],[91.36,24.71],[91.35,24.2],[91.78,24.14],[92.04,24.33],[92.25,24.26],[92.22,23.62],[92.36,23.56],[92.42,22.98],[92.49,22.98],[92.46,22.79],[92.63,22.4],[92.59,22.14],[92.73,22.08],[92.66,21.56],[92.78,21.37],[92.76,21.24],[92.33,21.37],[92.33,20.86],[92.12,20.92],[92.01,21.18],[92.05,21.5],[91.83,21.5],[91.89,21.95],[91.76,22.08],[91.74,22.4],[91.37,22.4],[91.5,22.79],[90.94,22.53],[90.86,22.01],[90.63,21.95],[90.65,22.08],[90.43,22.08],[90.23,21.76],[89.9,22.01],[89.87,21.82],[89.71,21.76],[89.12,21.76],[89.1,21.63],[88.73,21.63],[88.72,22.08],[88.64,22.08],[88.51,21.69],[88.2,21.56],[88.18,21.95],[88.1,21.95],[87.76,21.63],[86.98,21.37],[86.88,21.18],[86.96,21.18],[87.03,20.6],[86.79,20.47],[86.84,20.28],[86.44,20.02],[86.42,19.89],[85.65,19.64],[85.5,19.64],[85.52,19.83],[85.37,19.83],[85.41,19.57],[84.75,18.99],[84.38,18.41],[84.05,18.16],[83.67,18.03],[83.56,17.77],[83.15,17.45],[82.45,17.13],[82.35,16.87],[82.42,16.87],[82.38,16.55],[82.07,16.36],[81.55,16.36],[81.5,16.36],[81.38,16.72],[81.53,17.17],[81.83,17.54],[81.13,17.98],[80.52,18.76],[80.47,19.07],[80.49,19.25],[80.65,19.31],[80.81,20.03],[81.12,20.23],[83.1,20.8],[83.77,21.95],[83.76,22.31],[82.95,23.03],[82.44,23.22],[82.11,23.22],[81.43,22.43],[80.88,22.21],[80.17,22.99],[79.67,23.35],[78.8,23.35],[77.94,23.85],[76.7,24.2],[76.5,24.58],[75.8,24.62],[74.27,24.33],[73.99,23.52],[74.03,21.65],[73.31,21.33],[72.67,21.24],[72.83,21.05],[72.76,21.05],[72.56,21.24],[72.76,21.69],[72.54,21.76],[72.53,22.27],[72.38,22.27],[72.34,21.95],[72.11,21.89],[72.17,21.76],[72.32,21.76],[72.18,21.18],[71.41,20.86],[71.32,20.73],[71.25,20.73],[70.72,20.66],[70.3,20.86]]]]}},{"type":"Feature","properties":{"NAME":"Sasanian Empire","C":8,"name":"Sasanian Empire","start_year":451,"end_year":489,"capital":"","type":"polity","region":"","event":"","source":"Cliopatria / Seshat Global History Databank (CC BY 4.0)","wikipedia":"Sasanian Empire","wikidata":"Q1661685","_a":519,"_c":[54.56,31.89],"_nz":"萨珊帝国","_sz":""},"geometry":{"type":"MultiPolygon","coordinates":[[[[51.13,25.42],[51.14,25.49],[51.21,25.49],[51.21,25.42],[51.13,25.42]]],[[[50.65,25.87],[50.43,25.94],[50.46,26.26],[50.69,26.26],[50.67,26.13],[50.67,26.07],[50.65,25.87]]],[[[57.24,40.16],[57.35,40.29],[58.33,40.42],[58.54,40.29],[58.85,40.29],[58.98,40.16],[59.77,40.16],[59.77,39.84],[60.08,39.84],[60.05,39.71],[60.68,39.71],[60.71,39.51],[61.2,39.58],[62.5,40.03],[62.58,40.03],[62.61,39.84],[63.05,39.71],[63.09,39.58],[63.25,39.58],[63.7,39.19],[65.12,38.61],[64.75,35.77],[64.83,35.77],[64.85,35.19],[65.17,34.87],[65.14,34.74],[65.46,34.42],[66.02,34.16],[66.52,33.65],[66.88,33.52],[66.99,33.33],[67.22,33.33],[67.19,33.2],[67.42,33.2],[68.12,32.88],[68.09,32.75],[68.38,32.69],[68.64,32.43],[68.61,32.3],[68.94,32.04],[69.02,31.72],[69,31.59],[68.29,31.08],[67.96,30.56],[67.52,30.24],[67.21,29.79],[66.93,28.57],[67.01,28.57],[66.97,28.32],[67.04,28.32],[67.05,27.87],[67.12,27.87],[67.06,27.48],[67.17,27.22],[67.2,26.32],[67.5,25.81],[67.11,25.1],[66.64,24.91],[66.65,24.97],[66.62,25.36],[66.35,25.55],[66.02,25.36],[64.82,25.29],[64.8,25.16],[64.28,25.23],[64.23,25.36],[63.63,25.36],[63.54,25.23],[62.56,25.23],[62.47,25.1],[62.18,25.16],[62.02,25.04],[61.72,25.04],[61.66,25.16],[61.13,25.1],[60.92,25.23],[60.62,25.23],[60.63,25.36],[59.06,25.36],[58.78,25.55],[57.96,25.55],[57.74,25.62],[57.68,25.74],[57.38,25.74],[57.18,25.94],[57.05,26.84],[56.71,27.16],[56.19,27.16],[56.1,27.03],[56.32,27.03],[56.31,26.9],[56.06,26.71],[55.6,26.64],[55.44,26.52],[55.29,26.52],[55.31,26.71],[55.54,26.77],[55.24,26.77],[54.83,26.45],[54.46,26.52],[54.26,26.71],[53.66,26.71],[53.46,26.97],[52.74,27.22],[52.48,27.61],[52.05,27.8],[51.6,27.8],[51.32,27.99],[51.33,28.12],[51.07,28.44],[51.03,28.77],[50.81,28.83],[50.92,29.09],[50.62,29.15],[50.65,29.41],[50.24,29.73],[50.06,30.18],[49.59,29.99],[48.94,30.31],[48.99,30.05],[48.37,29.92],[48.4,29.6],[47.87,29.54],[47.85,29.41],[48.08,29.41],[48.22,29.28],[48.19,29.09],[48.46,28.77],[48.56,28.32],[48.97,27.93],[48.87,27.67],[49.24,27.61],[49.36,27.29],[50.13,26.77],[50.12,26.58],[50.25,26.45],[50.22,26.13],[50.07,26.07],[50.21,26],[50.33,25.62],[50.61,25.42],[50.65,25.1],[50.73,25.1],[50.77,25.55],[50.92,25.62],[50.95,25.94],[51.12,26.13],[51.42,26.13],[51.7,25.87],[51.57,25.36],[51.72,25.29],[51.69,24.97],[51.52,24.78],[51.41,24.33],[51.85,24.26],[51.91,24.01],[52.28,24.01],[52.6,24.26],[53.11,24.14],[54.08,24.14],[54.1,24.33],[54.32,24.26],[54.56,24.46],[54.74,24.84],[55.14,25.1],[55.41,25.55],[55.97,25.87],[56.17,26.32],[56.48,26.39],[56.54,26.32],[56.39,25.55],[56.46,25.55],[56.42,25.16],[56.5,25.16],[56.4,24.97],[56.54,24.91],[56.79,24.33],[57.49,23.88],[58.81,23.62],[59.08,23.3],[59.07,23.17],[59.28,23.04],[59.27,22.91],[58.9,22.91],[58.91,23.04],[58.61,23.04],[58.33,23.3],[57.96,23.3],[57.97,23.43],[57.83,23.49],[56.81,23.75],[56.82,23.88],[56.54,24.07],[56.49,24.33],[56.27,24.39],[56.29,24.59],[56.09,24.84],[55.86,24.78],[55.84,24.59],[55.62,24.65],[54.81,23.94],[54.27,23.75],[51.88,23.69],[51.82,23.88],[51.17,24.07],[51.1,24.2],[51.2,24.52],[51.13,24.59],[51.29,24.71],[51.33,25.1],[51.4,25.1],[51.27,25.29],[51.35,25.36],[51.32,25.87],[51.17,25.87],[51.23,25.68],[50.98,25.42],[50.96,25.23],[51.12,25.29],[50.92,24.71],[50.62,24.65],[50.34,24.97],[50.03,25.68],[49.67,25.87],[49.88,26.45],[49.25,26.97],[49.27,27.09],[49.06,27.29],[48.55,27.48],[48.53,27.99],[48.32,28.19],[48.25,28.19],[48.21,28.57],[47.53,29.28],[47.65,29.67],[46.7,29.92],[46.66,30.24],[46.45,30.37],[45.77,30.44],[45.08,31.08],[45.1,31.21],[44.81,31.34],[44.86,31.72],[44.73,31.98],[43.9,32.04],[43.92,32.17],[43.7,32.24],[43.49,32.43],[43.5,32.56],[43.35,32.56],[43.15,32.81],[42.71,32.94],[42.58,33.14],[42.21,33.26],[42.22,33.33],[42.06,33.33],[42,33.46],[41.49,33.65],[41.43,33.78],[41.27,33.78],[41.21,33.91],[40.91,33.97],[40.7,34.16],[40.31,34.1],[40.4,34.23],[40.18,34.29],[40.1,34.29],[40.62,34.74],[40.77,34.74],[41.11,35],[41.09,36.03],[41.66,36.29],[41.68,36.42],[41.53,36.48],[41.55,36.61],[41.21,37],[41.12,38.03],[41.67,38.03],[41.97,37.96],[42.03,37.84],[42.51,37.9],[43.26,37.71],[43.89,37.71],[44.02,37.58],[44.12,37.71],[44.05,37.77],[44.31,37.9],[44.36,38.22],[44.7,38.42],[44.72,39],[44.99,39.26],[45.23,39.26],[45.29,39.13],[45.87,38.87],[46.34,38.87],[46.51,38.93],[46.56,39.19],[47.12,39.71],[48.3,39.71],[48.67,39.58],[48.92,39.19],[48.9,39.13],[48.77,38.8],[48.76,38.35],[48.84,38.35],[48.83,37.84],[49.09,37.51],[50,37.38],[50.32,37],[50.57,37.06],[50.63,37],[50.53,36.87],[50.82,36.74],[51.64,36.55],[52.19,36.55],[53.09,36.8],[54.03,36.87],[54.09,37.19],[53.91,37.45],[53.91,37.84],[53.83,37.84],[53.99,39],[53.52,39.38],[53.14,39.45],[53.54,39.51],[53.5,40.03],[52.72,40.1],[52.71,40.42],[52.79,40.42],[52.89,40.87],[52.97,40.87],[52.94,40.74],[53.34,40.74],[53.45,40.87],[53.4,40.68],[54.54,40.81],[56.65,40.36],[56.99,40.42],[56.96,40.29],[57.03,40.29],[57.24,40.16]]],[[[47.04,39.71],[47.05,39.77],[47.13,39.77],[47.12,39.71],[47.04,39.71]]]]}},{"type":"Feature","properties":{"NAME":"Kingdom of Armenia","C":5,"name":"Kingdom of Armenia","start_year":451,"end_year":489,"capital":"","type":"polity","region":"","event":"","source":"Cliopatria / Seshat Global History Databank (CC BY 4.0)","wikipedia":"Kingdom of Armenia (antiquity)","wikidata":"Q208404","_a":25,"_c":[44,39.59],"_nz":"亚美尼亚王国","_sz":""},"geometry":{"type":"Polygon","coordinates":[[[47.04,39.71],[47.12,39.71],[46.56,39.19],[46.51,38.93],[46.34,38.87],[45.87,38.87],[45.29,39.13],[45.23,39.26],[44.99,39.26],[44.72,39],[44.7,38.42],[44.36,38.22],[44.31,37.9],[44.05,37.77],[44.12,37.71],[44.02,37.58],[43.89,37.71],[43.26,37.71],[42.51,37.9],[42.03,37.84],[41.97,37.96],[41.67,38.03],[41.12,38.03],[40.91,38.22],[40.95,38.48],[40.87,38.48],[40.97,38.61],[40.98,39.26],[41.26,39.51],[41.33,39.97],[41.48,39.97],[41.67,40.16],[41.7,40.36],[41.36,40.68],[41.53,41.26],[42.25,41.26],[42.36,41.46],[42.62,41.59],[42.86,41.59],[43.34,41.13],[43.98,41.13],[44.24,41.26],[45.11,41.26],[45.3,41],[45.6,40.87],[45.46,40.55],[45.59,40.42],[46.2,40.29],[46.26,40.16],[46.48,40.1],[46.46,39.97],[46.77,39.97],[47.05,39.77],[47.04,39.71]]]}},{"type":"Feature","properties":{"NAME":"Salian Franks","C":9,"name":"Salian Franks","start_year":452,"end_year":489,"capital":"","type":"polity","region":"","event":"","source":"Cliopatria / Seshat Global History Databank (CC BY 4.0)","wikipedia":"Salian Franks","wikidata":"Q939852","_a":9,"_c":[3.81,50.88],"_nz":"萨利安法兰克人","_sz":""},"geometry":{"type":"Polygon","coordinates":[[[5.89,50.71],[5.97,50.78],[5.96,51.18],[6.2,51.51],[5.94,51.78],[4.41,51.71],[4.33,51.71],[4.16,51.71],[4.26,51.38],[4.09,51.31],[3.42,51.31],[3.41,51.45],[3.16,51.45],[2.58,51.18],[1.66,51.05],[1.42,50.71],[1.45,50.31],[1.45,50.25],[1.97,50.11],[3.14,50.11],[4.15,49.98],[4.32,50.11],[4.31,50.25],[4.64,50.38],[4.64,50.51],[4.97,50.58],[5.05,50.71],[5.81,50.71],[5.89,50.71]]]}},{"type":"Feature","properties":{"NAME":"Saxons","C":6,"name":"Saxons","start_year":455,"end_year":468,"capital":"","type":"polity","region":"","event":"","source":"Cliopatria / Seshat Global History Databank (CC BY 4.0)","wikipedia":"Saxons","wikidata":"Q101985","_a":20,"_c":[9.26,52.63],"_nz":"萨克森人","_sz":""},"geometry":{"type":"Polygon","coordinates":[[[11.22,53.94],[11.14,54.07],[9.58,54.07],[9.32,54.14],[9.15,54.34],[8.97,54.34],[8.97,54.55],[8.8,54.55],[8.54,54.41],[8.54,54.27],[8.8,54.21],[8.89,53.87],[8.37,53.87],[8.38,53.33],[7.44,53.06],[7.1,53.12],[7.1,52.99],[7.01,52.99],[7.02,52.92],[6.95,52.25],[6.7,52.05],[6.7,51.98],[7.13,51.85],[7.3,51.71],[7.39,51.45],[7.65,51.31],[7.65,51.18],[8.17,50.78],[8.42,50.71],[8.42,50.78],[9.34,51.25],[9.51,51.18],[9.51,51.31],[9.68,51.25],[9.68,51.38],[10.19,51.45],[10.27,51.65],[10.44,51.58],[10.87,51.92],[11.55,51.78],[11.8,51.98],[11.55,52.18],[11.55,52.32],[11.64,52.32],[11.82,53.12],[11.47,53.12],[11.48,53.26],[11.13,53.26],[10.88,53.46],[10.88,53.73],[11.14,53.94],[11.22,53.94]]]}},{"type":"Feature","properties":{"NAME":"Brythons","C":11,"name":"Brythons","start_year":455,"end_year":461,"capital":"","type":"polity","region":"","event":"","source":"Cliopatria / Seshat Global History Databank (CC BY 4.0)","wikipedia":"Celtic Britons","wikidata":"Q849967","_a":61,"_c":[-2.23,51.79],"_nz":"布立吞人","_sz":""},"geometry":{"type":"MultiPolygon","coordinates":[[[[-1.65,48.19],[-1.8,47.99],[-2.45,47.86],[-2.84,47.6],[-2.92,47.6],[-3.16,47.47],[-3.34,47.73],[-3.76,47.73],[-3.93,47.86],[-4.42,47.8],[-4.69,47.99],[-4.71,48.13],[-4.55,48.19],[-4.64,48.32],[-4.89,48.32],[-4.91,48.52],[-4.6,48.72],[-3.85,48.72],[-3.46,48.92],[-3.12,48.92],[-2.76,48.59],[-2.52,48.72],[-1.69,48.65],[-1.6,48.65],[-1.51,48.52],[-1.67,48.46],[-1.65,48.26],[-1.65,48.19]]],[[[-1.49,54.95],[-1.4,54.95],[-1.29,54.68],[-0.67,54.61],[-0.39,54.34],[-0.38,54.27],[-0.99,54.34],[-1.32,54.14],[-1.31,54],[-0.96,53.94],[-0.9,53.33],[-1.31,53.12],[-1.3,52.99],[-1.46,52.86],[-1.42,52.38],[-1.14,52.12],[-0.03,52.05],[0.85,51.71],[0.85,51.65],[0.86,51.58],[0.86,51.51],[0.78,51.51],[0.77,51.58],[0.69,51.58],[0.68,51.65],[0.6,51.65],[0.35,51.58],[-0.18,51.78],[-0.85,51.71],[-0.95,51.85],[-1.36,51.78],[-1.47,51.98],[-1.98,51.98],[-2.22,51.85],[-2.2,51.65],[-1.61,51.65],[-1.42,51.45],[-0.92,51.51],[-0.65,51.31],[0.19,51.38],[0.29,51.25],[1.31,51.18],[1.31,51.11],[0.49,50.78],[-1.37,50.85],[-1.11,50.78],[-1.18,50.58],[-1.51,50.58],[-1.52,50.71],[-2.03,50.71],[-2.1,50.58],[-3.13,50.71],[-3.46,50.65],[-3.58,50.25],[-4.09,50.25],[-4.19,50.38],[-4.35,50.38],[-4.93,50.25],[-5.15,49.98],[-5.75,50.05],[-5.77,50.25],[-5.28,50.38],[-5.13,50.58],[-4.88,50.58],[-4.82,50.78],[-4.66,50.85],[-4.68,51.05],[-4.43,51.05],[-4.2,51.31],[-3.09,51.25],[-3.11,51.38],[-2.95,51.45],[-3.12,51.51],[-3.28,51.38],[-3.7,51.38],[-3.89,51.58],[-4.31,51.51],[-4.42,51.71],[-4.91,51.58],[-5.26,51.71],[-5.22,52.05],[-4.55,52.18],[-4.16,52.45],[-4.3,52.92],[-4.54,52.79],[-4.79,52.79],[-4.81,52.92],[-4.08,53.33],[-3.15,53.46],[-3.1,53.73],[-3.2,53.87],[-2.96,54.07],[-3.3,54.07],[-3.32,54.21],[-3.59,54.27],[-3.72,54.68],[-3.57,54.89],[-4.42,54.75],[-4.95,54.82],[-4.94,54.68],[-5.21,54.75],[-5.33,55.02],[-5.15,55.02],[-5.17,55.16],[-4.77,55.43],[-4.79,55.63],[-4.98,55.7],[-5.01,55.98],[-4.31,55.98],[-4.15,56.11],[-3.98,56.11],[-3.87,55.98],[-3.78,55.98],[-3.8,56.11],[-2.66,56.11],[-2.02,55.91],[-1.73,55.7],[-1.72,55.57],[-1.63,55.57],[-1.49,54.95]]]]}},{"type":"Feature","properties":{"NAME":"Rugiland","C":8,"name":"Rugiland","start_year":455,"end_year":475,"capital":"","type":"polity","region":"","event":"","source":"Cliopatria / Seshat Global History Databank (CC BY 4.0)","wikipedia":"Rugiland","wikidata":"Q872644","_a":3,"_c":[15.31,48.66],"_nz":"鲁吉兰","_sz":""},"geometry":{"type":"Polygon","coordinates":[[[16.91,48.26],[16.84,48.52],[16.92,48.52],[16.93,48.72],[16.85,48.79],[16.1,48.79],[15.19,49.05],[14.94,49.05],[14.68,48.65],[14.1,48.65],[13.86,48.85],[13.69,48.85],[13.69,48.65],[13.68,48.59],[13.76,48.46],[14.26,48.26],[16.16,48.26],[16.83,48.26],[16.91,48.26]]]}},{"type":"Feature","properties":{"NAME":"Ripuarian Franks","C":0,"name":"Ripuarian Franks","start_year":455,"end_year":461,"capital":"","type":"polity","region":"","event":"","source":"Cliopatria / Seshat Global History Databank (CC BY 4.0)","wikipedia":"Ripuarian Franks","wikidata":"Q316860","_a":15,"_c":[6.59,51.52],"_nz":"里普利安法兰克人","_sz":""},"geometry":{"type":"Polygon","coordinates":[[[8.42,50.71],[8.17,50.78],[7.65,51.18],[7.65,51.31],[7.39,51.45],[7.3,51.71],[7.13,51.85],[6.7,51.98],[6.61,51.98],[6.61,52.05],[6.7,52.05],[6.95,52.25],[7.02,52.92],[6.93,52.92],[6.67,53.19],[6.49,53.19],[6.41,53.06],[6.24,53.06],[6.25,52.92],[6.33,52.92],[6.25,52.79],[6.08,52.86],[5.99,52.72],[5.65,52.65],[5.56,52.92],[5.39,52.99],[5.39,52.86],[4.89,52.65],[4.81,52.38],[4.56,52.32],[4.65,52.12],[4.41,51.78],[4.41,51.71],[5.94,51.78],[6.2,51.51],[6.71,51.51],[6.89,51.38],[7.06,50.98],[7.24,50.91],[7.24,50.71],[7.75,50.31],[7.68,49.91],[8.18,49.85],[8.27,49.85],[8.43,50.31],[8.76,50.45],[8.42,50.65],[8.42,50.71]]]}},{"type":"Feature","properties":{"NAME":"Ostrogoths","C":2,"name":"Ostrogoths","start_year":455,"end_year":475,"capital":"","type":"polity","region":"","event":"","source":"Cliopatria / Seshat Global History Databank (CC BY 4.0)","wikipedia":"Ostrogoths","wikidata":"Q103122","_a":28,"_c":[17.45,45.83],"_nz":"东哥特人","_sz":""},"geometry":{"type":"MultiPolygon","coordinates":[[[[19.09,45.5],[19,45.5],[19.01,45.56],[19.09,45.56],[19.09,45.5]]],[[[19.27,47.47],[19.09,47.2],[19.17,47.07],[18.83,47.01],[18.82,46.81],[18.91,46.81],[18.9,46.61],[19.05,46.41],[18.95,46.09],[18.87,46.09],[18.95,46.02],[18.85,45.76],[19.01,45.63],[18.92,45.5],[19,45.5],[19,45.37],[19.24,45.3],[20.3,45.3],[20.29,45.24],[19.94,44.71],[19.92,44.45],[19.67,44.25],[19.66,44.06],[19.41,43.93],[19.47,43.6],[19.31,43.54],[17.86,43.41],[17.22,43.67],[17.15,43.8],[16.43,43.99],[16.36,44.25],[16.19,44.25],[16.04,44.58],[15.88,44.71],[15.64,44.71],[15.65,44.91],[15.49,44.91],[15.17,45.17],[14.93,45.56],[14.61,45.63],[14.61,45.82],[14.86,45.96],[14.86,46.09],[15.61,46.41],[15.78,46.61],[15.98,47.86],[16.07,47.86],[16.16,48.26],[16.83,48.26],[16.82,48.19],[16.91,48.19],[16.91,48.26],[16.99,48.26],[16.99,48.19],[17.07,48.19],[17.07,48.06],[17.63,47.8],[18.63,47.8],[18.72,47.93],[18.88,47.86],[18.87,47.8],[19.27,47.47]]]]}},{"type":"Feature","properties":{"NAME":"Hunnic Empire","C":5,"name":"Hunnic Empire","start_year":455,"end_year":468,"capital":"","type":"polity","region":"","event":"","source":"Cliopatria / Seshat Global History Databank (CC BY 4.0)","wikipedia":"Huns","wikidata":"Q45813","_a":250,"_c":[38.59,47.46],"_nz":"匈人帝国","_sz":""},"geometry":{"type":"MultiPolygon","coordinates":[[[[44.68,43.6],[44.7,43.67],[44.78,43.67],[44.76,43.6],[44.68,43.6]]],[[[35.02,45.3],[36.42,45.43],[36.37,45.1],[35.88,45.04],[35.73,45.17],[35.41,45.17],[35.3,44.97],[34.38,44.78],[33.93,44.45],[33.52,44.45],[33.47,44.65],[33.55,44.65],[33.61,45.1],[32.92,45.43],[32.6,45.43],[33.04,45.69],[33.71,45.82],[33.74,46.02],[34.15,46.09],[34.54,45.96],[34.74,45.63],[34.82,45.63],[34.99,45.63],[35.02,45.3]]],[[[30.22,45.96],[30.21,45.89],[30.13,45.89],[30.04,45.89],[30.05,45.96],[30.13,45.96],[30.22,45.96]]],[[[53.08,45.96],[53.1,46.02],[53.18,46.02],[53.17,45.96],[53.08,45.96]]],[[[47.33,45.43],[47.29,45.24],[47.1,45.1],[47.04,44.84],[46.69,44.71],[46.63,44.45],[47.01,44.32],[47.34,43.99],[47.41,43.54],[46.92,43.54],[46.95,43.67],[46.75,43.86],[46.27,43.86],[46.29,43.99],[45.93,43.8],[45.61,43.8],[45.08,43.6],[44.79,43.73],[44.13,43.67],[44.08,43.8],[43.38,43.93],[43.4,44.06],[43.13,44.32],[43.15,44.45],[42.57,44.78],[41.33,44.65],[41.01,44.71],[40.32,44.45],[39.6,44.52],[38.75,44.25],[38.61,44.39],[38.22,44.45],[38.01,44.71],[37.53,44.71],[37.26,45.04],[36.78,45.1],[36.82,45.37],[36.74,45.37],[36.91,45.43],[36.97,45.3],[37.7,45.3],[37.75,45.56],[37.59,45.63],[37.76,45.63],[37.89,45.96],[38.33,46.15],[38.37,46.35],[37.9,46.48],[37.84,46.61],[38.49,46.61],[38.62,46.87],[38.79,46.87],[38.89,47.01],[39.13,46.94],[39.27,47.27],[39.2,47.33],[38.68,47.2],[37.52,47.14],[37.17,47.01],[37.23,46.87],[36.91,46.94],[36.8,46.81],[35.63,46.68],[35.25,46.28],[34.76,46.28],[34.74,46.15],[34.08,46.15],[34.02,46.28],[33.61,46.28],[33.59,46.15],[32.95,46.22],[32.85,46.09],[32.68,46.09],[32.06,46.35],[31.82,46.35],[31.84,46.48],[32.16,46.48],[32.19,46.68],[31.79,46.74],[31.61,46.61],[30.88,46.68],[30.48,46.15],[30.32,46.15],[30.26,46.35],[29.94,46.35],[29.95,46.48],[29.8,46.61],[29.56,46.61],[29.57,46.74],[29.12,47.14],[29.14,47.27],[28.91,47.4],[28.95,47.8],[28.55,47.86],[28.5,48.13],[28.33,48.13],[28.26,48.26],[28.09,48.19],[27.94,48.32],[27.69,48.32],[27.62,48.46],[27.37,48.46],[27.47,48.59],[27.31,48.65],[26.14,48.59],[25.74,48.72],[25.67,48.85],[25.33,48.79],[24.95,49.12],[24.21,49.32],[23.9,49.58],[23.32,49.58],[22.7,49.18],[22.62,49.25],[22.66,49.71],[23.65,50.45],[23.99,50.51],[24.01,50.71],[25.48,51.05],[27.51,51.05],[27.91,50.91],[29.24,50.78],[29.76,50.85],[30.42,50.71],[31.44,50.25],[32.2,50.25],[33.42,50.51],[33.52,50.65],[33.45,50.71],[33.63,50.78],[33.96,50.71],[34.32,50.85],[34.52,51.05],[34.87,51.11],[34.81,51.25],[35.3,51.18],[35.68,51.38],[36.36,51.38],[37,51.18],[36.88,51.05],[37.05,51.05],[37.41,50.71],[37.73,50.65],[38.13,50.11],[38.39,50.11],[38.26,49.91],[38.35,49.91],[38.5,49.38],[39.2,48.72],[39.51,48.59],[40.76,48.59],[42.45,48.72],[42.42,48.59],[43,48.59],[43.22,48.46],[44.96,48.46],[45.43,48.32],[45.73,48.19],[45.85,47.99],[46.02,47.99],[46.34,47.6],[46.59,47.6],[46.64,47.47],[46.46,47.4],[46.43,47.27],[46.77,46.94],[46.93,46.94],[47.46,46.35],[47.7,46.35],[48.38,46.81],[48.71,46.81],[49.41,47.33],[49.58,47.33],[49.97,47.6],[52.02,47.86],[53.24,47.8],[53.68,47.6],[54.52,46.74],[54.48,46.28],[54.56,46.28],[54.29,45.56],[53.88,45.56],[53.67,45.37],[53.42,45.37],[53.06,45.56],[53.07,45.89],[53.25,45.96],[53.35,46.35],[53.27,46.35],[53.27,46.68],[53.19,46.68],[53.24,46.87],[53.11,47.01],[51.86,46.94],[51.81,47.07],[51.58,47.14],[50.84,47.14],[50.3,46.94],[49.99,46.68],[49.3,46.55],[49.06,46.22],[48.64,46.15],[48.59,45.96],[48.35,45.96],[48.06,45.76],[47.57,45.76],[47.46,45.63],[47.54,45.63],[47.52,45.56],[47.48,45.37],[47.33,45.43]]],[[[32.48,50.45],[32.56,50.45],[32.55,50.38],[32.47,50.38],[32.48,50.45]]]]}},{"type":"Feature","properties":{"NAME":"Kingdom of the Suebi","C":11,"name":"Kingdom of the Suebi","start_year":458,"end_year":475,"capital":"","type":"polity","region":"","event":"","source":"Cliopatria / Seshat Global History Databank (CC BY 4.0)","wikipedia":"Kingdom of the Suebi","wikidata":"Q1048918","_a":20,"_c":[-7.63,41.17],"_nz":"苏维汇王国","_sz":""},"geometry":{"type":"Polygon","coordinates":[[[-5.94,43.21],[-6.05,43.54],[-7.18,43.54],[-7.34,43.6],[-7.28,43.73],[-8.24,43.73],[-8.39,43.6],[-8.37,43.41],[-8.85,43.41],[-9.3,43.15],[-9.08,42.56],[-8.92,42.56],[-8.9,42.43],[-8.65,42.3],[-8.96,42.17],[-8.73,40.74],[-8.87,40.61],[-8.9,40.1],[-9.04,39.97],[-9.16,39.51],[-9.39,39.45],[-9.43,39.06],[-9.57,38.93],[-9.55,38.74],[-9.38,38.61],[-9.08,38.67],[-9.09,38.8],[-9.01,38.8],[-8.9,39.26],[-8.6,39.45],[-8.62,39.64],[-8.47,39.77],[-7.93,39.84],[-6.86,40.29],[-6.85,41.07],[-6.25,41.46],[-6.13,41.85],[-5.9,41.98],[-5.78,42.43],[-5.7,42.43],[-5.73,42.76],[-5.81,42.76],[-5.76,43.08],[-5.86,43.21],[-5.94,43.21]]]}},{"type":"Feature","properties":{"NAME":"Vandal Kingdom","C":3,"name":"Vandal Kingdom","start_year":458,"end_year":468,"capital":"","type":"polity","region":"","event":"","source":"Cliopatria / Seshat Global History Databank (CC BY 4.0)","wikipedia":"Vandal Kingdom","wikidata":"Q10416611","_a":305,"_c":[5.51,35.69],"_nz":"汪达尔王国","_sz":""},"geometry":{"type":"MultiPolygon","coordinates":[[[[11.08,35.58],[11.08,35.39],[11.01,35.39],[11.08,35],[10.85,34.94],[10.85,34.81],[10.54,34.55],[10,34.29],[10.08,34.23],[10.01,33.91],[10.24,33.71],[10.54,33.71],[10.7,33.52],[11.08,33.59],[11.16,33.2],[11.46,33.2],[12.23,32.81],[12.61,32.88],[12.53,32.75],[12.84,32.75],[12.84,32.88],[13.07,32.94],[13.3,32.94],[13.45,32.81],[13.76,32.88],[13.76,32.75],[14.07,32.75],[14.44,32.49],[14.67,32.56],[14.75,32.43],[15.21,32.36],[15.42,31.66],[15.58,31.59],[15.65,31.4],[16.18,31.21],[17.47,31.08],[18,30.89],[18.59,30.37],[18.9,30.37],[18.81,29.99],[18.28,30.05],[16.7,30.69],[15.49,30.95],[15.18,30.89],[15.19,31.08],[14.58,31.53],[14.59,31.66],[13.83,32.11],[13.3,32.24],[13.07,32.17],[13.07,32.3],[12.46,32.36],[11.77,32.3],[11.77,32.43],[11.54,32.43],[11.46,32.56],[11.31,32.49],[11.16,32.69],[10.39,33.01],[10.01,33.01],[10.08,33.14],[9.63,33.14],[9.55,33.33],[9.62,33.46],[9.32,33.59],[9.08,34.04],[8.93,34.04],[9,34.36],[8.93,34.36],[8.85,34.74],[8.46,34.87],[8.23,34.81],[7.99,35.07],[7.99,35.52],[7.91,35.52],[7.91,35.97],[7.83,35.97],[7.9,36.22],[7.59,36.61],[6.96,36.61],[6.89,36.48],[6.42,36.55],[6.35,36.42],[5.88,36.48],[5.65,36.35],[2.77,36.42],[2.32,36.22],[2,36.29],[2.01,36.16],[1.15,36.16],[1.01,36.03],[0.77,36.03],[0.48,35.64],[-0.29,35.58],[-1.04,35.07],[-1.2,35.13],[-1.35,35],[-1.81,34.94],[-1.88,34.81],[-2.81,34.94],[-5.28,34.94],[-5.81,34.81],[-6.11,34.61],[-6.24,34.36],[-6.16,34.23],[-6.31,34.23],[-6.6,33.97],[-6.59,33.84],[-6.81,33.71],[-6.73,33.59],[-7.18,33.52],[-7.47,33.26],[-7.88,33.52],[-7.13,33.84],[-7.06,33.97],[-6.9,33.91],[-6.61,34.16],[-6.7,34.29],[-6.47,34.36],[-6.48,34.49],[-6.33,34.55],[-6.28,34.87],[-6.2,34.87],[-6.29,35.07],[-6.13,35],[-6.15,35.19],[-6,35.32],[-5.88,35.77],[-5.34,35.84],[-5.24,35.52],[-4.75,35.19],[-3.13,35.19],[-2.98,35.26],[-2.99,35.45],[-2.84,35.45],[-2.82,35.13],[-2.66,35.07],[-1.89,35.07],[-1.59,35.26],[-1.36,35.26],[-1.14,35.45],[-1.22,35.64],[-1.07,35.58],[-0.92,35.71],[-0.53,35.71],[-0.46,35.84],[0.08,35.84],[0.38,36.22],[0.68,36.29],[0.68,36.42],[0.91,36.35],[1.22,36.55],[1.53,36.48],[2.38,36.67],[2.69,36.61],[2.84,36.74],[3.23,36.74],[3.46,36.87],[3.85,36.8],[4.47,36.93],[4.86,36.87],[5.1,36.67],[5.56,36.67],[5.64,36.8],[6.11,36.8],[6.1,36.93],[6.33,37.06],[6.8,36.87],[7.19,36.87],[7.35,37.06],[7.5,37.06],[7.74,36.87],[8.52,36.87],[8.9,37.13],[9.06,37.06],[9.6,37.32],[9.99,37.19],[10.23,37.25],[10.23,37.06],[10.31,37.06],[10.23,36.8],[10.54,36.74],[10.85,37],[11.01,37],[11.01,36.8],[10.46,36.42],[10.54,36.35],[10.46,35.9],[10.7,35.71],[10.85,35.77],[10.85,35.64],[10.93,35.64],[11.08,35.58]]],[[[15.21,37.19],[15.21,37],[15.05,36.74],[14.66,36.74],[14.28,37.13],[13.58,37.25],[13.19,37.58],[12.49,37.71],[12.49,37.9],[12.65,38.09],[13.04,38.03],[13.12,38.16],[13.35,38.16],[13.67,37.96],[14.06,37.96],[15.63,38.29],[15.62,38.16],[15.39,38.16],[15.07,37.58],[15.06,37.51],[15.06,37.25],[15.21,37.19]]],[[[1.66,39],[1.43,38.8],[1.27,38.8],[1.18,39.06],[1.26,39.13],[1.34,39.13],[1.65,39.13],[1.66,39]]],[[[3.2,39.84],[3.52,39.77],[3.3,39.32],[2.82,39.32],[2.66,39.51],[2.35,39.45],[2.34,39.64],[2.88,39.97],[2.96,39.97],[3.19,39.97],[3.2,39.84]]],[[[4.3,39.84],[3.83,39.9],[3.74,40.1],[3.82,40.1],[4.22,40.1],[4.3,39.84]]],[[[9.82,40.74],[9.82,40.36],[9.67,40.29],[9.75,39.64],[9.67,39.64],[9.59,39.13],[9.12,39.19],[8.97,38.87],[8.73,38.87],[8.34,39],[8.41,39.26],[8.33,39.26],[8.33,39.51],[8.41,39.51],[8.48,39.9],[8.32,39.97],[8.4,40.29],[8.32,40.29],[8.32,40.48],[8.16,40.55],[8.15,40.94],[8.55,40.87],[9.02,41.26],[9.1,41.26],[9.5,41.2],[9.82,40.74]]],[[[13.79,41.2],[14.03,41.39],[14.19,41.33],[14.27,41.2],[14.18,40.87],[14.1,40.87],[13.95,41.13],[13.79,41.13],[13.79,41.2]]]]}},{"type":"Feature","properties":{"NAME":"Burgundian Kingdom","C":6,"name":"Burgundian Kingdom","start_year":459,"end_year":461,"capital":"","type":"polity","region":"","event":"","source":"Cliopatria / Seshat Global History Databank (CC BY 4.0)","wikipedia":"Kingdom of the Burgundians","wikidata":"Q13590051","_a":14,"_c":[5.84,46.75],"_nz":"勃艮第王国","_sz":""},"geometry":{"type":"Polygon","coordinates":[[[8.39,47.01],[8.39,46.94],[8.48,46.94],[8.56,46.94],[8.64,46.94],[8.72,46.94],[8.64,46.68],[8.4,46.55],[8.4,46.41],[8.08,46.22],[8.08,46.09],[7.76,45.82],[7.03,45.56],[5.97,45.5],[4.82,45.89],[4.65,46.09],[4.4,46.09],[4.24,45.96],[4.24,46.02],[4.16,46.02],[4.16,46.09],[4.08,46.09],[3.66,46.35],[3.08,46.48],[3.23,46.74],[2.97,47.07],[3.03,47.33],[2.95,47.47],[3.92,47.73],[5.16,47.73],[5.25,47.6],[5.5,47.6],[6.14,47.99],[6.81,47.93],[7.06,47.8],[7.06,47.73],[7.07,47.53],[7.31,47.47],[7.48,47.27],[8.06,47.2],[8.31,47.01],[8.39,47.01]]]}},{"type":"Feature","properties":{"NAME":"Eastern Roman Empire","C":11,"name":"Eastern Roman Empire","start_year":459,"end_year":468,"capital":"","type":"polity","region":"","event":"","source":"Cliopatria / Seshat Global History Databank (CC BY 4.0)","wikipedia":"Byzantine Empire","wikidata":"Q12544","_a":611,"_c":[28.09,34.46],"_nz":"东罗马帝国","_sz":""},"geometry":{"type":"MultiPolygon","coordinates":[[[[24.16,35.52],[24.15,35.39],[24.3,35.32],[25.69,35.32],[25.68,35.13],[26.23,35.19],[26.14,35.07],[24.82,35],[24.76,35.19],[24.53,35.19],[24.45,35.19],[23.68,35.26],[23.62,35.52],[24.16,35.52]]],[[[14.34,36.03],[14.42,36.03],[14.57,35.97],[14.57,35.77],[14.34,35.84],[14.34,36.03]]],[[[22.89,36.42],[22.96,36.42],[23.12,36.35],[23.11,36.16],[22.87,36.16],[22.89,36.42]]],[[[24.2,37.64],[24.28,37.71],[24.36,37.71],[24.43,37.58],[24.27,37.51],[24.2,37.64]]],[[[24.99,37.71],[25.06,37.71],[25.22,37.71],[25.29,37.51],[25.05,37.51],[24.99,37.71]]],[[[20.62,37.9],[20.7,37.9],[20.93,37.9],[20.92,37.64],[20.61,37.71],[20.62,37.9]]],[[[24.68,37.84],[24.69,38.03],[24.77,38.03],[25.07,37.77],[24.83,37.71],[24.68,37.84]]],[[[20.33,38.35],[20.49,38.42],[20.57,38.42],[20.8,38.29],[20.79,38.09],[20.32,38.16],[20.33,38.35]]],[[[23.57,38.8],[23.56,38.74],[23.48,38.74],[23.49,38.8],[23.57,38.8]]],[[[24.36,38.87],[24.36,39],[24.44,39],[24.67,38.93],[24.66,38.74],[24.36,38.87]]],[[[20.15,39.64],[20.15,39.58],[20.07,39.58],[20.07,39.64],[20.15,39.64]]],[[[24.49,40.81],[24.57,40.81],[24.81,40.81],[24.79,40.61],[24.55,40.55],[24.49,40.81]]],[[[28.8,44.97],[28.84,44.58],[28.58,44.39],[28.54,43.99],[28.62,43.99],[28.48,43.47],[28.16,43.47],[28.23,43.34],[27.9,43.28],[27.8,43.15],[27.85,42.76],[27.51,42.63],[27.49,42.43],[27.94,42.04],[27.98,41.65],[28.22,41.65],[28.28,41.46],[28.51,41.33],[28.98,41.26],[28.96,41.13],[30.48,41.2],[30.62,41.07],[31.18,41.07],[31.53,41.39],[32.03,41.52],[32.04,41.65],[32.19,41.59],[32.69,41.78],[32.63,41.91],[32.86,41.85],[33.28,41.98],[34.78,41.91],[34.88,42.04],[35.12,42.04],[35.16,41.72],[35.95,41.72],[36.21,41.26],[36.77,41.33],[37.07,41.13],[37.23,41.2],[37.21,41.07],[37.77,41.07],[37.83,40.94],[38.16,41],[38.3,40.87],[38.78,40.94],[39.05,41.13],[39.74,40.94],[40.37,40.94],[40.39,41.07],[40.54,41],[41.05,41.2],[41.16,41.39],[41.31,41.33],[41.41,41.46],[41.57,41.46],[41.68,41.65],[41.69,41.72],[41.84,41.65],[41.81,41.46],[41.53,41.26],[41.36,40.68],[41.7,40.36],[41.67,40.16],[41.48,39.97],[41.33,39.97],[41.26,39.51],[40.98,39.26],[40.97,38.61],[40.87,38.48],[40.95,38.48],[40.91,38.22],[41.12,38.03],[41.21,37],[41.55,36.61],[41.53,36.48],[41.68,36.42],[41.66,36.29],[41.09,36.03],[41.11,35],[40.77,34.74],[40.62,34.74],[40.1,34.29],[40.03,34.29],[39.51,34.49],[39.12,34.49],[37.99,33.97],[37.74,33.78],[37.73,33.65],[37.57,33.65],[37.07,33.26],[37.05,33.07],[36.9,33.07],[36.72,32.75],[36.75,32.3],[36.52,32.24],[36.66,32.17],[36.39,31.66],[36.42,31.21],[36.27,31.21],[36.4,30.95],[36.16,30.76],[35.85,29.73],[35.77,29.73],[35.81,29.22],[35.66,29.22],[35.64,29.02],[35.48,28.89],[35.2,28.06],[34.59,28.06],[34.61,28.25],[34.85,28.57],[34.91,29.41],[34.75,29.28],[34.52,28.06],[34.36,27.93],[34.35,27.74],[34.12,27.74],[33.62,28.12],[33.55,28.32],[33.4,28.32],[33.19,28.51],[33.15,29.02],[32.86,29.22],[32.59,29.73],[32.6,29.92],[32.44,29.79],[32.69,28.96],[32.84,28.89],[33.11,28.38],[33.61,27.99],[33.59,27.61],[33.8,27.42],[33.93,27.03],[34.07,26.97],[34.05,26.58],[34.2,26.52],[34.46,25.87],[34.61,25.81],[35.15,24.65],[35.86,24.01],[35.85,23.88],[35.56,23.94],[35.55,23.81],[35.11,23.88],[33.76,23.69],[33.68,23.69],[33.39,23.81],[32.04,23.69],[31.67,23.75],[30.54,23.36],[30.46,23.36],[30.4,23.56],[30.1,23.75],[30.11,23.88],[29.96,23.88],[29.67,24.2],[28.57,24.65],[28.29,25.16],[28.24,25.94],[28.35,26.58],[28.27,26.58],[28.15,27.35],[27.94,27.54],[27.71,27.54],[27.79,27.67],[27.43,27.99],[27.28,27.93],[27.29,28.12],[27.14,28.25],[25.59,28.96],[25.37,29.28],[25.15,29.28],[25,29.41],[24.85,29.34],[24.78,29.54],[24.33,29.67],[23.96,29.92],[23.51,29.99],[22.92,30.31],[22.76,30.24],[22.77,30.37],[21.94,30.56],[20.95,30.56],[19.65,30.24],[19.5,30.12],[18.81,30.05],[18.89,30.31],[19.27,30.24],[19.66,30.37],[19.96,30.56],[19.97,30.69],[20.2,30.89],[20.13,31.14],[20.21,31.27],[20,31.59],[20.09,32.11],[20.02,32.24],[20.25,32.24],[20.33,32.49],[20.48,32.43],[20.56,32.56],[20.72,32.56],[20.64,32.69],[20.87,32.62],[21.11,32.81],[21.41,32.75],[21.88,32.94],[23.09,32.62],[23.08,32.36],[23.3,32.17],[23.68,32.17],[24.13,31.98],[24.89,31.98],[25.11,31.79],[25.1,31.59],[25.25,31.46],[26.85,31.46],[27.3,31.34],[27.51,31.14],[28.5,31.01],[28.87,30.82],[29.4,30.82],[29.49,31.01],[29.63,30.95],[29.87,31.08],[29.8,31.21],[29.88,31.27],[30.34,31.27],[30.27,31.4],[30.35,31.46],[30.81,31.46],[30.97,31.53],[30.97,31.66],[31.2,31.66],[31.12,31.53],[31.27,31.46],[31.88,31.46],[31.78,31.21],[31.94,31.27],[32,31.08],[32.3,31.08],[32.24,31.21],[32.39,31.21],[32.53,31.08],[32.77,31.14],[32.83,31.01],[33.98,31.14],[34.3,31.27],[34.31,31.4],[34.55,31.53],[34.64,31.72],[34.57,31.85],[34.81,31.98],[34.77,32.36],[35.02,32.62],[35.06,33.01],[35.22,33.07],[35.4,33.39],[35.35,33.65],[35.5,33.65],[35.45,33.91],[35.68,33.97],[35.64,34.36],[35.79,34.29],[36.05,34.55],[36.07,34.74],[35.93,34.87],[35.96,35.19],[35.88,35.19],[35.99,35.52],[35.84,35.58],[35.99,36.22],[35.84,36.29],[36.26,36.61],[36.29,36.8],[36.14,36.93],[35.83,36.93],[35.49,36.61],[35.33,36.61],[35.11,36.74],[34.95,36.67],[34.89,36.87],[34.58,36.87],[34.25,36.67],[33.98,36.29],[33.27,36.22],[32.71,36.03],[32.56,36.03],[32.5,36.22],[32.07,36.61],[31.09,36.93],[30.62,36.93],[30.49,36.35],[30.03,36.35],[29.94,36.22],[29.24,36.22],[29.12,36.74],[28.74,36.74],[28.59,36.87],[28.36,36.87],[28.19,36.67],[28.03,36.67],[28.14,37.06],[28.07,37.13],[27.6,37.13],[27.54,37.38],[27.22,37.32],[27.31,37.45],[27.16,37.58],[27.26,37.77],[27.18,37.77],[27.28,38.03],[26.89,38.09],[26.82,38.22],[26.43,38.22],[26.38,38.67],[26.54,38.61],[26.59,38.35],[27.06,38.35],[27.08,38.55],[26.85,38.61],[26.96,39],[26.88,39],[26.89,39.19],[26.74,39.26],[26.85,39.58],[26.13,39.51],[26.27,40.29],[26.6,40.48],[26.68,40.48],[26.67,40.36],[27.47,40.42],[27.54,40.29],[27.7,40.29],[27.79,40.48],[27.95,40.48],[27.94,40.36],[29.05,40.36],[28.9,40.48],[28.91,40.61],[29.39,40.68],[29.49,40.87],[29.25,40.81],[29.1,40.94],[29.12,41.07],[27.53,41.07],[27.02,40.68],[26.92,40.48],[26.77,40.55],[26.93,40.61],[26.85,40.61],[26.77,40.61],[26.78,40.68],[26.7,40.68],[26.62,40.68],[26.55,40.74],[26.14,40.61],[26.08,40.87],[25.85,40.94],[24.35,41],[24.01,40.74],[23.7,40.81],[23.68,40.61],[23.84,40.55],[23.74,40.23],[22.96,40.42],[22.89,40.61],[22.57,40.55],[22.54,40.1],[22.7,40.1],[22.61,39.9],[23.14,39.45],[22.82,39.38],[22.8,39.06],[22.96,39.13],[23.49,38.87],[23.33,38.8],[23.03,38.93],[22.94,38.74],[23.17,38.67],[23.31,38.48],[23.63,38.48],[23.56,38.74],[24.03,38.67],[24.18,38.55],[24.16,38.22],[24,38.22],[23.98,37.84],[23.44,38.03],[23.21,38.03],[23.2,37.9],[23.04,37.9],[23.11,37.64],[23.34,37.64],[23.4,37.32],[23.17,37.32],[23.18,37.45],[22.95,37.58],[22.71,37.58],[22.7,37.32],[22.85,37.25],[23.06,36.67],[22.83,36.87],[22.6,36.87],[22.51,36.67],[22.36,36.67],[22.22,37.06],[21.91,37.06],[21.9,36.87],[21.74,36.87],[21.68,37.19],[21.6,37.19],[21.7,37.51],[21.24,37.84],[21.42,38.16],[21.73,38.16],[21.74,38.35],[21.19,38.42],[20.97,38.74],[20.74,38.8],[20.91,39.06],[20.3,39.38],[20.15,39.71],[19.92,39.71],[19.91,39.58],[19.76,39.64],[19.76,39.77],[20,39.77],[20.01,39.97],[19.63,40.29],[19.47,40.29],[19.49,40.61],[19.25,40.61],[19.25,40.74],[19.5,40.87],[19.44,41.26],[19.52,41.39],[19.44,41.39],[19.53,41.52],[19.45,41.52],[19.54,41.78],[19,42.17],[19.01,42.24],[19.17,42.3],[19.11,42.82],[19.19,42.82],[19.2,42.89],[19.2,42.95],[19.46,43.28],[19.31,43.54],[19.47,43.6],[19.41,43.93],[19.66,44.06],[19.67,44.25],[19.92,44.45],[19.94,44.71],[20.29,45.24],[20.37,45.24],[20.61,45.1],[20.52,44.97],[20.67,44.78],[21.41,44.91],[21.64,44.71],[21.88,44.71],[22.03,44.52],[22.19,44.52],[22.37,44.71],[22.69,44.71],[22.77,44.58],[22.52,44.52],[22.51,44.39],[22.98,44.12],[22.88,43.86],[23.53,43.93],[23.92,43.86],[24.08,43.73],[24.81,43.8],[25.28,43.67],[25.77,43.73],[26.03,43.99],[26.37,44.12],[27.75,44.19],[27.93,44.39],[27.85,44.39],[27.87,44.58],[27.71,44.58],[27.73,44.78],[27.89,44.78],[27.92,45.1],[27.77,45.17],[27.79,45.37],[28.04,45.43],[28.05,45.56],[28.29,45.5],[28.27,45.37],[28.43,45.3],[28.76,45.3],[29.18,45.5],[29.67,45.43],[29.53,44.91],[29.11,44.84],[29.11,44.78],[29.02,44.78],[29.05,44.97],[28.8,44.97]]],[[[34.09,35],[33.7,34.94],[33.52,34.74],[33.13,34.68],[33.04,34.55],[32.37,34.74],[32.23,34.94],[32.25,35.13],[32.55,35.13],[32.88,35.26],[32.89,35.39],[33.74,35.39],[34.31,35.71],[34.39,35.71],[34.54,35.71],[34.53,35.58],[33.96,35.26],[34.09,35]]],[[[27.69,36.29],[28.02,36.48],[28.09,36.48],[28.25,36.48],[28.14,36.03],[27.74,35.9],[27.69,36.29]]],[[[27.04,36.93],[27.12,36.93],[27.19,36.8],[26.87,36.67],[27.04,36.93]]],[[[25.34,37.13],[25.42,37.13],[25.57,37.13],[25.56,37],[25.33,37],[25.34,37.13]]],[[[26.08,37.71],[26.16,37.71],[26.31,37.71],[26.3,37.58],[25.99,37.51],[26.08,37.71]]],[[[25.88,38.16],[25.9,38.48],[25.82,38.48],[25.91,38.67],[25.99,38.67],[26.22,38.55],[26.11,38.16],[25.88,38.16]]],[[[26.09,39],[26.1,39.13],[25.79,39.19],[26.04,39.38],[26.12,39.38],[26.51,39.32],[26.64,39],[26.25,38.93],[26.09,39]]],[[[25.07,40.03],[25.15,40.03],[25.46,40.03],[25.45,39.84],[24.97,39.84],[25.07,40.03]]],[[[25.7,40.1],[25.72,40.29],[25.8,40.29],[26.04,40.29],[26.02,40.16],[25.7,40.1]]]]}},{"type":"Feature","properties":{"NAME":"Visigothic Kingdom","C":2,"name":"Visigothic Kingdom","start_year":459,"end_year":461,"capital":"","type":"polity","region":"","event":"","source":"Cliopatria / Seshat Global History Databank (CC BY 4.0)","wikipedia":"Visigothic Kingdom","wikidata":"Q126936","_a":15,"_c":[0.15,44.42],"_nz":"西哥特王国","_sz":""},"geometry":{"type":"MultiPolygon","coordinates":[[[[-1.77,43.34],[-1.85,43.34],[-1.85,43.41],[-1.77,43.41],[-1.77,43.34]]],[[[2.04,42.69],[1.97,42.56],[1.73,42.56],[1.07,42.82],[0.04,42.69],[-0.94,43.02],[-1.02,43.02],[-1.42,43.02],[-1.52,43.21],[-1.44,43.28],[-1.77,43.34],[-1.46,43.54],[-1.4,43.86],[-1.32,43.86],[-1.35,44.25],[-1.27,44.25],[-1.29,44.52],[-1.21,44.52],[-1.25,45.17],[-1.17,45.17],[-1.19,45.43],[-1.03,45.5],[-1.05,45.69],[-1.21,45.76],[-1.14,45.89],[-1.22,45.89],[-1.25,46.22],[-1.25,46.28],[-1.09,46.28],[-0.39,45.69],[-0.23,45.69],[0.37,45.17],[0.54,45.17],[1.39,44.45],[1.55,44.45],[1.97,44.12],[2.15,43.86],[2.12,42.76],[2.04,42.76],[2.04,42.69]]]]}},{"type":"Feature","properties":{"NAME":"Western Roman Empire","C":9,"name":"Western Roman Empire","start_year":459,"end_year":461,"capital":"","type":"polity","region":"","event":"","source":"Cliopatria / Seshat Global History Databank (CC BY 4.0)","wikipedia":"Western Roman Empire","wikidata":"Q42834","_a":444,"_c":[5.12,43.77],"_nz":"西罗马帝国","_sz":""},"geometry":{"type":"MultiPolygon","coordinates":[[[[9.49,42.76],[9.57,42.76],[9.58,41.98],[9.5,41.98],[9.5,41.78],[9.26,41.39],[9.1,41.33],[8.78,41.52],[8.78,41.72],[8.62,41.72],[8.7,41.91],[8.54,42.11],[8.53,42.5],[8.77,42.69],[9.17,42.76],[9.25,43.02],[9.33,43.02],[9.49,43.02],[9.49,42.76]]],[[[2.04,42.76],[2.12,42.76],[2.15,43.86],[1.97,44.12],[1.55,44.45],[1.39,44.45],[0.54,45.17],[0.37,45.17],[-0.23,45.69],[-0.39,45.69],[-1.09,46.28],[-1.25,46.28],[-1.33,46.28],[-1.67,46.35],[-2.01,46.61],[-2.02,46.74],[-2.19,46.81],[-2.14,47.14],[-2.23,47.27],[-2.56,47.27],[-2.58,47.47],[-2.83,47.53],[-2.84,47.6],[-2.45,47.86],[-1.8,47.99],[-1.65,48.19],[-1.65,48.26],[-1.67,48.46],[-1.51,48.52],[-1.6,48.65],[-1.61,48.72],[-1.72,49.05],[-1.64,49.05],[-1.65,49.25],[-1.91,49.38],[-2.03,49.78],[-1.36,49.78],[-1.25,49.45],[0.01,49.38],[-0.01,49.65],[0.22,49.85],[1.05,49.98],[1.37,50.25],[1.45,50.25],[1.97,50.11],[3.14,50.11],[4.15,49.98],[4.32,50.11],[4.31,50.25],[4.64,50.38],[4.64,50.51],[4.97,50.58],[5.05,50.71],[5.81,50.71],[5.89,50.71],[5.97,50.78],[5.96,51.18],[6.2,51.51],[6.71,51.51],[6.89,51.38],[7.06,50.98],[7.24,50.91],[7.24,50.71],[7.75,50.31],[7.68,49.91],[8.18,49.85],[8.18,49.78],[8.35,49.65],[8.28,49.18],[8.11,48.99],[7.53,49.05],[7.36,48.92],[7.21,48.26],[7.13,48.26],[7.14,47.86],[7.06,47.86],[7.06,47.8],[6.81,47.93],[6.14,47.99],[5.5,47.6],[5.25,47.6],[5.16,47.73],[3.92,47.73],[2.95,47.47],[3.03,47.33],[2.97,47.07],[3.23,46.74],[3.08,46.48],[3.66,46.35],[4.08,46.09],[4.16,46.09],[4.16,46.02],[4.24,46.02],[4.24,45.96],[4.4,46.09],[4.65,46.09],[4.82,45.89],[5.97,45.5],[7.03,45.56],[7.76,45.82],[8.08,46.09],[8.08,46.22],[8.4,46.41],[8.4,46.55],[8.64,46.68],[8.72,46.94],[8.81,46.94],[9.13,47.27],[9.3,47.27],[9.38,47.4],[9.95,47.66],[9.87,47.86],[9.95,47.86],[10.03,48.32],[10.2,48.52],[11.36,48.85],[11.86,49.18],[12.61,48.99],[12.94,48.72],[13.6,48.59],[13.68,48.59],[13.76,48.46],[14.26,48.26],[16.16,48.26],[16.07,47.86],[15.98,47.86],[15.78,46.61],[15.61,46.41],[14.86,46.09],[14.86,45.96],[14.61,45.82],[14.61,45.63],[14.93,45.56],[15.17,45.17],[15.49,44.91],[15.65,44.91],[15.64,44.71],[15.88,44.71],[16.04,44.58],[16.19,44.25],[16.36,44.25],[16.43,43.99],[17.15,43.8],[17.22,43.67],[17.86,43.41],[19.31,43.54],[19.46,43.28],[19.2,42.95],[19.2,42.89],[19.19,42.82],[19.11,42.82],[19.17,42.3],[19.01,42.24],[18.93,42.24],[18.85,42.37],[18.14,42.63],[17.83,42.89],[17.59,42.89],[17.51,42.76],[17.52,42.95],[17.36,42.95],[17.37,43.21],[17.12,43.15],[17.05,43.41],[16.73,43.34],[16.73,43.54],[16.58,43.6],[15.93,43.47],[16.01,43.6],[15.86,43.8],[15.7,43.8],[15.62,43.93],[15.37,43.86],[15.46,43.99],[15.22,44.06],[15.15,44.39],[14.91,44.58],[14.92,44.97],[14.52,45.1],[14.6,45.37],[14.2,45.37],[14.19,45.04],[13.95,45.04],[13.94,44.91],[13.78,44.91],[13.71,45.24],[13.54,45.3],[13.55,45.5],[13.71,45.5],[13.71,45.76],[13.14,45.82],[13.06,45.63],[12.82,45.69],[12.65,45.56],[12.16,45.5],[12.16,45.17],[12.4,45.04],[12.4,44.78],[12.16,44.84],[12.15,44.45],[12.31,44.19],[12.87,43.8],[13.04,43.86],[13.03,43.73],[13.36,43.67],[13.67,43.41],[13.75,43.08],[13.99,42.95],[13.9,42.76],[14.06,42.5],[14.37,42.24],[14.53,42.24],[14.61,42.11],[14.77,42.17],[14.77,42.04],[14.92,41.98],[15.17,42.04],[15.24,41.91],[16.12,41.91],[16.11,41.78],[15.87,41.72],[15.94,41.39],[17.2,41],[17.51,40.74],[17.98,40.61],[18.44,40.16],[18.35,39.9],[18.11,39.9],[17.81,40.36],[17.42,40.36],[17.35,40.55],[17.03,40.55],[16.87,40.48],[16.95,40.42],[16.86,40.29],[16.62,40.29],[16.7,40.1],[16.46,39.97],[16.45,39.64],[16.92,39.51],[17.07,39.38],[17.14,39.06],[16.5,38.8],[16.49,38.42],[15.93,37.96],[15.7,37.96],[15.63,38.29],[15.94,38.35],[15.95,38.67],[16.27,38.74],[16.27,38.93],[16.12,39.06],[15.9,39.77],[15.67,39.9],[15.75,40.03],[15.43,40.03],[15.2,40.23],[15.04,40.23],[14.89,40.68],[14.42,40.68],[14.42,40.87],[14.1,40.87],[13.95,41.13],[13.79,41.13],[13.71,41.26],[13,41.33],[12.92,41.46],[12.6,41.52],[12.13,41.91],[12.13,42.04],[11.81,42.11],[11.65,42.37],[11.49,42.3],[11.42,42.43],[11.26,42.43],[11.18,42.63],[11.02,42.63],[11.02,42.82],[10.54,43.08],[10.21,43.99],[9.89,43.99],[9.97,44.12],[9.73,44.12],[9.16,44.45],[8.43,44.39],[8.03,43.93],[7.15,43.73],[6.99,43.54],[6.67,43.47],[6.52,43.21],[6.28,43.15],[5.8,43.15],[5.63,43.28],[5.39,43.28],[5.39,43.41],[5.06,43.47],[4.18,43.47],[4.17,43.6],[3.85,43.6],[3.62,43.41],[3.14,43.28],[2.98,43.15],[3.01,42.56],[3.18,42.37],[3.12,41.91],[2.57,41.59],[2.33,41.59],[2.11,41.33],[1.24,41.2],[0.7,40.94],[0.71,40.68],[0.25,40.42],[0.18,40.16],[-0.13,40.03],[-0.35,39.71],[-0.31,39.13],[0.1,38.74],[-0.66,38.29],[-0.8,38.03],[-0.7,37.64],[-1.71,37.45],[-1.62,37.32],[-1.86,37.32],[-2.06,36.8],[-2.53,36.87],[-2.68,36.74],[-4.47,36.74],[-4.69,36.55],[-5.23,36.48],[-5.29,36.22],[-5.66,36.03],[-5.83,36.22],[-6.06,36.22],[-6.33,36.67],[-6.35,36.93],[-6.59,37],[-6.84,37.25],[-7.47,37.25],[-7.45,37.13],[-7.68,37],[-8.7,37.13],[-9,37],[-8.9,37.58],[-8.82,37.58],[-8.82,38.48],[-9.21,38.42],[-9.23,38.67],[-9,38.74],[-9.01,38.8],[-8.9,39.26],[-8.6,39.45],[-8.62,39.64],[-8.47,39.77],[-7.93,39.84],[-6.86,40.29],[-6.85,41.07],[-6.25,41.46],[-6.13,41.85],[-5.9,41.98],[-5.78,42.43],[-5.7,42.43],[-5.73,42.76],[-5.65,42.76],[-2.68,42.63],[-2.53,42.76],[-2.28,42.63],[-2.13,42.82],[-1.81,42.76],[-1.33,42.82],[-1.26,42.95],[-0.94,42.95],[-0.94,43.02],[0.04,42.69],[1.07,42.82],[1.73,42.56],[1.97,42.56],[2.04,42.69],[2.04,42.76]]],[[[10.46,42.69],[10.21,42.69],[10.13,42.89],[10.21,42.89],[10.46,42.89],[10.46,42.69]]],[[[14.5,44.52],[14.26,44.58],[14.27,44.97],[14.35,44.97],[14.51,44.91],[14.5,44.52]]]]}}]}