{"type":"FeatureCollection", "features": [
{"type":"Feature","geometry":{"type":"Polygon","coordinates":[[[75.73,33.65],[75.54,33.78],[74.63,33.84],[74.35,33.97],[73.36,33.97],[73.39,34.1],[72.68,34.04],[72.57,33.91],[72.17,33.84],[71.9,33.65],[71.31,33.46],[70.93,33.14],[70.78,32.81],[70.36,32.62],[70.41,32.49],[69.32,31.66],[69.25,31.34],[69.07,31.21],[68.93,30.89],[67.97,30.63],[67.87,30.5],[67.11,30.5],[66.55,29.92],[66.06,28.77],[65.7,27.42],[65.77,27.42],[65.8,26.52],[66.02,25.94],[65.7,25.74],[65.09,25.68],[64.28,25.81],[62.3,25.55],[62.14,25.42],[62.03,25.1],[62.47,25.1],[62.56,25.23],[63.54,25.23],[63.63,25.36],[64.23,25.36],[64.28,25.23],[64.8,25.16],[64.82,25.29],[66.02,25.36],[66.35,25.55],[66.68,25.23],[66.63,24.84],[67.21,24.71],[67.29,24.07],[67.63,23.81],[68.16,23.81],[68.13,23.56],[68.55,23.36],[68.81,22.98],[69.45,22.72],[70.37,22.91],[70.26,22.66],[69.87,22.46],[69.5,22.46],[69.41,22.34],[68.98,22.46],[68.95,22.21],[69.35,21.76],[69.5,21.76],[69.9,21.37],[69.89,21.24],[70.3,20.86],[70.72,20.66],[71.09,20.66],[72.1,21.11],[72.28,21.37],[72.38,22.27],[72.74,22.21],[72.69,22.4],[72.87,22.66],[72.88,23.36],[72.1,23.75],[71.98,23.94],[71.2,24.33],[71.09,24.59],[70.79,24.59],[70.52,24.84],[69.54,25.36],[69.37,26.32],[69.3,26.32],[69.42,27.16],[69.74,27.74],[70.24,28.06],[70.61,27.99],[70.85,28.12],[71.78,28.25],[72.07,28.19],[72.63,28.38],[74.18,28.57],[75.76,28.57],[75.79,28.7],[76.24,28.7],[76.82,28.96],[76.95,29.6],[76.77,29.86],[76.8,29.99],[76.37,30.12],[76.21,30.44],[75.87,30.95],[75.51,31.4],[75.72,31.98],[75.53,32.17],[76.1,32.62],[76.17,32.94],[76.04,33.01],[75.87,33.59],[75.73,33.65]]]},"properties":{"NAME":"Indus Valley Civilization","C":11,"name":"Indus Valley Civilization","start_year":-2000,"end_year":-1801,"capital":"","type":"polity","region":"","event":"","source":"Cliopatria / Seshat Global History Databank (CC BY 4.0)","wikipedia":"Indus Valley Civilisation","wikidata":"Q42534","_a":201,"_c":[69.49,27.38],"_nz":"印度河流域文明","_sz":""}},
{"type":"Feature","geometry":{"type":"Polygon","coordinates":[[[48.03,30.89],[47.81,30.95],[47.7,31.27],[47.26,31.46],[47.13,31.66],[46.85,31.85],[46.48,31.91],[46.37,32.24],[46.54,32.94],[46.16,33.01],[46.13,33.33],[45.9,33.33],[45.47,32.94],[44.95,33.07],[44.75,33.33],[44.59,33.26],[44.16,32.94],[44.19,32.56],[44.32,32.36],[44.71,32.43],[44.83,32.17],[45.06,32.17],[45.18,31.91],[45.4,31.79],[45.45,31.59],[45.38,31.01],[45.77,30.44],[46.59,30.31],[46.7,30.56],[47.24,30.63],[47.25,30.76],[48.03,30.89]]]},"properties":{"NAME":"Sumerian City-States","C":10,"name":"Sumerian City-States","start_year":-2000,"end_year":-1801,"capital":"","type":"polity","region":"","event":"","source":"Cliopatria / Seshat Global History Databank (CC BY 4.0)","wikipedia":"History of Sumer","wikidata":"Q2345840","_a":12,"_c":[46.13,31.82],"_nz":"苏美尔城邦","_sz":""}},
{"type":"Feature","geometry":{"type":"Polygon","coordinates":[[[48.1,30.89],[49.14,30.69],[49.11,30.44],[49.57,30.44],[49.7,30.31],[49.93,30.31],[50.14,30.18],[50.48,30.44],[50.36,30.69],[50.07,30.82],[50.11,31.08],[49.98,31.27],[50.29,31.85],[49.82,32.36],[49.72,32.69],[49.25,32.62],[49.28,32.81],[48.99,32.94],[48.68,32.94],[48.55,33.07],[47.48,33.14],[47.35,33.26],[46.9,33.33],[46.68,33.46],[46.81,33.84],[46.68,33.97],[46.08,34.1],[46.04,34.36],[45.71,34.74],[45.9,35],[45.61,35.13],[45.3,34.61],[45.11,34.87],[44.88,34.87],[44.76,34.61],[44.53,34.55],[44.48,34.23],[44.32,34.16],[44.44,33.91],[44.3,33.39],[44.59,33.26],[44.75,33.33],[44.95,33.07],[45.47,32.94],[45.9,33.33],[46.13,33.33],[46.16,33.01],[46.54,32.94],[46.37,32.24],[46.48,31.91],[46.85,31.85],[47.13,31.66],[47.26,31.46],[47.7,31.27],[47.81,30.95],[48.03,30.89],[48.1,30.89]]]},"properties":{"NAME":"Elam","C":11,"name":"Elam","start_year":-2000,"end_year":-1801,"capital":"","type":"polity","region":"","event":"","source":"Cliopatria / Seshat Global History Databank (CC BY 4.0)","wikipedia":"Elam","wikidata":"Q128904","_a":31,"_c":[47.39,32.66],"_nz":"埃兰","_sz":""}},
{"type":"Feature","geometry":{"type":"Polygon","coordinates":[[[31.1,31.6],[30.36,31.5],[30.29,31.24],[30.06,31.32],[29.5,30.95],[29.5,30.5],[30.12,30.07],[30.38,29.72],[30.39,29.42],[30.03,29.19],[29.95,28.92],[30.05,28.77],[30.45,28.71],[30.75,27.23],[31.62,26.43],[31.85,25.94],[32.54,25.89],[32.35,25.73],[32.24,25.31],[32.64,25.01],[32.76,24.71],[32.75,24],[33.13,24],[33.11,25.04],[32.9,25.17],[32.69,25.49],[32.95,25.89],[32.9,26.19],[32.17,26.41],[31.52,27],[31.38,27.27],[30.98,27.42],[30.93,28.03],[31,28.51],[31.37,29.31],[31.87,29.27],[32.54,29.41],[32.34,29.59],[32.48,29.94],[32.85,30.16],[32.73,30.56],[32.76,30.87],[32.69,31.04],[32.33,31.27],[32.14,31.07],[31.56,31.44],[31.1,31.6]]]},"properties":{"NAME":"Middle Kingdom of Egypt","C":6,"name":"Middle Kingdom of Egypt","start_year":-2000,"end_year":-1801,"capital":"","type":"polity","region":"","event":"","source":"Cliopatria / Seshat Global History Databank (CC BY 4.0)","wikipedia":"Middle Kingdom of Egypt","wikidata":"Q191324","_a":28,"_c":[31.32,27.8],"_nz":"中王国时期埃及","_sz":""}}
]}