{"type":"FeatureCollection","features":[{"type":"Feature","properties":{"NAME":"Kingdom of Kush","C":3,"name":"Kingdom of Kush","start_year":-630,"end_year":337,"capital":"","type":"polity","region":"","event":"","source":"Cliopatria / Seshat Global History Databank (CC BY 4.0)","wikipedia":"Kingdom of Kush","wikidata":"Q241790","_a":48,"_c":[33.29,19.51],"_nz":"库施王国","_sz":""},"geometry":{"type":"Polygon","coordinates":[[[33.84,22.08],[33.76,22.08],[33.84,22.01],[33.75,21.63],[33.82,21.63],[34.26,19.64],[34.47,19.38],[34.6,18.93],[34.88,18.61],[34.94,18.29],[35.3,18.09],[35.5,17.64],[36,17.32],[36.05,16.81],[35.67,16.49],[34.71,16.49],[34.56,16.23],[34.68,15.78],[34.1,15.84],[33.86,15.46],[32.53,15.2],[32.53,15.33],[32.09,15.39],[31.73,15.59],[31.53,15.97],[31.54,16.23],[31.39,16.36],[31.48,16.61],[31.34,16.81],[31.22,17.64],[31.15,17.64],[30.88,20.34],[30.8,20.34],[30.82,20.79],[30.74,20.79],[30.76,21.31],[30.69,21.31],[30.64,21.95],[30.56,21.95],[30.72,22.27],[30.74,22.85],[30.53,23.3],[30.54,23.36],[31.67,23.75],[32.04,23.69],[33.39,23.81],[33.68,23.69],[33.68,23.62],[33.82,23.49],[33.81,23.17],[33.88,23.17],[33.84,22.14],[33.84,22.08]]]}},{"type":"Feature","properties":{"NAME":"Zapotec Civilization","C":5,"name":"Zapotec Civilization","start_year":-500,"end_year":-292,"capital":"","type":"polity","region":"","event":"","source":"Cliopatria / Seshat Global History Databank (CC BY 4.0)","wikipedia":"Zapotec civilization","wikidata":"Q844750","_a":1,"_c":[-96.83,17.23],"_nz":"萨波特克文明","_sz":""},"geometry":{"type":"Polygon","coordinates":[[[-97.18,17.13],[-96.9,16.74],[-96.54,16.81],[-96.56,16.94],[-96.26,16.94],[-96.31,17.19],[-96.86,17.45],[-96.91,17.71],[-96.96,17.58],[-97.41,17.64],[-97.23,17.45],[-97.37,17.39],[-97.35,17.26],[-97.19,17.19],[-97.18,17.13]]]}},{"type":"Feature","properties":{"NAME":"Xu","C":1,"name":"Xu","start_year":-404,"end_year":-292,"capital":"","type":"polity","region":"","event":"","source":"Cliopatria / Seshat Global History Databank (CC BY 4.0)","wikipedia":"Xu (state)","wikidata":"Q2650109","_a":1,"_c":[116.97,35.2],"_nz":"徐","_sz":""},"geometry":{"type":"Polygon","coordinates":[[[117.21,35.32],[117.16,35.19],[117.31,35.19],[117.41,35.07],[117.02,34.87],[116.76,35],[116.74,35.13],[116.59,35.13],[116.52,35.32],[117.07,35.52],[117.21,35.32]]]}},{"type":"Feature","properties":{"NAME":"Yan","C":2,"name":"Yan","start_year":-404,"end_year":-292,"capital":"","type":"polity","region":"","event":"","source":"Cliopatria / Seshat Global History Databank (CC BY 4.0)","wikipedia":"Yan (state)","wikidata":"Q1472004","_a":11,"_c":[118.97,39.78],"_nz":"燕","_sz":""},"geometry":{"type":"Polygon","coordinates":[[[119.32,39.51],[119.38,39.77],[120.5,40.23],[120.65,40.48],[121.23,40.94],[119.34,40.42],[117.57,40.36],[117.07,40.16],[117.03,40.1],[116.93,39.9],[117.01,39.77],[116.8,39.51],[116.93,39.32],[116.7,38.87],[116.9,38.8],[116.87,38.74],[117.11,38.74],[117.12,38.61],[117.2,38.61],[117.62,38.67],[117.68,38.93],[117.89,39.19],[118.05,39.19],[118.06,39.06],[118.45,39.06],[118.99,39.19],[119.28,39.45],[119.32,39.51]]]}},{"type":"Feature","properties":{"NAME":"Lu","C":1,"name":"Lu","start_year":-404,"end_year":-285,"capital":"","type":"polity","region":"","event":"","source":"Cliopatria / Seshat Global History Databank (CC BY 4.0)","wikipedia":"Lu (state)","wikidata":"Q555994","_a":2,"_c":[116.36,35.87],"_nz":"鲁","_sz":""},"geometry":{"type":"Polygon","coordinates":[[[116.97,35.64],[117.02,35.77],[116.85,35.9],[116.91,36.03],[116.5,36.16],[116.48,36.29],[116.2,36.35],[116.23,36.42],[115.68,36.22],[115.65,36.16],[115.8,36.16],[115.76,35.9],[116.05,35.84],[115.96,35.64],[116.06,35.52],[116.21,35.52],[116.29,35.32],[116.52,35.32],[117.07,35.52],[116.97,35.64]]]}},{"type":"Feature","properties":{"NAME":"Minaeans","C":0,"name":"Minaeans","start_year":-383,"end_year":-189,"capital":"","type":"polity","region":"","event":"","source":"Cliopatria / Seshat Global History Databank (CC BY 4.0)","wikipedia":"Minaeans","wikidata":"Q1177379","_a":5,"_c":[43.86,16.84],"_nz":"米奈人","_sz":""},"geometry":{"type":"Polygon","coordinates":[[[44.81,16.61],[44.3,16.74],[44.31,16.87],[44.09,16.81],[43.82,17.26],[43.9,17.39],[43.48,17.77],[43.25,17.64],[43.03,17.71],[43.02,17.51],[42.63,17.19],[42.49,17.19],[42.48,17],[42.76,16.74],[42.82,16.49],[42.81,16.42],[43.11,16.42],[43.39,16.23],[44.12,16.16],[44.33,15.91],[45.21,15.91],[45.22,15.97],[45.23,16.1],[44.81,16.55],[44.81,16.61]]]}},{"type":"Feature","properties":{"NAME":"Cimmerian Bosporus","C":0,"name":"Cimmerian Bosporus","start_year":-366,"end_year":-231,"capital":"","type":"polity","region":"","event":"","source":"Cliopatria / Seshat Global History Databank (CC BY 4.0)","wikipedia":"Bosporan Kingdom","wikidata":"Q321371","_a":2,"_c":[36.54,45.07],"_nz":"辛梅里安博斯普鲁斯王国","_sz":""},"geometry":{"type":"MultiPolygon","coordinates":[[[[37.33,44.97],[37.1,45.1],[36.78,45.1],[36.75,45.43],[36.91,45.43],[36.97,45.3],[37.79,45.3],[37.93,44.71],[37.53,44.71],[37.32,44.91],[37.33,44.97]]],[[[36.09,45.37],[36.42,45.43],[36.37,45.1],[35.88,45.04],[35.73,45.17],[35.41,45.17],[35.39,45.04],[35.22,44.97],[35.24,45.1],[35.15,45.1],[35.18,45.3],[36.01,45.37],[36.09,45.37]]]]}},{"type":"Feature","properties":{"NAME":"Later Zhou","C":0,"name":"Later Zhou","start_year":-350,"end_year":-257,"capital":"","type":"polity","region":"","event":"","source":"Cliopatria / Seshat Global History Databank (CC BY 4.0)","wikipedia":"Later Zhou","wikidata":"Q1154556","_a":0,"_c":[112.86,35.29],"_nz":"后周","_sz":""},"geometry":{"type":"Polygon","coordinates":[[[112.24,35.26],[112.19,35.13],[113.42,35.13],[113.48,35.26],[113.53,35.39],[113.4,35.45],[113.09,35.45],[112.32,35.45],[112.27,35.32],[112.24,35.26]]]}},{"type":"Feature","properties":{"NAME":"Sabaeans","C":6,"name":"Sabaeans","start_year":-350,"end_year":-111,"capital":"","type":"polity","region":"","event":"","source":"Cliopatria / Seshat Global History Databank (CC BY 4.0)","wikipedia":"Sabaeans","wikidata":"Q940785","_a":5,"_c":[44.58,15.75],"_nz":"萨巴人","_sz":""},"geometry":{"type":"Polygon","coordinates":[[[45.21,15.91],[44.33,15.91],[44.12,16.16],[43.39,16.23],[43.11,16.42],[42.81,16.42],[42.81,16.36],[42.69,15.52],[42.77,15.52],[42.82,15.07],[44.22,15.14],[44.29,15.14],[45.02,15.14],[45.18,15.26],[45.85,15.39],[45.86,15.52],[46.15,15.52],[46.38,15.71],[46.47,15.97],[46.4,15.97],[46.18,15.97],[46.02,15.84],[45.58,15.84],[45.37,15.97],[45.29,15.91],[45.21,15.91]]]}},{"type":"Feature","properties":{"NAME":"Wey","C":3,"name":"Wey","start_year":-350,"end_year":-285,"capital":"","type":"polity","region":"","event":"","source":"Cliopatria / Seshat Global History Databank (CC BY 4.0)","wikipedia":"Wey (state)","wikidata":"Q1147897","_a":1,"_c":[115.13,36.23],"_nz":"卫","_sz":""},"geometry":{"type":"Polygon","coordinates":[[[114.58,36.03],[114.83,35.71],[115.65,36.16],[115.68,36.22],[115.6,36.22],[115.63,36.29],[115.66,36.35],[115.58,36.35],[115.61,36.42],[115.36,36.74],[114.61,36.1],[114.58,36.03]]]}},{"type":"Feature","properties":{"NAME":"Hadhramaut","C":11,"name":"Hadhramaut","start_year":-350,"end_year":183,"capital":"","type":"polity","region":"","event":"","source":"Cliopatria / Seshat Global History Databank (CC BY 4.0)","wikipedia":"Hadhramaut","wikidata":"Q1517159","_a":12,"_c":[49.05,15.68],"_nz":"哈德拉毛","_sz":""},"geometry":{"type":"MultiPolygon","coordinates":[[[[51.07,15.46],[50.85,15.33],[50.75,15.01],[49.63,14.69],[48.54,14.81],[48.32,14.94],[47.52,15.07],[47.53,15.2],[46.65,15.33],[46.58,15.33],[46.15,15.52],[46.38,15.71],[46.47,15.97],[46.47,16.04],[46.55,16.16],[46.7,16.1],[48.12,16.42],[49.59,16.49],[50.12,16.61],[50.48,16.55],[51.08,16.68],[51.89,16.61],[51.95,16.49],[51.86,16.23],[51.24,15.78],[51.08,15.52],[51.07,15.46]]],[[[46.7,16.16],[46.63,16.16],[46.63,16.23],[46.71,16.23],[46.7,16.16]]]]}},{"type":"Feature","properties":{"NAME":"Scythia","C":9,"name":"Scythia","start_year":-350,"end_year":-226,"capital":"","type":"polity","region":"","event":"","source":"Cliopatria / Seshat Global History Databank (CC BY 4.0)","wikipedia":"Scythians","wikidata":"Q131802","_a":78,"_c":[32.64,48.25],"_nz":"斯基泰","_sz":""},"geometry":{"type":"MultiPolygon","coordinates":[[[[32.15,46.15],[31.56,46.26],[31.51,46.37],[32.01,46.2],[32.15,46.15]]],[[[37.34,46.92],[36.79,46.71],[35.83,46.62],[35.13,46.13],[35.01,46.11],[35.28,46.28],[35.23,46.44],[34.85,46.19],[34.91,45.88],[35.25,45.46],[35.05,45.33],[34.57,45.13],[33.26,45.17],[32.51,45.4],[33.66,45.95],[33.59,46.1],[33.43,46.06],[33.2,46.18],[32.48,46.08],[31.83,46.28],[32.01,46.43],[31.55,46.55],[32.36,46.47],[32.58,46.62],[32.26,46.58],[32.81,46.83],[32.65,47.11],[31.84,47.35],[30.9,47.18],[30,46.82],[29.2,46.87],[27.64,47.52],[26.76,48.16],[26.34,49.05],[26.34,49.47],[26.97,50.47],[28.65,51.05],[30.56,51.31],[31.99,51.36],[32.73,51.25],[35.76,49.9],[38.94,47.97],[38.39,47.7],[37.51,47.51],[37.54,47.07],[37.34,46.92]]]]}},{"type":"Feature","properties":{"NAME":"Song","C":5,"name":"Song","start_year":-350,"end_year":-292,"capital":"","type":"polity","region":"","event":"","source":"Cliopatria / Seshat Global History Databank (CC BY 4.0)","wikipedia":"Song (state)","wikidata":"Q7462","_a":7,"_c":[116.16,35.13],"_nz":"宋","_sz":""},"geometry":{"type":"Polygon","coordinates":[[[117.41,35.07],[117.02,34.87],[116.76,35],[116.74,35.13],[116.59,35.13],[116.52,35.32],[116.29,35.32],[116.21,35.52],[116.06,35.52],[115.96,35.64],[116.05,35.84],[115.76,35.9],[115.8,36.16],[115.65,36.16],[114.83,35.71],[115.08,35.39],[114.99,35.19],[114.5,34.94],[114.47,34.87],[114.34,34.74],[114.65,34.55],[115.49,34.55],[115.59,34.42],[116.11,34.36],[116.62,34.1],[117.23,34.1],[117.52,34.23],[117.72,34.36],[117.97,34.74],[117.53,34.81],[117.54,35],[117.41,35.07]]]}},{"type":"Feature","properties":{"NAME":"Qi","C":0,"name":"Qi","start_year":-350,"end_year":-292,"capital":"","type":"polity","region":"","event":"","source":"Cliopatria / Seshat Global History Databank (CC BY 4.0)","wikipedia":"Qi (state)","wikidata":"Q1143524","_a":28,"_c":[119.15,36.71],"_nz":"齐","_sz":""},"geometry":{"type":"Polygon","coordinates":[[[119.13,38.09],[118.77,38.16],[118.8,38.22],[118.65,38.22],[118.58,38.09],[118.07,38.16],[118.05,38.29],[117.6,38.48],[117.62,38.67],[117.23,38.67],[117.2,38.61],[116.61,37.25],[116.12,36.87],[115.61,36.42],[115.58,36.35],[115.66,36.35],[115.63,36.29],[115.6,36.22],[115.68,36.22],[116.23,36.42],[116.2,36.35],[116.48,36.29],[116.5,36.16],[116.91,36.03],[116.85,35.9],[117.02,35.77],[116.97,35.64],[117.07,35.52],[117.21,35.32],[117.16,35.19],[117.31,35.19],[117.41,35.07],[117.54,35],[117.53,34.81],[117.97,34.74],[119.01,35.71],[119.53,35.84],[120.05,35.77],[120.07,35.84],[120.32,36.03],[120.66,36.1],[120.73,36.42],[120.96,36.42],[120.98,36.61],[121.21,36.61],[121.91,36.93],[122.15,36.93],[122.16,36.8],[122.5,36.87],[122.57,37],[122.44,37.06],[122.71,37.45],[122.12,37.51],[122.15,37.58],[121.5,37.51],[121.48,37.64],[121.17,37.64],[121.11,37.84],[120.75,37.9],[120.19,37.71],[120.2,37.58],[119.83,37.45],[119.7,37.19],[119.16,37.19],[119.14,37.32],[118.98,37.32],[119.24,37.84],[119.39,37.84],[119.46,37.96],[119.18,38.03],[119.21,38.09],[119.13,38.09]]]}},{"type":"Feature","properties":{"NAME":"Qataban","C":10,"name":"Qataban","start_year":-350,"end_year":-111,"capital":"","type":"polity","region":"","event":"","source":"Cliopatria / Seshat Global History Databank (CC BY 4.0)","wikipedia":"Qataban","wikidata":"Q748595","_a":2,"_c":[45.4,15.07],"_nz":"盖特班","_sz":""},"geometry":{"type":"Polygon","coordinates":[[[45.15,14.81],[44.78,14.62],[44.21,14.94],[44.29,15.07],[44.29,15.14],[45.02,15.14],[45.18,15.26],[45.85,15.39],[45.86,15.52],[46.15,15.52],[46.58,15.33],[46.58,15.26],[46.34,15.01],[45.75,14.94],[45.3,14.75],[45.23,14.81],[45.15,14.81]]]}},{"type":"Feature","properties":{"NAME":"Han","C":9,"name":"Han","start_year":-337,"end_year":-257,"capital":"","type":"polity","region":"","event":"","source":"Cliopatria / Seshat Global History Databank (CC BY 4.0)","wikipedia":"Han (state)","wikidata":"Q1968654","_a":3,"_c":[113.05,35.1],"_nz":"汉","_sz":""},"geometry":{"type":"Polygon","coordinates":[[[112.94,35.45],[112.92,35.58],[111.88,35.52],[111.59,34.61],[113.44,34.61],[113.67,34.81],[114.47,34.87],[114.5,34.94],[114.48,35.07],[114.27,35.13],[113.48,35.26],[113.42,35.13],[112.19,35.13],[112.24,35.26],[112.27,35.32],[112.32,35.45],[112.94,35.45]]]}},{"type":"Feature","properties":{"NAME":"Zhao","C":0,"name":"Zhao","start_year":-337,"end_year":-257,"capital":"","type":"polity","region":"","event":"","source":"Cliopatria / Seshat Global History Databank (CC BY 4.0)","wikipedia":"Zhao (state)","wikidata":"Q1574107","_a":11,"_c":[114,36.2],"_nz":"赵","_sz":""},"geometry":{"type":"Polygon","coordinates":[[[114.61,36.1],[115.36,36.74],[115.61,36.42],[116.12,36.87],[114.91,36.93],[114.95,37.19],[115.15,37.45],[114.61,37.13],[114.17,37.19],[114.2,37.25],[113.94,37.19],[113.72,37.06],[112.28,36.8],[111.97,36.1],[112.05,36.1],[111.88,35.52],[112.92,35.58],[112.94,35.45],[113.09,35.45],[113.4,35.45],[113.53,35.39],[113.48,35.26],[114.27,35.13],[114.48,35.07],[114.5,34.94],[114.99,35.19],[115.08,35.39],[114.83,35.71],[114.58,36.03],[114.61,36.1]]]}},{"type":"Feature","properties":{"NAME":"Minyue","C":7,"name":"Minyue","start_year":-333,"end_year":-219,"capital":"","type":"polity","region":"","event":"","source":"Cliopatria / Seshat Global History Databank (CC BY 4.0)","wikipedia":"Minyue","wikidata":"Q1936158","_a":61,"_c":[118.37,26.45],"_nz":"闽越","_sz":""},"geometry":{"type":"MultiPolygon","coordinates":[[[[122.02,29.67],[121.94,29.22],[121.59,29.09],[121.74,29.09],[121.71,28.77],[121.52,28.64],[121.65,28.57],[121.65,28.32],[121.15,28.19],[121.19,28.32],[121.12,28.32],[121.04,28.06],[120.87,27.99],[120.71,27.74],[120.66,27.54],[120.73,27.54],[120.55,27.16],[120.3,27.09],[120.17,26.9],[120.16,26.58],[119.84,26.52],[119.85,26.26],[119.59,26.13],[119.78,26],[119.53,25.62],[119.9,25.62],[119.87,25.49],[119.47,25.36],[119.42,25.49],[119.27,25.49],[119.39,25.36],[119.34,25.16],[119.03,25.1],[119.07,24.97],[118.82,24.84],[118.76,24.59],[118.15,24.52],[118.08,24.2],[117.72,23.94],[117.69,23.81],[117.47,23.81],[117.18,23.49],[116.89,23.56],[116.78,23.36],[116.81,23.17],[116.59,23.17],[116.54,22.91],[115.7,22.79],[115.67,22.66],[115.37,22.66],[115.17,22.79],[114.9,22.53],[114.75,22.53],[114.74,22.85],[114.9,22.91],[114.45,23.62],[114.55,24.46],[114.47,24.46],[114.72,25.23],[114.66,25.29],[114.86,25.49],[115.23,26.39],[114.96,26.52],[115.03,26.77],[114.95,26.77],[115.33,28.89],[115.26,28.89],[115.64,29.86],[115.8,30.12],[116.05,30.18],[116.13,30.18],[116.27,29.92],[116.74,29.73],[118.36,29.6],[119.7,29.99],[120.52,30.37],[120.73,30.31],[120.7,30.24],[120.81,30.12],[121.1,30.31],[121.48,30.31],[121.62,30.05],[122.03,29.92],[121.86,29.67],[121.94,29.67],[122.02,29.67]]],[[[122.05,30.18],[122.27,30.18],[122.28,29.99],[121.98,29.99],[122.02,30.12],[122.05,30.18]]]]}},{"type":"Feature","properties":{"NAME":"Yuezhi","C":2,"name":"Yuezhi","start_year":-331,"end_year":-204,"capital":"","type":"polity","region":"","event":"","source":"Cliopatria / Seshat Global History Databank (CC BY 4.0)","wikipedia":"Yuezhi","wikidata":"Q467985","_a":214,"_c":[82.73,41.58],"_nz":"月氏","_sz":""},"geometry":{"type":"Polygon","coordinates":[[[78.57,45.17],[78.35,45.43],[78,45.56],[78.02,45.82],[77.83,45.96],[77.88,46.09],[77.75,46.15],[77.75,46.35],[77.36,46.41],[77.39,46.48],[75.45,46.55],[75.32,46.41],[74.88,46.35],[74.75,46.02],[74.32,45.96],[74.12,45.43],[74.25,45.37],[74.13,45.04],[73.97,45.04],[73.97,44.84],[74.25,44.71],[74.28,44.58],[74.44,44.58],[74.56,44.25],[75,44.12],[74.79,43.8],[75.2,43.6],[75.14,43.21],[75.39,43.02],[75.77,42.95],[75.88,42.82],[75.7,42.56],[75.81,42.43],[76.16,42.5],[76.14,42.24],[76.28,42.17],[76.21,41.98],[76,41.85],[73.34,41.07],[73,40.74],[72.48,40.61],[72.34,40.42],[72.1,40.42],[71.98,40.29],[72.26,40.16],[72.2,39.97],[72.43,39.97],[72.67,39.71],[73.42,39.58],[73.38,39.45],[74.75,39.32],[77.03,38.8],[77.26,38.55],[77.41,38.55],[77.51,38.35],[77.67,38.35],[77.84,38.16],[77.8,38.03],[78.09,37.71],[78.39,37.64],[78.42,37.51],[79.15,37.32],[79.4,37.13],[80.37,37],[81.03,36.61],[81.26,36.61],[81.71,36.8],[82.1,36.8],[85.11,37.45],[85.36,37.71],[85.81,37.9],[86.08,38.22],[86.44,38.35],[87.66,38.48],[88.75,38.87],[90.47,39.06],[92.14,39.51],[93.17,39.9],[93.17,40.1],[93.39,40.42],[93.31,40.42],[93.47,40.61],[93.23,40.61],[92.61,41],[92.45,41],[92.48,41.07],[92.32,41.07],[92.35,41.13],[91.27,41.39],[90.78,41.72],[90.54,41.72],[90.43,41.85],[90.19,41.85],[90.22,41.91],[89.61,41.98],[89.64,42.04],[88.82,42.17],[88.85,42.24],[88.08,42.3],[88.11,42.37],[85.76,42.69],[85.79,42.76],[84.11,42.76],[82.56,42.3],[81.12,42.3],[81.12,42.5],[81.04,42.5],[81.09,42.82],[80.79,43.08],[80.87,43.28],[80.74,43.34],[80.76,43.6],[80.38,44.06],[80.41,44.52],[80.33,44.52],[80.49,44.71],[80.38,44.84],[80.06,44.84],[79.95,44.97],[79.52,44.91],[79.54,44.97],[78.65,45.17],[78.57,45.17]]]}},{"type":"Feature","properties":{"NAME":"Cyrenaica","C":7,"name":"Cyrenaica","start_year":-331,"end_year":-292,"capital":"","type":"polity","region":"","event":"","source":"Cliopatria / Seshat Global History Databank (CC BY 4.0)","wikipedia":"Cyrenaica","wikidata":"Q165198","_a":13,"_c":[20.98,31.46],"_nz":"昔兰尼加","_sz":""},"geometry":{"type":"Polygon","coordinates":[[[22.46,32.11],[23.07,32.11],[23.23,32.36],[23.08,32.43],[23.09,32.62],[22.11,32.94],[21.57,32.88],[21.41,32.75],[21.11,32.81],[20.87,32.62],[20.64,32.69],[20.72,32.56],[20.56,32.56],[20.48,32.43],[20.33,32.49],[20.25,32.24],[20.02,32.24],[20.09,32.11],[20,31.59],[20.21,31.27],[20.12,30.76],[19.5,30.31],[18.89,30.31],[18.73,29.99],[19.57,30.12],[20.66,30.89],[20.44,31.34],[20.54,31.91],[21.16,32.04],[21.53,31.98],[21.69,32.11],[22.38,32.11],[22.46,32.11]]]}},{"type":"Feature","properties":{"NAME":"Etruscans","C":4,"name":"Etruscans","start_year":-326,"end_year":-292,"capital":"","type":"polity","region":"","event":"","source":"Cliopatria / Seshat Global History Databank (CC BY 4.0)","wikipedia":"Etruscan civilization","wikidata":"Q17161","_a":10,"_c":[10.46,42.57],"_nz":"伊特鲁里亚人","_sz":""},"geometry":{"type":"MultiPolygon","coordinates":[[[[9.33,43.02],[9.49,43.02],[9.49,42.76],[9.57,42.76],[9.58,41.98],[9.5,41.98],[9.5,41.78],[9.26,41.39],[9.1,41.33],[8.78,41.52],[8.78,41.72],[8.62,41.72],[8.7,41.91],[8.54,42.11],[8.53,42.5],[8.77,42.69],[9.17,42.76],[9.25,43.02],[9.33,43.02]]],[[[10.46,42.89],[10.46,42.69],[10.21,42.69],[10.13,42.89],[10.21,42.89],[10.46,42.89]]],[[[12.38,42.89],[12.38,42.82],[12.38,42.76],[12.14,42.76],[12.14,42.5],[12.38,42.5],[12.38,42.43],[12.37,42.37],[11.9,42.43],[11.97,42.3],[11.81,42.17],[11.73,42.17],[11.65,42.37],[11.49,42.3],[11.42,42.43],[11.26,42.43],[11.18,42.63],[11.02,42.63],[11.02,42.82],[10.54,43.08],[10.29,43.8],[11.91,43.8],[12.07,43.6],[12.31,43.54],[12.3,42.95],[12.38,42.95],[12.38,42.89]]]]}},{"type":"Feature","properties":{"NAME":"Wei","C":11,"name":"Wei","start_year":-326,"end_year":-292,"capital":"","type":"polity","region":"","event":"","source":"Cliopatria / Seshat Global History Databank (CC BY 4.0)","wikipedia":"Wei (state)","wikidata":"Q320930","_a":18,"_c":[114.66,38.64],"_nz":"魏","_sz":""},"geometry":{"type":"Polygon","coordinates":[[[115.29,40.1],[115.16,40.29],[114.53,40.29],[114.6,40.42],[113.09,40.42],[112.74,40.36],[112.11,39.9],[112.24,39.84],[112.17,39.71],[113.12,39.71],[113.08,39.64],[113.81,39.51],[113.77,39.45],[113.93,39.45],[113.9,39.38],[114.05,39.38],[114.15,39.26],[114.11,39.19],[114.27,39.19],[114.34,39.32],[114.81,39.32],[114.36,38.74],[113.89,38.42],[113.7,38.03],[113.78,38.03],[113.63,37.38],[113.92,37.32],[113.94,37.19],[114.2,37.25],[114.17,37.19],[114.61,37.13],[115.15,37.45],[114.95,37.19],[114.91,36.93],[116.12,36.87],[116.61,37.25],[117.2,38.61],[117.12,38.61],[117.04,38.61],[117.01,38.55],[116.93,38.55],[116.85,38.55],[116.15,38.55],[116.4,38.74],[116.16,38.74],[116.26,38.93],[116.09,39.06],[116.1,39.38],[115.86,39.38],[116.1,39.84],[116.02,39.84],[115.55,39.84],[115.37,40.1],[115.29,40.1]]]}},{"type":"Feature","properties":{"NAME":"Kalinga","C":1,"name":"Kalinga","start_year":-318,"end_year":-292,"capital":"","type":"polity","region":"","event":"","source":"Cliopatria / Seshat Global History Databank (CC BY 4.0)","wikipedia":"Kalinga","wikidata":"Q356524","_a":20,"_c":[83.94,18.99],"_nz":"羯陵伽","_sz":""},"geometry":{"type":"Polygon","coordinates":[[[85.99,20.6],[86.07,20.6],[86.2,20.47],[86.16,20.15],[86.44,20.02],[86.43,19.96],[85.65,19.64],[85.5,19.64],[85.52,19.83],[85.37,19.83],[85.41,19.57],[84.75,18.99],[84.38,18.41],[84.05,18.16],[83.75,18.09],[83.56,17.77],[82.92,17.32],[82.61,17.26],[82.44,17],[82.29,17],[81.88,17.32],[81.9,17.45],[81.69,17.58],[81.52,17.96],[81.47,18.22],[81.57,18.41],[81.44,18.54],[81.47,18.8],[81.91,19.96],[82.23,20.15],[82.51,20.6],[82.75,20.79],[83.37,20.99],[85.14,20.86],[85.92,20.6],[85.99,20.6]]]}},{"type":"Feature","properties":{"NAME":"Qin","C":2,"name":"Qin","start_year":-315,"end_year":-278,"capital":"","type":"polity","region":"","event":"","source":"Cliopatria / Seshat Global History Databank (CC BY 4.0)","wikipedia":"Qin (state)","wikidata":"Q1471995","_a":156,"_c":[107.71,33.82],"_nz":"秦","_sz":""},"geometry":{"type":"Polygon","coordinates":[[[110.28,29.92],[107.46,28.83],[106.03,28.57],[106.07,28.44],[105.13,28.32],[104.07,28.57],[103.9,28.51],[103.86,28.64],[102.93,28.83],[102.6,29.02],[101.48,29.34],[101.44,29.47],[101.16,29.54],[100.98,29.73],[101.02,29.86],[100.83,29.99],[100.86,30.12],[100.67,30.24],[100.67,30.5],[100.6,30.5],[100.98,31.27],[101.84,32.04],[102.16,32.56],[102.31,33.46],[102.24,33.46],[102.33,33.71],[102.25,33.71],[102.41,34.16],[103.09,34.36],[103.38,34.29],[103.48,34.36],[103.5,34.61],[104.13,34.87],[106.18,35.39],[106.49,35.58],[106.8,35.58],[106.85,35.71],[107.06,35.64],[108.07,36.03],[109.37,36.35],[109.42,36.48],[109.81,36.48],[110.7,36.74],[110.75,36.87],[110.88,36.8],[111.43,37],[114.08,39.13],[114.11,39.19],[114.27,39.19],[114.34,39.32],[114.81,39.32],[114.36,38.74],[113.89,38.42],[113.7,38.03],[113.78,38.03],[113.63,37.38],[113.92,37.32],[113.94,37.19],[113.72,37.06],[112.28,36.8],[111.97,36.1],[112.05,36.1],[111.88,35.52],[111.59,34.61],[110.72,34.74],[110.69,34.49],[110.82,34.42],[110.74,34.04],[110.51,34.04],[110.49,33.78],[110.31,33.71],[110.21,33.46],[109.86,33.33],[109.76,33.07],[109.87,32.94],[109.31,31.59],[109.48,31.4],[109.48,30.95],[109.92,30.44],[110.41,30.31],[110.23,29.99],[110.36,29.92],[110.28,29.92]]]}},{"type":"Feature","properties":{"NAME":"Chu","C":0,"name":"Chu","start_year":-315,"end_year":-285,"capital":"","type":"polity","region":"","event":"","source":"Cliopatria / Seshat Global History Databank (CC BY 4.0)","wikipedia":"Chu (state)","wikidata":"Q504759","_a":82,"_c":[115.66,32.59],"_nz":"楚","_sz":""},"geometry":{"type":"Polygon","coordinates":[[[119.89,34.55],[119.98,34.42],[120.34,34.36],[120.49,34.16],[120.55,33.59],[120.93,33.2],[120.92,32.62],[121.4,32.49],[121.5,32.17],[121.96,31.98],[121.94,31.72],[121.84,31.66],[121.3,31.85],[120.92,31.85],[121.45,31.66],[121.48,31.53],[121.63,31.53],[121.58,31.4],[121.74,31.4],[122,31.08],[121.9,30.82],[121.52,30.82],[120.8,30.31],[120.73,30.31],[120.52,30.37],[119.7,29.99],[118.36,29.6],[116.74,29.73],[116.27,29.92],[116.13,30.18],[116.15,30.24],[116.12,30.37],[115.69,30.44],[115.21,30.37],[114.87,30.5],[114.11,30.5],[113.95,30.24],[113.58,30.05],[113.27,29.54],[112.9,29.34],[112,29.34],[111.81,29.47],[111.3,29.54],[110.66,29.92],[110.43,29.92],[110.36,29.92],[110.23,29.99],[110.41,30.31],[109.92,30.44],[109.48,30.95],[109.48,31.4],[109.31,31.59],[109.87,32.94],[109.76,33.07],[109.86,33.33],[110.21,33.46],[110.31,33.71],[110.49,33.78],[110.51,34.04],[110.74,34.04],[110.82,34.42],[110.69,34.49],[110.72,34.74],[111.59,34.61],[113.44,34.61],[113.67,34.81],[114.47,34.87],[114.34,34.74],[114.65,34.55],[115.49,34.55],[115.59,34.42],[116.11,34.36],[116.62,34.1],[117.23,34.1],[117.52,34.23],[117.72,34.36],[117.97,34.74],[119.01,35.71],[119.53,35.84],[120.05,35.77],[120.02,35.71],[119.62,35.52],[119.23,34.81],[119.46,34.81],[119.81,34.55],[119.89,34.55]]]}},{"type":"Feature","properties":{"NAME":"Seleucid Empire","C":0,"name":"Seleucid Empire","start_year":-301,"end_year":-292,"capital":"","type":"polity","region":"","event":"","source":"Cliopatria / Seshat Global History Databank (CC BY 4.0)","wikipedia":"Seleucid dynasty","wikidata":"Q705904","_a":656,"_c":[51.98,33.06],"_nz":"塞琉古帝国","_sz":""},"geometry":{"type":"MultiPolygon","coordinates":[[[[69.42,39.64],[69.28,39.45],[69.36,39.45],[69.36,39.19],[69.52,39.19],[69.41,39.06],[69.57,38.8],[70.32,38.67],[70.36,38.55],[70.63,38.67],[70.59,38.55],[71.2,38.48],[71.36,38.22],[71.78,38.03],[71.94,37.77],[72.43,37.58],[72.42,37.51],[71.83,37.06],[71.66,36.74],[70.59,35.58],[70.54,35.39],[69.89,34.61],[69.54,34.42],[69.49,34.23],[69.32,34.16],[68.98,33.65],[68.52,33.33],[67.11,31.66],[66.75,31.4],[66.05,30.05],[65.62,29.79],[65.43,29.54],[65.19,29.47],[65.17,29.34],[64.74,29.02],[64.53,28.64],[64.37,28.57],[63.59,27.42],[63.36,26.84],[63.2,26.77],[62.56,25.23],[62.56,25.16],[61.72,25.04],[61.66,25.16],[61.13,25.1],[60.92,25.23],[60.62,25.23],[60.63,25.36],[59.06,25.36],[58.78,25.55],[57.74,25.62],[57.68,25.74],[57.38,25.74],[57.18,25.94],[57.05,26.84],[56.71,27.16],[56.19,27.16],[56.1,27.03],[56.32,27.03],[56.31,26.9],[56.06,26.71],[55.6,26.64],[55.44,26.52],[55.29,26.52],[55.31,26.71],[55.54,26.77],[55.24,26.77],[54.83,26.45],[54.46,26.52],[54.26,26.71],[53.66,26.71],[53.46,26.97],[52.74,27.22],[52.48,27.61],[52.05,27.8],[51.6,27.8],[51.32,27.99],[51.33,28.12],[51.07,28.44],[51.03,28.77],[50.81,28.83],[50.92,29.09],[50.62,29.15],[50.65,29.41],[50.24,29.73],[50.06,30.18],[49.59,29.99],[48.94,30.31],[48.99,30.05],[48.37,29.92],[48.4,29.6],[48.09,29.54],[47.65,29.6],[47.29,29.79],[46.98,29.73],[46.99,29.86],[46.85,29.92],[46.62,29.86],[46.59,30.31],[45.77,30.44],[44.95,31.27],[44.58,31.34],[44.46,31.59],[43.15,32.81],[42.71,32.94],[42.58,33.14],[42.06,33.33],[42,33.46],[41.49,33.65],[41.43,33.78],[41.27,33.78],[41.21,33.91],[40.91,33.97],[40.7,34.16],[40.31,34.1],[40.4,34.23],[40.26,34.29],[39.12,34.49],[37.99,33.97],[37.74,33.78],[37.73,33.65],[37.65,33.65],[37.6,33.91],[37.39,34.1],[37,34.1],[36.87,34.29],[36.56,34.29],[36.44,34.61],[36.29,34.68],[36.31,34.87],[36.17,34.94],[36.27,35.19],[35.89,35.26],[35.9,35.32],[35.99,35.52],[35.84,35.58],[35.87,35.84],[35.99,36.22],[35.85,36.35],[36.19,36.61],[36.26,36.61],[37.28,36.61],[38,36.8],[38.02,37],[38.18,37],[38.27,37.13],[39.13,37.19],[39.55,37.38],[39.6,37.77],[39.17,38.09],[37.76,38.09],[37.11,37.9],[36.35,38.03],[36,37.71],[35.67,37.58],[34.36,37.71],[33.68,37.9],[32.03,37.9],[31.62,37.64],[31.53,38.35],[31.88,38.74],[32.5,38.67],[32.84,38.93],[33,38.93],[33.27,38.55],[33.51,38.55],[33.67,38.61],[33.7,38.87],[34.48,38.8],[34.49,38.93],[34.66,39],[34.69,39.26],[34.95,39.45],[35.59,39.58],[35.67,39.58],[36.15,39.64],[37.86,39.45],[38.47,39.32],[38.38,39.19],[38.67,39.06],[38.75,39.06],[39.45,38.42],[40.45,38.29],[40.6,38.22],[40.57,38.03],[41.67,38.03],[41.96,37.9],[42.51,37.9],[43.94,37.58],[44.41,37.58],[44.77,37.38],[44.74,37.19],[44.87,37],[45.25,36.93],[45.12,36.03],[45.2,36.03],[45.22,35.64],[46.03,35.39],[47.95,35.32],[48.77,35.13],[49.41,35.26],[49.61,35.52],[50.48,35.64],[50.85,36.03],[52.01,36.42],[52.11,36.55],[52.19,36.55],[53.09,36.8],[54.03,36.87],[54.09,37.19],[53.98,37.38],[54.7,37.51],[54.85,37.84],[55.29,38.09],[56.23,38.09],[56.67,38.35],[57.55,38.42],[58.63,38.67],[60.26,39.26],[60.62,39.45],[60.65,39.58],[60.95,39.51],[62.5,40.03],[62.88,39.97],[63.47,40.1],[64.89,40.1],[65.23,39.9],[65.56,39.97],[66.22,39.77],[68.53,39.58],[68.62,39.9],[69,40.1],[69.04,40.23],[69.27,40.23],[69.27,40.48],[69.19,40.48],[69.27,40.74],[69.61,40.81],[69.81,40.68],[70.56,41.07],[70.68,40.94],[70.64,40.81],[70.78,40.74],[70.74,40.61],[69.85,40.29],[69.89,40.16],[69.33,39.9],[69.34,39.64],[69.42,39.64]]],[[[38.68,39.13],[38.69,39.19],[38.77,39.19],[38.76,39.13],[38.68,39.13]]],[[[70.34,40.36],[70.36,40.42],[70.44,40.42],[70.42,40.36],[70.34,40.36]]]]}},{"type":"Feature","properties":{"NAME":"Atropatene","C":9,"name":"Atropatene","start_year":-301,"end_year":-248,"capital":"","type":"polity","region":"","event":"","source":"Cliopatria / Seshat Global History Databank (CC BY 4.0)","wikipedia":"Atropatene","wikidata":"Q260437","_a":25,"_c":[48.61,36.9],"_nz":"阿特罗帕特尼","_sz":""},"geometry":{"type":"Polygon","coordinates":[[[49.03,37.64],[48.83,37.84],[48.87,38.09],[48.8,38.09],[48.33,38.09],[47.25,38.67],[46.12,38.48],[45.85,38.29],[45.63,37.9],[45.22,37.77],[45.17,37.45],[45.25,37.45],[45.29,37.19],[45.45,37.19],[45.25,36.93],[45.12,36.03],[45.2,36.03],[45.22,35.64],[46.03,35.39],[47.95,35.32],[48.77,35.13],[49.41,35.26],[49.61,35.52],[50.48,35.64],[50.85,36.03],[52.01,36.42],[52.11,36.55],[52.03,36.55],[50.82,36.74],[50.53,36.87],[50.63,37],[50.57,37.06],[50.32,37],[50,37.38],[49.02,37.58],[49.03,37.64]]]}},{"type":"Feature","properties":{"NAME":"Maurya Empire","C":3,"name":"Maurya Empire","start_year":-301,"end_year":-292,"capital":"","type":"polity","region":"","event":"","source":"Cliopatria / Seshat Global History Databank (CC BY 4.0)","wikipedia":"Maurya Empire","wikidata":"Q62943","_a":528,"_c":[77.66,28.77],"_nz":"孔雀帝国","_sz":""},"geometry":{"type":"MultiPolygon","coordinates":[[[[90.73,26.97],[90.66,26.97],[90.67,27.03],[90.75,27.03],[90.73,26.97]]],[[[90.6,27.03],[90.61,27.09],[90.68,27.09],[90.67,27.03],[90.6,27.03]]],[[[75.01,37.32],[74.84,37],[74.81,36.61],[74.89,36.61],[74.88,36.29],[74.96,36.29],[75.09,35.64],[75.17,35.64],[75.18,35.39],[75.39,35],[75.36,34.61],[75.52,34.61],[75.39,34.42],[75.65,33.91],[75.6,33.71],[75.67,33.71],[75.69,33.46],[75.82,33.39],[75.84,33.14],[75.98,33.07],[75.94,32.94],[76.1,32.94],[76.08,32.56],[76.46,32.24],[78.66,31.53],[78.83,31.59],[78.84,31.34],[79.18,31.46],[79.53,31.01],[80.05,30.95],[80.34,30.56],[80.92,30.44],[81.15,30.12],[81.39,30.18],[81.7,29.86],[82.34,29.67],[82.46,29.54],[83.05,29.47],[83.25,29.34],[83.49,29.41],[83.52,29.22],[83.75,29.22],[84.01,29.02],[84.25,29.09],[84.48,28.77],[84.76,28.64],[85.21,28.64],[85.85,28.44],[85.9,28.32],[86.7,28.19],[87.38,27.87],[88.39,27.99],[88.36,27.87],[88.59,27.87],[88.71,27.74],[88.95,27.8],[88.99,27.61],[89.38,27.67],[89.49,27.48],[89.76,27.35],[90.07,27.42],[90.05,27.29],[90.27,27.29],[90.17,27.16],[90.6,27.03],[90.63,26.84],[91.91,26.84],[91.93,26.19],[92.07,26.13],[91.94,25.87],[92.07,25.74],[92.03,25.55],[92.23,25.42],[92.33,25.16],[92.48,25.16],[92.39,25.04],[92.52,24.97],[92.35,24.84],[92.11,24.33],[92.26,24.33],[92.23,24.14],[92.31,24.14],[92.32,23.75],[92.23,23.69],[92.37,23.62],[92.43,23.04],[92.5,23.04],[92.47,22.85],[92.64,22.46],[92.6,22.21],[92.73,22.08],[92.66,21.56],[92.73,21.56],[92.76,21.24],[92.33,21.37],[92.33,20.86],[92.12,20.92],[92.01,21.18],[92.05,21.5],[91.83,21.5],[91.89,21.95],[91.76,22.08],[91.74,22.4],[91.37,22.4],[91.5,22.79],[91.42,22.79],[91.24,22.59],[90.94,22.53],[90.86,22.01],[90.63,21.95],[90.65,22.08],[90.43,22.08],[90.23,21.76],[89.9,22.01],[89.87,21.82],[89.71,21.76],[89.12,21.76],[89.1,21.63],[88.73,21.63],[88.72,22.08],[88.64,22.08],[88.51,21.69],[88.37,21.69],[88.35,21.56],[88.13,21.63],[88.18,21.95],[88.1,21.95],[87.76,21.63],[87.07,21.44],[86.88,21.18],[86.96,21.18],[87.03,20.6],[86.79,20.47],[86.84,20.28],[86.51,20.02],[86.44,20.02],[86.16,20.15],[86.2,20.47],[86.07,20.6],[86.08,20.66],[85.9,21.05],[85.51,21.44],[84.86,21.63],[81.65,22.08],[81.01,22.27],[74.98,22.85],[74.99,22.98],[74.77,22.98],[74.35,23.24],[74.05,23.24],[73.93,23.49],[73.65,23.62],[73.2,23.62],[71.9,23.94],[69.76,24.14],[69.55,24.26],[68.8,24.26],[68.83,23.88],[68.42,23.56],[68.13,23.56],[68.16,23.81],[67.63,23.81],[67.49,23.88],[67.44,24.07],[67.29,24.07],[67.33,24.39],[67.25,24.39],[67.21,24.71],[66.63,24.84],[66.68,25.23],[66.35,25.55],[66.02,25.36],[64.82,25.29],[64.8,25.16],[64.28,25.23],[64.23,25.36],[63.63,25.36],[63.54,25.23],[62.64,25.23],[62.56,25.23],[63.2,26.77],[63.36,26.84],[63.59,27.42],[64.37,28.57],[64.53,28.64],[64.74,29.02],[65.17,29.34],[65.19,29.47],[65.43,29.54],[65.62,29.79],[66.05,30.05],[66.75,31.4],[67.11,31.66],[68.52,33.33],[68.98,33.65],[69.32,34.16],[69.49,34.23],[69.54,34.42],[69.89,34.61],[70.54,35.39],[70.59,35.58],[71.66,36.74],[71.83,37.06],[72.42,37.51],[72.49,37.51],[73.16,37.38],[73.74,37.51],[73.77,37.32],[74.19,37.45],[74.74,37.45],[74.86,37.32],[74.94,37.32],[75.01,37.32]]]]}},{"type":"Feature","properties":{"NAME":"Zhongshan","C":4,"name":"Zhongshan","start_year":-301,"end_year":-292,"capital":"","type":"polity","region":"","event":"","source":"Cliopatria / Seshat Global History Databank (CC BY 4.0)","wikipedia":"Zhongshan","wikidata":"Q59223","_a":2,"_c":[116.49,39.33],"_nz":"中山","_sz":""},"geometry":{"type":"Polygon","coordinates":[[[116.93,38.55],[117.01,38.55],[117.04,38.61],[117.12,38.61],[117.11,38.74],[116.87,38.74],[116.9,38.8],[116.7,38.87],[116.93,39.32],[116.8,39.51],[117.01,39.77],[116.93,39.9],[117.03,40.1],[116.95,40.1],[116.45,39.9],[116.14,39.9],[116.1,39.84],[115.86,39.38],[116.1,39.38],[116.09,39.06],[116.26,38.93],[116.16,38.74],[116.4,38.74],[116.15,38.55],[116.85,38.55],[116.93,38.55]]]}},{"type":"Feature","properties":{"NAME":"Macedonian Empire","C":11,"name":"Macedonian Empire","start_year":-301,"end_year":-292,"capital":"","type":"polity","region":"","event":"","source":"Cliopatria / Seshat Global History Databank (CC BY 4.0)","wikipedia":"Macedonia (ancient kingdom)","wikidata":"Q83958","_a":124,"_c":[26.9,38.62],"_nz":"马其顿帝国","_sz":""},"geometry":{"type":"MultiPolygon","coordinates":[[[[20.92,37.64],[20.61,37.71],[20.62,37.9],[20.7,37.9],[20.93,37.9],[20.92,37.64]]],[[[23.11,37.64],[23.34,37.64],[23.4,37.32],[23.17,37.32],[23.18,37.45],[22.95,37.58],[22.71,37.58],[22.7,37.32],[22.85,37.25],[22.92,37],[22.69,37.13],[22.69,37.19],[22.15,37.32],[21.61,37.25],[21.61,37.32],[21.7,37.51],[21.24,37.84],[21.33,38.09],[21.73,38.16],[21.74,38.42],[21.19,38.42],[20.97,38.74],[20.74,38.8],[20.91,39.06],[20.3,39.38],[20.15,39.71],[19.92,39.71],[20.01,39.97],[19.63,40.29],[19.47,40.29],[19.49,40.61],[19.25,40.61],[19.25,40.74],[19.5,40.87],[19.44,41.26],[19.52,41.39],[19.44,41.39],[19.53,41.52],[19.45,41.52],[19.54,41.78],[19.39,41.85],[19.47,41.98],[19.71,41.91],[19.95,42.04],[20.11,41.91],[20.19,42.04],[20.75,42.04],[21,42.24],[21.32,42.17],[21.41,42.3],[21.81,42.3],[21.82,42.43],[22.3,42.56],[22.39,42.69],[22.47,42.69],[22.54,42.5],[22.37,42.37],[22.44,42.17],[22.67,42.11],[22.82,41.91],[23.53,41.78],[23.59,41.59],[23.75,41.52],[23.8,41.2],[23.96,41.2],[24.26,40.94],[24.26,40.87],[24.01,40.74],[23.7,40.81],[23.68,40.61],[23.84,40.55],[23.74,40.23],[22.96,40.42],[22.89,40.61],[22.57,40.55],[22.54,40.1],[22.7,40.1],[22.61,39.9],[23.14,39.45],[22.82,39.38],[22.8,39.06],[22.96,39.13],[23.02,38.87],[22.94,38.87],[22.94,38.8],[23.31,38.48],[23.63,38.48],[23.56,38.74],[24.03,38.67],[24.18,38.55],[24.16,38.22],[24,38.22],[23.98,37.84],[23.9,37.84],[23.9,37.9],[23.77,38.22],[23.53,38.22],[23.44,38.03],[23.36,38.03],[23.04,37.9],[23.04,37.77],[23.11,37.64]],[[22.29,38.35],[22.28,38.22],[22.44,38.29],[22.43,38.16],[22.59,38.16],[22.66,37.96],[22.97,37.96],[23.06,38.16],[22.99,38.29],[22.68,38.42],[22.68,38.35],[22.6,38.35],[22.6,38.42],[22.53,38.42],[22.13,38.42],[22.29,38.35]]],[[[20.79,38.09],[20.32,38.16],[20.33,38.35],[20.49,38.42],[20.57,38.42],[20.8,38.29],[20.79,38.09]]],[[[20.07,39.64],[20.15,39.64],[20.15,39.58],[20.07,39.58],[20.07,39.64]]],[[[33.96,35.26],[34.09,35],[33.7,34.94],[33.52,34.74],[33.13,34.68],[33.04,34.55],[32.37,34.74],[32.23,34.94],[32.25,35.13],[32.55,35.13],[32.88,35.26],[32.89,35.39],[33.74,35.39],[34.31,35.71],[34.39,35.71],[34.54,35.71],[34.53,35.58],[33.96,35.26]]],[[[22.92,37],[23,37],[22.99,36.93],[22.91,36.93],[22.92,37]]],[[[31.52,37.45],[31.6,37.45],[31.59,37.38],[31.52,37.38],[31.52,37.45]]],[[[23.49,38.8],[23.57,38.8],[23.56,38.74],[23.48,38.74],[23.49,38.8]]],[[[23.03,39.06],[23.34,39],[23.41,38.87],[23.49,38.87],[23.33,38.8],[23.03,38.93],[23.03,39.06]]]]}},{"type":"Feature","properties":{"NAME":"Ptolemaic Kingdom","C":9,"name":"Ptolemaic Kingdom","start_year":-301,"end_year":-292,"capital":"","type":"polity","region":"","event":"","source":"Cliopatria / Seshat Global History Databank (CC BY 4.0)","wikipedia":"Ptolemaic Kingdom","wikidata":"Q2320005","_a":209,"_c":[32.49,30.73],"_nz":"托勒密王国","_sz":""},"geometry":{"type":"MultiPolygon","coordinates":[[[[37.07,33.26],[37.05,33.07],[36.9,33.07],[36.72,32.75],[36.75,32.3],[36.52,32.24],[36.66,32.11],[36.49,31.98],[36.46,31.66],[36.39,31.66],[36.42,31.21],[35.66,31.21],[35.5,31.08],[35.35,31.14],[34.62,30.56],[34.61,30.44],[34.39,30.5],[34.3,30.37],[33.84,30.24],[32.92,30.12],[32.91,29.99],[32.76,29.99],[32.67,29.86],[32.53,29.92],[32.44,29.79],[32.69,28.96],[32.84,28.89],[33.11,28.38],[33.61,27.99],[33.59,27.61],[33.8,27.42],[33.93,27.03],[34.07,26.97],[34.05,26.58],[34.2,26.52],[34.46,25.87],[34.61,25.81],[35.15,24.65],[35.86,24.01],[35.85,23.88],[35.56,23.94],[35.55,23.81],[35.11,23.88],[33.76,23.69],[33.68,23.69],[33.39,23.81],[32.04,23.69],[31.67,23.75],[30.54,23.36],[30.46,23.36],[30.4,23.56],[30.1,23.75],[30.11,23.88],[29.96,23.88],[29.67,24.2],[28.57,24.65],[28.29,25.16],[28.24,25.94],[28.35,26.58],[28.27,26.58],[28.15,27.35],[27.94,27.54],[27.71,27.54],[27.79,27.67],[27.43,27.99],[27.28,27.93],[27.29,28.12],[27.07,28.32],[26.25,28.64],[26.18,28.77],[25.88,28.83],[25.52,29.09],[25.38,29.34],[25.39,29.67],[25.47,29.67],[25.73,30.5],[25.89,30.63],[25.99,31.01],[26.32,31.53],[27.15,31.4],[27.51,31.14],[28.5,31.01],[28.87,30.82],[29.4,30.82],[29.49,31.01],[29.63,30.95],[29.87,31.08],[29.8,31.21],[29.88,31.27],[30.34,31.27],[30.27,31.4],[30.35,31.46],[30.81,31.46],[30.97,31.53],[30.97,31.66],[31.2,31.66],[31.12,31.53],[31.27,31.46],[31.88,31.46],[31.78,31.21],[31.94,31.27],[32,31.08],[32.3,31.08],[32.24,31.21],[32.53,31.08],[32.77,31.14],[32.83,31.01],[33.75,31.08],[34.3,31.27],[34.31,31.4],[34.63,31.66],[34.57,31.85],[34.81,31.98],[34.77,32.36],[35.02,32.62],[35.06,33.01],[35.22,33.07],[35.4,33.39],[35.35,33.65],[35.5,33.65],[35.45,33.91],[35.68,33.97],[35.64,34.36],[35.79,34.29],[36.05,34.55],[36.07,34.74],[35.93,34.87],[35.96,35.19],[35.88,35.19],[35.89,35.26],[36.27,35.19],[36.17,34.94],[36.31,34.87],[36.29,34.68],[36.44,34.61],[36.56,34.29],[36.87,34.29],[37,34.1],[37.39,34.1],[37.6,33.91],[37.65,33.65],[37.57,33.65],[37.07,33.26]]],[[[36.14,36.93],[35.83,36.93],[35.49,36.61],[35.11,36.74],[34.95,36.67],[34.89,36.87],[34.58,36.87],[34.25,36.67],[33.98,36.29],[33.27,36.22],[32.71,36.03],[32.56,36.03],[32.5,36.22],[31.92,36.67],[31.84,36.67],[31.74,37.25],[31.59,37.38],[31.6,37.45],[31.61,37.51],[31.61,37.58],[31.62,37.64],[32.03,37.9],[33.68,37.9],[34.36,37.71],[35.67,37.58],[36,37.71],[36.35,38.03],[37.11,37.9],[37.76,38.09],[39.17,38.09],[39.6,37.77],[39.55,37.38],[39.13,37.19],[38.27,37.13],[38.18,37],[38.02,37],[38,36.8],[37.28,36.61],[36.26,36.61],[36.27,36.67],[36.14,36.93]]]]}},{"type":"Feature","properties":{"NAME":"Kingdom of Armenia","C":5,"name":"Kingdom of Armenia","start_year":-301,"end_year":-282,"capital":"","type":"polity","region":"","event":"","source":"Cliopatria / Seshat Global History Databank (CC BY 4.0)","wikipedia":"Kingdom of Armenia (antiquity)","wikidata":"Q208404","_a":47,"_c":[43.84,39.26],"_nz":"亚美尼亚王国","_sz":""},"geometry":{"type":"MultiPolygon","coordinates":[[[[45.19,41.26],[45.23,41.07],[45.47,41.07],[45.67,40.87],[45.49,40.74],[45.52,40.48],[46.49,40.16],[46.54,39.97],[46.77,39.97],[47.05,39.77],[47.38,39.84],[47.52,39.71],[48.3,39.71],[48.67,39.58],[48.81,39.45],[48.78,39.32],[48.93,39.26],[48.74,38.67],[48.82,38.67],[48.81,38.16],[48.8,38.09],[48.33,38.09],[47.25,38.67],[46.12,38.48],[45.85,38.29],[45.63,37.9],[45.22,37.77],[45.17,37.45],[45.25,37.45],[45.29,37.19],[45.45,37.19],[45.25,36.93],[44.87,37],[44.74,37.19],[44.77,37.38],[44.41,37.58],[43.94,37.58],[42.51,37.9],[41.96,37.9],[41.67,38.03],[40.57,38.03],[40.6,38.22],[40.45,38.29],[39.45,38.42],[38.75,39.06],[38.76,39.13],[38.95,39.32],[38.87,39.32],[38.89,39.51],[38.74,39.58],[38.93,39.77],[38.79,39.9],[40.4,40.1],[40.43,40.29],[40.76,40.42],[40.55,40.55],[40.58,40.74],[40.93,40.94],[41.01,40.94],[41.12,40.68],[41.36,40.68],[41.53,41.26],[42.25,41.26],[42.36,41.46],[42.62,41.59],[44.18,41.39],[44.31,41.2],[44.63,41.26],[44.71,41.26],[45.11,41.26],[45.19,41.26]]],[[[47.07,39.84],[47.08,39.9],[47.16,39.9],[47.14,39.84],[47.07,39.84]]],[[[46.92,39.9],[46.93,39.97],[47.01,39.97],[47,39.9],[46.92,39.9]]]]}},{"type":"Feature","properties":{"NAME":"Greek City-States","C":4,"name":"Greek City-States","start_year":-301,"end_year":-292,"capital":"","type":"polity","region":"","event":"","source":"Cliopatria / Seshat Global History Databank (CC BY 4.0)","wikipedia":"Polis","wikidata":"Q148837","_a":519,"_c":[20.02,41.3],"_nz":"希腊城邦","_sz":""},"geometry":{"type":"MultiPolygon","coordinates":[[[[24.16,35.52],[24.15,35.39],[24.3,35.32],[25.69,35.32],[25.68,35.13],[26.23,35.19],[26.14,35.07],[24.82,35],[24.76,35.19],[24.53,35.19],[24.45,35.19],[23.68,35.26],[23.62,35.52],[24.16,35.52]]],[[[22.89,36.42],[22.96,36.42],[23.12,36.35],[23.11,36.16],[22.87,36.16],[22.89,36.42]]],[[[22.6,36.87],[22.51,36.67],[22.36,36.67],[22.22,37.06],[21.91,37.06],[21.9,36.87],[21.74,36.87],[21.68,37.19],[21.6,37.19],[21.61,37.25],[22.15,37.32],[22.69,37.19],[22.69,37.13],[22.99,36.93],[23.06,36.67],[22.83,36.87],[22.6,36.87]]],[[[14.98,37.32],[15.21,37.19],[15.21,37.13],[15.05,36.74],[14.66,36.74],[14.43,36.93],[14.98,37.32]]],[[[25.34,37.13],[25.42,37.13],[25.57,37.13],[25.56,37],[25.33,37],[25.34,37.13]]],[[[24.28,37.71],[24.36,37.71],[24.43,37.58],[24.27,37.51],[24.2,37.64],[24.28,37.71]]],[[[24.99,37.71],[25.06,37.71],[25.22,37.71],[25.29,37.51],[25.05,37.51],[24.99,37.71]]],[[[24.69,38.03],[24.77,38.03],[25.07,37.77],[24.83,37.71],[24.68,37.84],[24.69,38.03]]],[[[23.83,37.9],[23.75,37.9],[23.75,37.96],[23.67,37.96],[23.6,37.96],[23.52,37.96],[23.44,37.96],[23.44,38.03],[23.53,38.22],[23.77,38.22],[23.9,37.9],[23.83,37.9]]],[[[24.36,39],[24.44,39],[24.67,38.93],[24.66,38.74],[24.36,38.87],[24.36,39]]],[[[-0.31,39.13],[0.1,38.8],[-0.13,38.55],[-0.54,38.93],[-0.57,39.45],[-0.57,39.51],[-0.51,39.9],[-0.2,39.97],[-0.35,39.71],[-0.31,39.13]]],[[[17.98,40.61],[18.36,40.29],[18.44,40.1],[18.36,40.1],[18.35,39.9],[18.11,39.9],[17.81,40.36],[17.42,40.36],[17.35,40.55],[16.87,40.48],[16.94,40.36],[16.62,40.29],[16.7,40.1],[16.46,39.97],[16.45,39.64],[16.92,39.51],[17.07,39.38],[17.14,39.06],[16.66,38.93],[16.5,38.8],[16.49,38.42],[15.93,37.96],[15.7,37.96],[15.63,38.29],[15.94,38.35],[15.95,38.67],[16.27,38.74],[16.27,38.93],[16.12,39.06],[15.9,39.77],[15.67,39.9],[15.75,40.03],[15.43,40.03],[15.2,40.23],[15.04,40.23],[14.89,40.68],[15.05,40.68],[15.13,40.81],[15.36,40.36],[15.52,40.23],[16.15,40.16],[16.14,39.97],[16.38,40.03],[16.31,40.23],[16.55,40.42],[16.55,40.48],[16.88,40.74],[17.51,40.68],[17.5,40.55],[17.98,40.61]]],[[[19.92,39.77],[19.92,39.71],[19.91,39.58],[19.76,39.64],[19.76,39.77],[19.92,39.77]]],[[[25.07,40.03],[25.15,40.03],[25.46,40.03],[25.45,39.84],[24.97,39.84],[25.07,40.03]]],[[[24.49,40.81],[24.57,40.81],[24.81,40.81],[24.79,40.61],[24.55,40.55],[24.49,40.81]]],[[[5.39,43.41],[5.06,43.47],[4.18,43.47],[4.17,43.6],[3.85,43.6],[2.98,43.15],[3.01,42.56],[3.18,42.37],[3.04,41.85],[2.7,42.37],[2.78,42.43],[2.67,43.02],[2.75,43.02],[2.74,43.21],[3.45,43.67],[4.73,43.86],[5.87,43.41],[6.59,43.41],[6.6,43.28],[6.28,43.15],[6.2,43.15],[5.8,43.15],[5.63,43.28],[5.39,43.28],[5.39,43.41]]],[[[27.69,36.29],[28.02,36.48],[28.09,36.48],[28.25,36.48],[28.14,36.03],[27.74,35.9],[27.69,36.29]]],[[[27.66,36.87],[27.73,36.87],[27.89,36.87],[27.96,36.74],[27.56,36.67],[27.66,36.87]]],[[[27.12,36.93],[27.19,36.8],[26.87,36.67],[27.04,36.93],[27.12,36.93]]],[[[27.21,37.13],[27.29,37.13],[27.44,37.13],[27.35,36.93],[27.19,36.93],[27.21,37.13]]],[[[26.08,37.71],[26.16,37.71],[26.31,37.71],[26.3,37.58],[25.99,37.51],[26.08,37.71]]],[[[26.56,37.84],[26.64,37.84],[27.03,37.84],[27.01,37.64],[26.62,37.64],[26.56,37.84]]],[[[25.9,38.48],[25.82,38.48],[25.91,38.67],[25.99,38.67],[26.22,38.55],[26.11,38.16],[25.88,38.16],[25.9,38.48]]],[[[26.09,39],[26.1,39.13],[25.79,39.19],[26.04,39.38],[26.12,39.38],[26.51,39.32],[26.64,39],[26.25,38.93],[26.09,39]]],[[[25.72,40.29],[25.8,40.29],[26.04,40.29],[26.02,40.16],[25.7,40.1],[25.72,40.29]]],[[[40.47,41.07],[40.61,40.94],[40.57,40.68],[39.86,40.74],[39.69,40.61],[39.55,40.74],[39.16,40.81],[38.82,40.68],[37.87,40.68],[37.13,41],[36.88,40.94],[36.9,41.07],[36.44,41.2],[36.77,41.33],[37.07,41.13],[37.23,41.2],[37.21,41.07],[37.77,41.07],[37.83,40.94],[38.16,41],[38.3,40.87],[38.95,41],[38.96,41.07],[39.21,41.13],[39.74,40.94],[40.37,40.94],[40.47,41.07]]],[[[31.51,41.2],[31.36,41.26],[31.69,41.39],[31.59,41.2],[31.51,41.2]]],[[[35.01,41.78],[35.02,41.85],[34.79,41.98],[35.12,42.04],[35.09,41.78],[35.01,41.78]]],[[[34.38,44.78],[33.93,44.45],[33.45,44.52],[33.61,45.1],[33.46,45.19],[33.78,45.16],[33.92,44.97],[34.99,45.3],[35.02,45.3],[35.18,45.3],[35.15,45.1],[35.24,45.1],[35.13,44.91],[34.38,44.78]]],[[[31.57,46.94],[31.53,46.68],[30.88,46.68],[30.3,45.96],[30.04,45.89],[29.86,45.69],[29.61,45.69],[29.64,45.96],[30.19,46.41],[30.27,46.41],[30.46,46.61],[31.07,46.87],[31.08,47.01],[31.57,46.94]]],[[[38.67,47.6],[39.08,47.6],[39.14,47.47],[39.13,47.4],[39.2,47.33],[38.35,47.2],[38.38,47.4],[38.67,47.6]]]]}},{"type":"Feature","properties":{"NAME":"Kingdom of Bithynia","C":4,"name":"Kingdom of Bithynia","start_year":-301,"end_year":-282,"capital":"","type":"polity","region":"","event":"","source":"Cliopatria / Seshat Global History Databank (CC BY 4.0)","wikipedia":"Kingdom of Bithynia","wikidata":"Q3762571","_a":4,"_c":[30.79,41.07],"_nz":"比提尼亚王国","_sz":""},"geometry":{"type":"Polygon","coordinates":[[[30.89,40.55],[31.2,40.48],[31.71,40.87],[32.12,40.94],[32.14,41.13],[32.31,41.2],[32.32,41.33],[32.11,41.59],[32.12,41.65],[32.03,41.52],[31.7,41.46],[31.59,41.2],[31.35,41.2],[31.18,41.07],[30.62,41.07],[30.48,41.2],[29.37,41.2],[29.25,40.81],[29.49,40.81],[29.48,40.74],[30.81,40.55],[30.89,40.55]]]}},{"type":"Feature","properties":{"NAME":"Colchis","C":11,"name":"Colchis","start_year":-301,"end_year":-282,"capital":"","type":"polity","region":"","event":"","source":"Cliopatria / Seshat Global History Databank (CC BY 4.0)","wikipedia":"Colchis","wikidata":"Q183150","_a":17,"_c":[42.31,42.24],"_nz":"科尔基斯","_sz":""},"geometry":{"type":"MultiPolygon","coordinates":[[[[41.16,41.39],[41.24,41.39],[41.23,41.33],[41.15,41.33],[41.16,41.39]]],[[[41.93,43.08],[42.08,43.02],[42.33,43.08],[42.46,42.89],[42.62,42.89],[42.59,42.76],[42.73,42.63],[43.04,42.56],[43.09,42.43],[43.52,42.56],[43.57,42.43],[43.81,42.43],[43.78,42.24],[44.86,42.04],[44.98,41.85],[44.95,41.65],[44.65,41.33],[44.63,41.26],[44.31,41.2],[44.18,41.39],[42.62,41.59],[42.36,41.46],[42.25,41.26],[41.53,41.26],[41.36,40.68],[41.12,40.68],[41.01,40.94],[41.02,41],[41.27,41.13],[41.23,41.33],[41.57,41.46],[41.6,41.65],[41.78,41.78],[41.76,42.11],[41.6,42.11],[41.7,42.24],[41.48,42.37],[41.61,42.63],[41.12,43.02],[40.82,43.15],[40.42,43.15],[40.22,43.41],[39.98,43.41],[39.63,43.73],[41.05,43.54],[41.41,43.34],[42.03,43.21],[42.02,43.15],[41.93,43.08]]],[[[39.95,43.73],[39.96,43.8],[40.04,43.8],[40.03,43.73],[39.95,43.73]]]]}},{"type":"Feature","properties":{"NAME":"Kingdom of Lysimachus","C":6,"name":"Kingdom of Lysimachus","start_year":-301,"end_year":-292,"capital":"","type":"polity","region":"","event":"","source":"Cliopatria / Seshat Global History Databank (CC BY 4.0)","wikipedia":"Lysimachian Empire","wikidata":"Q32133","_a":123,"_c":[28.98,40.89],"_nz":"利西马科斯王国","_sz":""},"geometry":{"type":"MultiPolygon","coordinates":[[[[28.9,40.48],[28.91,40.61],[29.4,40.74],[29.48,40.74],[30.81,40.55],[30.89,40.55],[31.2,40.48],[31.71,40.87],[32.12,40.94],[32.14,41.13],[32.31,41.2],[32.32,41.33],[32.11,41.59],[32.19,41.59],[32.69,41.78],[32.63,41.91],[32.86,41.85],[33.28,41.98],[34.47,41.98],[34.33,41.46],[34.46,41.26],[34.27,41],[34.41,40.87],[34.38,40.61],[34.6,40.48],[34.54,39.97],[34.83,39.77],[35.51,39.58],[35.59,39.58],[34.95,39.45],[34.69,39.26],[34.66,39],[34.49,38.93],[34.48,38.8],[33.7,38.87],[33.67,38.61],[33.51,38.55],[33.27,38.55],[33,38.93],[32.84,38.93],[32.5,38.67],[31.88,38.74],[31.53,38.35],[31.62,37.64],[31.61,37.58],[31.61,37.51],[31.6,37.45],[31.52,37.45],[31.52,37.38],[31.59,37.38],[31.74,37.25],[31.84,36.67],[31.76,36.67],[31.39,36.87],[30.62,36.93],[30.49,36.35],[30.03,36.35],[29.94,36.22],[29.24,36.22],[29.12,36.74],[28.36,36.87],[28.19,36.67],[28.03,36.67],[28.14,37.06],[28.07,37.13],[27.6,37.13],[27.54,37.38],[27.22,37.32],[27.31,37.45],[27.16,37.58],[27.26,37.77],[27.18,37.77],[27.28,38.03],[26.89,38.09],[26.82,38.22],[26.43,38.22],[26.45,38.55],[26.37,38.55],[26.46,38.67],[26.59,38.35],[27.06,38.35],[27.08,38.55],[26.85,38.61],[26.96,39],[26.88,39],[26.89,39.19],[26.74,39.26],[26.85,39.58],[26.13,39.51],[26.17,39.97],[26.25,39.97],[26.27,40.29],[26.6,40.48],[26.68,40.48],[26.67,40.36],[27.47,40.42],[27.54,40.29],[27.7,40.29],[27.79,40.48],[27.95,40.48],[27.94,40.36],[28.02,40.36],[29.05,40.36],[28.9,40.48]]],[[[22.4,42.76],[22.48,42.76],[22.47,42.69],[22.39,42.69],[22.4,42.76]]],[[[22.65,42.95],[22.73,42.95],[22.73,42.89],[22.65,42.89],[22.65,42.95]]],[[[22.74,43.02],[22.82,43.02],[22.81,42.95],[22.73,42.95],[22.74,43.02]]],[[[29.05,44.97],[28.8,44.97],[28.84,44.58],[28.58,44.39],[28.54,43.99],[28.62,43.99],[28.48,43.47],[28.16,43.47],[28.23,43.34],[27.9,43.28],[27.8,43.15],[27.85,42.76],[27.51,42.63],[27.49,42.43],[27.94,42.04],[28.05,41.59],[28.22,41.65],[28.35,41.39],[28.98,41.26],[28.96,41.13],[29.37,41.2],[29.26,40.87],[29.1,40.94],[29.12,41.07],[27.53,41.07],[26.84,40.48],[26.78,40.68],[26.63,40.74],[26.14,40.61],[26.08,40.87],[25.85,40.94],[24.34,40.94],[24.26,40.94],[23.96,41.2],[23.8,41.2],[23.75,41.52],[23.59,41.59],[23.53,41.78],[22.82,41.91],[22.67,42.11],[22.44,42.17],[22.37,42.37],[22.54,42.5],[22.47,42.69],[22.55,42.69],[22.98,43.08],[23.14,43.08],[23.07,43.21],[23.4,43.28],[23.33,43.47],[23.42,43.6],[23.58,43.6],[23.52,43.86],[23.92,43.86],[24.08,43.73],[24.81,43.8],[25.52,43.67],[26.37,44.12],[27.75,44.19],[27.93,44.39],[27.85,44.39],[27.87,44.58],[27.71,44.58],[27.73,44.78],[27.89,44.78],[27.92,45.1],[27.77,45.17],[27.79,45.37],[28.04,45.43],[28.05,45.56],[28.29,45.5],[28.27,45.37],[28.43,45.3],[28.76,45.3],[29.18,45.5],[29.67,45.43],[29.62,45.04],[29.27,44.84],[29.19,44.84],[29.02,44.78],[29.05,44.97]]],[[[22.82,43.08],[22.9,43.08],[22.9,43.02],[22.82,43.02],[22.82,43.08]]]]}},{"type":"Feature","properties":{"NAME":"Carthage","C":7,"name":"Carthage","start_year":-301,"end_year":-278,"capital":"","type":"polity","region":"","event":"","source":"Cliopatria / Seshat Global History Databank (CC BY 4.0)","wikipedia":"Ancient Carthage","wikidata":"Q2429397","_a":298,"_c":[5.51,35.69],"_nz":"迦太基","_sz":""},"geometry":{"type":"MultiPolygon","coordinates":[[[[11.08,35.58],[11.08,35.39],[11.01,35.39],[11.08,35],[10.85,34.94],[10.85,34.81],[10.54,34.55],[10,34.29],[10.08,34.23],[10.01,33.91],[10.24,33.71],[10.54,33.71],[10.7,33.52],[11.08,33.59],[11.16,33.2],[11.46,33.2],[12.23,32.81],[12.61,32.88],[12.53,32.75],[12.84,32.75],[12.84,32.88],[13.3,32.94],[13.45,32.81],[13.76,32.88],[13.76,32.75],[14.07,32.75],[14.44,32.49],[14.67,32.56],[14.75,32.43],[15.06,32.43],[15.28,32.3],[15.42,31.66],[15.58,31.59],[15.65,31.4],[16.18,31.21],[16.86,31.21],[17.85,30.95],[18.22,30.76],[18.59,30.37],[18.9,30.37],[18.81,30.12],[18.59,30.12],[18.22,30.5],[17.16,30.89],[15.57,31.14],[15.19,31.46],[15.05,32.11],[14.9,32.24],[14.52,32.17],[14.44,32.36],[13.76,32.62],[12,32.62],[12.08,32.75],[11.62,32.94],[11.08,32.88],[10.7,33.14],[10.47,33.14],[10.47,33.26],[9.85,33.39],[9.62,33.33],[9.55,33.52],[9.32,33.59],[9.08,34.04],[8.93,34.04],[9,34.36],[8.93,34.36],[8.85,34.74],[8.46,34.87],[8.23,34.81],[8.07,34.94],[7.91,35.97],[7.83,35.97],[7.9,36.22],[7.59,36.61],[6.96,36.61],[6.89,36.48],[6.42,36.55],[6.35,36.42],[5.88,36.48],[5.65,36.35],[2.77,36.42],[2.32,36.22],[2,36.29],[2.01,36.16],[1.15,36.16],[1.01,36.03],[0.77,36.03],[0.48,35.64],[-0.29,35.58],[-1.04,35.07],[-1.2,35.13],[-1.35,35],[-1.81,34.94],[-1.88,34.81],[-2.81,34.94],[-4.73,34.87],[-4.74,35],[-5.21,35.13],[-5.39,35.45],[-5.63,35.52],[-5.9,35],[-5.81,34.87],[-5.97,34.87],[-6.24,34.36],[-6.16,34.23],[-6.31,34.23],[-6.6,33.97],[-6.59,33.84],[-6.81,33.71],[-6.73,33.59],[-7.18,33.52],[-7.47,33.26],[-7.88,33.52],[-7.13,33.84],[-7.06,33.97],[-6.9,33.91],[-6.61,34.16],[-6.7,34.29],[-6.47,34.36],[-6.48,34.49],[-6.26,34.68],[-6.2,34.94],[-6.29,35.07],[-6.13,35],[-5.95,35.71],[-5.57,35.84],[-5.34,35.84],[-5.24,35.52],[-4.75,35.19],[-3.13,35.19],[-2.98,35.26],[-2.99,35.45],[-2.84,35.45],[-2.82,35.13],[-2.66,35.07],[-1.89,35.07],[-1.59,35.26],[-1.36,35.26],[-1.14,35.45],[-1.22,35.64],[-1.07,35.58],[-0.92,35.71],[-0.53,35.71],[-0.46,35.84],[0.08,35.84],[0.38,36.22],[0.68,36.29],[0.68,36.42],[0.91,36.35],[1.22,36.55],[1.53,36.48],[2.38,36.67],[2.69,36.61],[2.84,36.74],[3.23,36.74],[3.46,36.87],[3.85,36.8],[4.24,36.93],[4.86,36.87],[5.1,36.67],[5.56,36.67],[5.64,36.8],[6.11,36.8],[6.1,36.93],[6.33,37.06],[6.8,36.87],[7.19,36.87],[7.35,37.06],[7.5,37.06],[7.74,36.87],[8.52,36.87],[8.9,37.13],[9.06,37.06],[9.37,37.25],[9.76,37.32],[9.99,37.19],[10.23,37.25],[10.23,37.06],[10.31,37.06],[10.23,36.8],[10.46,36.74],[11.01,37],[11.01,36.8],[10.46,36.42],[10.54,36.35],[10.46,35.9],[10.85,35.71],[10.85,35.64],[11.08,35.58]]],[[[14.57,35.77],[14.34,35.84],[14.34,36.03],[14.42,36.03],[14.57,35.97],[14.57,35.77]]],[[[-3.85,36.8],[-4.47,36.74],[-4.69,36.55],[-5.23,36.48],[-5.29,36.22],[-5.52,36.16],[-5.58,36.03],[-5.83,36.22],[-6.06,36.22],[-6.25,36.61],[-5.92,36.35],[-5.45,36.35],[-5.31,36.48],[-5.31,36.55],[-4.56,36.87],[-3.85,36.8]]],[[[13.98,37.77],[13.43,37.96],[12.96,37.9],[12.96,37.77],[14.59,37.19],[14.51,37],[14.12,37.19],[13.58,37.25],[13.19,37.58],[12.49,37.71],[12.49,37.9],[12.65,38.09],[13.04,38.03],[13.12,38.16],[13.35,38.16],[13.67,37.96],[14.06,37.96],[15.63,38.29],[15.62,38.16],[15.39,38.16],[15.07,37.64],[15.06,37.32],[14.9,37.25],[14.75,37.64],[14.99,37.9],[14.92,37.9],[13.98,37.77]]],[[[1.66,39],[1.43,38.8],[1.27,38.8],[1.18,39.06],[1.26,39.13],[1.34,39.13],[1.65,39.13],[1.66,39]]],[[[9.82,40.74],[9.82,40.36],[9.67,40.29],[9.75,39.64],[9.67,39.64],[9.59,39.13],[9.12,39.19],[8.97,38.87],[8.73,38.87],[8.34,39],[8.41,39.26],[8.33,39.26],[8.33,39.51],[8.41,39.51],[8.48,39.9],[8.32,39.97],[8.4,40.29],[8.32,40.29],[8.32,40.48],[8.16,40.55],[8.15,40.94],[8.55,40.87],[9.02,41.26],[9.1,41.26],[9.5,41.2],[9.82,40.74]]]]}},{"type":"Feature","properties":{"NAME":"Roman Republic","C":3,"name":"Roman Republic","start_year":-301,"end_year":-292,"capital":"","type":"polity","region":"","event":"","source":"Cliopatria / Seshat Global History Databank (CC BY 4.0)","wikipedia":"Roman Republic","wikidata":"Q175881","_a":10,"_c":[14.12,41.79],"_nz":"罗马共和国","_sz":""},"geometry":{"type":"MultiPolygon","coordinates":[[[[15.87,41.72],[15.87,41.46],[16.42,41.2],[16.17,41.07],[15.38,41],[14.99,41.33],[14.92,41.65],[14.05,41.98],[13.89,42.17],[13.49,42.24],[13.17,42.11],[13.48,41.65],[13.96,41.52],[13.95,41.33],[14.11,41.26],[14.19,41.07],[14.74,41],[14.74,40.81],[15.05,40.81],[15.05,40.68],[14.42,40.68],[14.42,40.87],[14.1,40.87],[13.95,41.13],[13.79,41.13],[13.71,41.26],[13,41.33],[12.13,41.91],[12.13,42.04],[11.81,42.11],[11.81,42.17],[11.97,42.3],[11.9,42.43],[12.37,42.37],[12.37,42.3],[12.69,42.3],[12.62,42.63],[12.94,42.63],[13.1,42.43],[13.34,42.43],[13.5,42.76],[13.98,42.89],[13.9,42.76],[14.06,42.5],[14.61,42.11],[14.77,42.17],[14.77,42.04],[15.17,42.04],[15.24,41.91],[16.12,41.91],[16.11,41.78],[16.04,41.78],[15.87,41.72]]],[[[12.46,42.69],[12.46,42.63],[12.46,42.56],[12.46,42.5],[12.38,42.5],[12.14,42.5],[12.14,42.76],[12.38,42.76],[12.46,42.76],[12.46,42.69]]]]}}]}